<?xml version="1.0" encoding="UTF-8"?>
<gpx version="1.1" creator="Senda">
<bounds minlat="0.0" minlon="0.0" maxlat="0.0" maxlon="0.0" />
<trk><name>capravo tornada-2026-07-11</name><trkseg>
<trkpt lat="42.0016745" lon="2.824341299999986">
<ele>70.5300974611671</ele>
<time>2026-07-11T18:19:22.785Z</time>
</trkpt>
<trkpt lat="42.0016539" lon="2.824335899999994">
<ele>70.5050224793694</ele>
<time>2026-07-11T18:19:24.781Z</time>
</trkpt>
<trkpt lat="42.0016308" lon="2.8243286999999953">
<ele>70.47161271169212</ele>
<time>2026-07-11T18:19:26.789Z</time>
</trkpt>
<trkpt lat="42.0016055" lon="2.8243176999999946">
<ele>70.41827922586167</ele>
<time>2026-07-11T18:19:28.681Z</time>
</trkpt>
<trkpt lat="42.0015838" lon="2.824315399999989">
<ele>70.41971208484352</ele>
<time>2026-07-11T18:19:30.819Z</time>
</trkpt>
<trkpt lat="42.0015584" lon="2.8243227000000104">
<ele>70.48178634436677</ele>
<time>2026-07-11T18:19:32.835Z</time>
</trkpt>
<trkpt lat="42.0015336" lon="2.8243291">
<ele>70.53548934932098</ele>
<time>2026-07-11T18:19:34.785Z</time>
</trkpt>
<trkpt lat="42.0015102" lon="2.824336499999987">
<ele>70.59155230906126</ele>
<time>2026-07-11T18:19:36.908Z</time>
</trkpt>
<trkpt lat="42.0014874" lon="2.8243426999999883">
<ele>70.63818580361071</ele>
<time>2026-07-11T18:19:38.798Z</time>
</trkpt>
<trkpt lat="42.0014616" lon="2.8243405000000052">
<ele>70.64031866227064</ele>
<time>2026-07-11T18:19:40.722Z</time>
</trkpt>
<trkpt lat="42.0014358" lon="2.824335899999994">
<ele>70.63126898182844</ele>
<time>2026-07-11T18:19:42.910Z</time>
</trkpt>
<trkpt lat="42.0014106" lon="2.8243313000000114">
<ele>70.62365157217162</ele>
<time>2026-07-11T18:19:44.802Z</time>
</trkpt>
<trkpt lat="42.0013817" lon="2.8243260000000134">
<ele>70.58695466138676</ele>
<time>2026-07-11T18:19:46.798Z</time>
</trkpt>
<trkpt lat="42.0013527" lon="2.824332499999997">
<ele>70.54262277895637</ele>
<time>2026-07-11T18:19:48.896Z</time>
</trkpt>
<trkpt lat="42.0013304" lon="2.824342800000011">
<ele>70.53736074335022</ele>
<time>2026-07-11T18:19:50.849Z</time>
</trkpt>
<trkpt lat="42.0013127" lon="2.8243592000000035">
<ele>70.57842798620467</ele>
<time>2026-07-11T18:19:52.931Z</time>
</trkpt>
<trkpt lat="42.001291" lon="2.8243632999999875">
<ele>70.54828398639931</ele>
<time>2026-07-11T18:19:54.838Z</time>
</trkpt>
<trkpt lat="42.0012628" lon="2.824367300000006">
<ele>70.50356909651096</ele>
<time>2026-07-11T18:19:56.848Z</time>
</trkpt>
<trkpt lat="42.0012316" lon="2.8243674">
<ele>70.4308901596518</ele>
<time>2026-07-11T18:19:58.922Z</time>
</trkpt>
<trkpt lat="42.0012076" lon="2.824370700000003">
<ele>70.39421518682298</ele>
<time>2026-07-11T18:20:00.838Z</time>
</trkpt>
<trkpt lat="42.0011811" lon="2.8243737999999894">
<ele>70.35166591449362</ele>
<time>2026-07-11T18:20:02.818Z</time>
</trkpt>
<trkpt lat="42.0011559" lon="2.8243783000000064">
<ele>70.32207706396035</ele>
<time>2026-07-11T18:20:04.917Z</time>
</trkpt>
<trkpt lat="42.0011422" lon="2.824383299999994">
<ele>70.32303714894611</ele>
<time>2026-07-11T18:20:06.816Z</time>
</trkpt>
<trkpt lat="42.0011277" lon="2.824375599999996">
<ele>70.24043765017589</ele>
<time>2026-07-11T18:20:08.798Z</time>
</trkpt>
<trkpt lat="42.0011045" lon="2.8243552000000136">
<ele>70.05882311198529</ele>
<time>2026-07-11T18:20:10.735Z</time>
</trkpt>
<trkpt lat="42.0010884" lon="2.824334399999998">
<ele>69.89064958559572</ele>
<time>2026-07-11T18:20:12.720Z</time>
</trkpt>
<trkpt lat="42.0010722" lon="2.8243176000000005">
<ele>69.74212761223829</ele>
<time>2026-07-11T18:20:14.681Z</time>
</trkpt>
<trkpt lat="42.00105" lon="2.8243089000000055">
<ele>69.63360460753786</ele>
<time>2026-07-11T18:20:16.681Z</time>
</trkpt>
<trkpt lat="42.0010296" lon="2.824304100000006">
<ele>69.55405114777207</ele>
<time>2026-07-11T18:20:18.562Z</time>
</trkpt>
<trkpt lat="42.0010024" lon="2.8243042999999943">
<ele>69.49720440278051</ele>
<time>2026-07-11T18:20:20.760Z</time>
</trkpt>
<trkpt lat="42.0009773" lon="2.8243071999999927">
<ele>69.46765130843596</ele>
<time>2026-07-11T18:20:22.723Z</time>
</trkpt>
<trkpt lat="42.0009559" lon="2.824306100000001">
<ele>69.41298923114927</ele>
<time>2026-07-11T18:20:24.640Z</time>
</trkpt>
<trkpt lat="42.0009318" lon="2.8243110999999885">
<ele>69.40673536333264</ele>
<time>2026-07-11T18:20:26.561Z</time>
</trkpt>
<trkpt lat="42.0008723" lon="2.8243193000000133">
<ele>69.36432177670059</ele>
<time>2026-07-11T18:20:30.867Z</time>
</trkpt>
<trkpt lat="42.0008423" lon="2.8243174000000124">
<ele>69.28651134301398</ele>
<time>2026-07-11T18:20:32.780Z</time>
</trkpt>
<trkpt lat="42.0008076" lon="2.8243182999999874">
<ele>69.3744150181678</ele>
<time>2026-07-11T18:20:34.898Z</time>
</trkpt>
<trkpt lat="42.0007778" lon="2.8243163999999865">
<ele>69.46111869624357</ele>
<time>2026-07-11T18:20:36.907Z</time>
</trkpt>
<trkpt lat="42.0007485" lon="2.824316799999991">
<ele>69.56812237161483</ele>
<time>2026-07-11T18:20:38.833Z</time>
</trkpt>
<trkpt lat="42.0007098" lon="2.8243123999999966">
<ele>69.66918198035198</ele>
<time>2026-07-11T18:20:40.849Z</time>
</trkpt>
<trkpt lat="42.0006842" lon="2.8243110999999885">
<ele>69.75157287222568</ele>
<time>2026-07-11T18:20:42.872Z</time>
</trkpt>
<trkpt lat="42.0006554" lon="2.8243085000000008">
<ele>69.83762179965318</ele>
<time>2026-07-11T18:20:44.907Z</time>
</trkpt>
<trkpt lat="42.0006296" lon="2.8243084000000067">
<ele>69.93172042586843</ele>
<time>2026-07-11T18:20:46.789Z</time>
</trkpt>
<trkpt lat="42.0006032" lon="2.8243083000000127">
<ele>70.02811639475212</ele>
<time>2026-07-11T18:20:48.801Z</time>
</trkpt>
<trkpt lat="42.0005748" lon="2.824304699999999">
<ele>70.11219035259526</ele>
<time>2026-07-11T18:20:50.738Z</time>
</trkpt>
<trkpt lat="42.0005405" lon="2.8243055000000084">
<ele>70.1446516010158</ele>
<time>2026-07-11T18:20:52.657Z</time>
</trkpt>
<trkpt lat="42.0005179" lon="2.8243035000000134">
<ele>70.07395542745485</ele>
<time>2026-07-11T18:20:54.665Z</time>
</trkpt>
<trkpt lat="42.0005119" lon="2.8243193000000133">
<ele>70.1575814983938</ele>
<time>2026-07-11T18:20:56.582Z</time>
</trkpt>
<trkpt lat="42.0004751" lon="2.8243275000000096">
<ele>70.13175483708258</ele>
<time>2026-07-11T18:20:58.559Z</time>
</trkpt>
<trkpt lat="42.0004317" lon="2.824315000000013">
<ele>69.93998169107655</ele>
<time>2026-07-11T18:21:00.415Z</time>
</trkpt>
<trkpt lat="42.0004016" lon="2.824309900000003">
<ele>69.82412142418387</ele>
<time>2026-07-11T18:21:02.337Z</time>
</trkpt>
<trkpt lat="42.0003721" lon="2.82430260000001">
<ele>69.68258318185815</ele>
<time>2026-07-11T18:21:04.361Z</time>
</trkpt>
<trkpt lat="42.0003397" lon="2.8243094999999983">
<ele>69.66614964679921</ele>
<time>2026-07-11T18:21:06.280Z</time>
</trkpt>
<trkpt lat="42.0003195" lon="2.8243072999999868">
<ele>69.59266679079585</ele>
<time>2026-07-11T18:21:08.082Z</time>
</trkpt>
<trkpt lat="42.000289" lon="2.824304500000011">
<ele>69.48386107206535</ele>
<time>2026-07-11T18:21:10.203Z</time>
</trkpt>
<trkpt lat="42.000253" lon="2.8243176000000005">
<ele>69.60479050826807</ele>
<time>2026-07-11T18:21:12.658Z</time>
</trkpt>
<trkpt lat="42.0002309" lon="2.8243157999999937">
<ele>69.58429586505484</ele>
<time>2026-07-11T18:21:14.562Z</time>
</trkpt>
<trkpt lat="42.0002053" lon="2.8243055000000084">
<ele>69.46702096223402</ele>
<time>2026-07-11T18:21:16.521Z</time>
</trkpt>
<trkpt lat="42.0001729" lon="2.824299599999989">
<ele>69.39984407615103</ele>
<time>2026-07-11T18:21:18.480Z</time>
</trkpt>
<trkpt lat="42.0001447" lon="2.8242758000000094">
<ele>69.12885934924881</ele>
<time>2026-07-11T18:21:20.923Z</time>
</trkpt>
<trkpt lat="42.0001213" lon="2.824273000000005">
<ele>69.0969787931388</ele>
<time>2026-07-11T18:21:22.838Z</time>
</trkpt>
<trkpt lat="42.0000885" lon="2.824284900000009">
<ele>69.23247115659245</ele>
<time>2026-07-11T18:21:24.839Z</time>
</trkpt>
<trkpt lat="42.0000613" lon="2.8242917000000034">
<ele>69.3098953642795</ele>
<time>2026-07-11T18:21:26.919Z</time>
</trkpt>
<trkpt lat="42.0000364" lon="2.824292100000008">
<ele>69.31444972944027</ele>
<time>2026-07-11T18:21:28.839Z</time>
</trkpt>
<trkpt lat="41.9999749" lon="2.8242976999999883">
<ele>68.9640339010026</ele>
<time>2026-07-11T18:21:32.722Z</time>
</trkpt>
<trkpt lat="41.9999416" lon="2.824300800000003">
<ele>69.13588291156779</ele>
<time>2026-07-11T18:21:34.783Z</time>
</trkpt>
<trkpt lat="41.9999126" lon="2.824304100000006">
<ele>69.29109090206829</ele>
<time>2026-07-11T18:21:36.783Z</time>
</trkpt>
<trkpt lat="41.9998806" lon="2.8243104000000017">
<ele>69.48931225194059</ele>
<time>2026-07-11T18:21:38.838Z</time>
</trkpt>
<trkpt lat="41.9998541" lon="2.8243242000000066">
<ele>69.74149299075277</ele>
<time>2026-07-11T18:21:40.789Z</time>
</trkpt>
<trkpt lat="41.9998312" lon="2.8243296999999927">
<ele>69.88987116904512</ele>
<time>2026-07-11T18:21:42.803Z</time>
</trkpt>
<trkpt lat="41.9998107" lon="2.824323899999996">
<ele>69.91200913432317</ele>
<time>2026-07-11T18:21:44.924Z</time>
</trkpt>
<trkpt lat="41.9997886" lon="2.824308000000002">
<ele>69.8399457448586</ele>
<time>2026-07-11T18:21:46.840Z</time>
</trkpt>
<trkpt lat="41.9997491" lon="2.8242986999999857">
<ele>69.90953092177467</ele>
<time>2026-07-11T18:21:48.736Z</time>
</trkpt>
<trkpt lat="41.9997124" lon="2.8243104000000017">
<ele>70.12634167490359</ele>
<time>2026-07-11T18:21:50.722Z</time>
</trkpt>
<trkpt lat="41.9996751" lon="2.824318799999986">
<ele>70.1702350581067</ele>
<time>2026-07-11T18:21:52.912Z</time>
</trkpt>
<trkpt lat="41.9996518" lon="2.8243103000000076">
<ele>70.06200902940941</ele>
<time>2026-07-11T18:21:54.720Z</time>
</trkpt>
<trkpt lat="41.9996274" lon="2.8243123999999966">
<ele>70.05750988864423</ele>
<time>2026-07-11T18:21:56.561Z</time>
</trkpt>
<trkpt lat="41.9995936" lon="2.8243128000000013">
<ele>70.02641981629907</ele>
<time>2026-07-11T18:21:58.520Z</time>
</trkpt>
<trkpt lat="41.9995719" lon="2.824313399999994">
<ele>70.00999009448358</ele>
<time>2026-07-11T18:22:00.479Z</time>
</trkpt>
<trkpt lat="41.9995487" lon="2.8243127000000072">
<ele>69.97877994991798</ele>
<time>2026-07-11T18:22:02.437Z</time>
</trkpt>
<trkpt lat="41.9995144" lon="2.8243176999999946">
<ele>69.9948260532716</ele>
<time>2026-07-11T18:22:04.397Z</time>
</trkpt>
<trkpt lat="41.9994886" lon="2.8243209000000036">
<ele>70.00171396517347</ele>
<time>2026-07-11T18:22:06.904Z</time>
</trkpt>
<trkpt lat="41.999467" lon="2.8243224">
<ele>69.99550327431295</ele>
<time>2026-07-11T18:22:08.834Z</time>
</trkpt>
<trkpt lat="41.9994378" lon="2.8243246000000113">
<ele>69.98854676183876</ele>
<time>2026-07-11T18:22:10.848Z</time>
</trkpt>
<trkpt lat="41.999409" lon="2.82432399999999">
<ele>69.94934451196546</ele>
<time>2026-07-11T18:22:12.838Z</time>
</trkpt>
<trkpt lat="41.999385" lon="2.8243180999999993">
<ele>69.8491969712927</ele>
<time>2026-07-11T18:22:14.783Z</time>
</trkpt>
<trkpt lat="41.9993536" lon="2.8243174000000124">
<ele>69.7984448822796</ele>
<time>2026-07-11T18:22:16.839Z</time>
</trkpt>
<trkpt lat="41.9993229" lon="2.8243124999999907">
<ele>69.68741043226397</ele>
<time>2026-07-11T18:22:18.845Z</time>
</trkpt>
<trkpt lat="41.9992977" lon="2.8242968000000133">
<ele>69.41378338065236</ele>
<time>2026-07-11T18:22:20.739Z</time>
</trkpt>
<trkpt lat="41.9992689" lon="2.8243051000000037">
<ele>69.48903211547982</ele>
<time>2026-07-11T18:22:22.720Z</time>
</trkpt>
<trkpt lat="41.9992437" lon="2.824320499999999">
<ele>69.7028183483833</ele>
<time>2026-07-11T18:22:24.577Z</time>
</trkpt>
<trkpt lat="41.9992215" lon="2.8243229999999926">
<ele>69.71861547885173</ele>
<time>2026-07-11T18:22:26.537Z</time>
</trkpt>
<trkpt lat="41.9991924" lon="2.824318500000004">
<ele>69.60236510443707</ele>
<time>2026-07-11T18:22:28.561Z</time>
</trkpt>
<trkpt lat="41.9991606" lon="2.824314600000008">
<ele>69.48932088859439</ele>
<time>2026-07-11T18:22:30.521Z</time>
</trkpt>
<trkpt lat="41.999127" lon="2.824320400000005">
<ele>69.57356411713774</ele>
<time>2026-07-11T18:22:32.456Z</time>
</trkpt>
<trkpt lat="41.9990897" lon="2.8242773999999997">
<ele>68.77262538288865</ele>
<time>2026-07-11T18:22:34.401Z</time>
</trkpt>
<trkpt lat="41.9990597" lon="2.824276300000008">
<ele>68.74965870224918</ele>
<time>2026-07-11T18:22:36.296Z</time>
</trkpt>
<trkpt lat="41.9990202" lon="2.8242743000000132">
<ele>68.71162853926998</ele>
<time>2026-07-11T18:22:38.281Z</time>
</trkpt>
<trkpt lat="41.9989953" lon="2.824273699999992">
<ele>68.69980302278816</ele>
<time>2026-07-11T18:22:40.375Z</time>
</trkpt>
<trkpt lat="41.9989685" lon="2.8242739000000086">
<ele>68.70120795382714</ele>
<time>2026-07-11T18:22:42.455Z</time>
</trkpt>
<trkpt lat="41.9989298" lon="2.824274900000006">
<ele>68.7139879615994</ele>
<time>2026-07-11T18:22:44.456Z</time>
</trkpt>
<trkpt lat="41.9989088" lon="2.824278800000002">
<ele>68.7714700193838</ele>
<time>2026-07-11T18:22:46.263Z</time>
</trkpt>
<trkpt lat="41.9988812" lon="2.8242797999999993">
<ele>68.7849443042144</ele>
<time>2026-07-11T18:22:48.302Z</time>
</trkpt>
<trkpt lat="41.9988536" lon="2.824277599999988">
<ele>68.7603322072093</ele>
<time>2026-07-11T18:22:50.221Z</time>
</trkpt>
<trkpt lat="41.9988242" lon="2.8242765999999904">
<ele>68.75436701386685</ele>
<time>2026-07-11T18:22:52.100Z</time>
</trkpt>
<trkpt lat="41.9987712" lon="2.8242773000000057">
<ele>68.78006788957495</ele>
<time>2026-07-11T18:22:56.120Z</time>
</trkpt>
<trkpt lat="41.998737" lon="2.824283400000013">
<ele>68.87582342541869</ele>
<time>2026-07-11T18:22:58.060Z</time>
</trkpt>
<trkpt lat="41.998713" lon="2.8242903000000013">
<ele>68.97813001954</ele>
<time>2026-07-11T18:22:59.932Z</time>
</trkpt>
<trkpt lat="41.9986822" lon="2.8242866999999876">
<ele>68.93544725115882</ele>
<time>2026-07-11T18:23:02.100Z</time>
</trkpt>
<trkpt lat="41.9986617" lon="2.8242883000000063">
<ele>68.96223089879147</ele>
<time>2026-07-11T18:23:03.916Z</time>
</trkpt>
<trkpt lat="41.9986193" lon="2.8242879000000016">
<ele>68.96674166562339</ele>
<time>2026-07-11T18:23:06.137Z</time>
</trkpt>
<trkpt lat="41.998586" lon="2.824296699999991">
<ele>69.0987723953049</ele>
<time>2026-07-11T18:23:08.162Z</time>
</trkpt>
<trkpt lat="41.9985527" lon="2.8243036000000075">
<ele>69.20358767112711</ele>
<time>2026-07-11T18:23:10.184Z</time>
</trkpt>
<trkpt lat="41.9985212" lon="2.824314500000014">
<ele>69.3513076363533</ele>
<time>2026-07-11T18:23:12.180Z</time>
</trkpt>
<trkpt lat="41.998489" lon="2.824329299999988">
<ele>69.53716627910917</ele>
<time>2026-07-11T18:23:14.243Z</time>
</trkpt>
<trkpt lat="41.9984601" lon="2.8243174000000124">
<ele>69.4034564079221</ele>
<time>2026-07-11T18:23:16.457Z</time>
</trkpt>
<trkpt lat="41.9984378" lon="2.8243070999999986">
<ele>69.29341395495082</ele>
<time>2026-07-11T18:23:18.441Z</time>
</trkpt>
<trkpt lat="41.9984126" lon="2.824310099999991">
<ele>69.33627662746912</ele>
<time>2026-07-11T18:23:20.281Z</time>
</trkpt>
<trkpt lat="41.9983856" lon="2.8243096999999864">
<ele>69.34172519226782</ele>
<time>2026-07-11T18:23:22.197Z</time>
</trkpt>
<trkpt lat="41.9983538" lon="2.824304500000011">
<ele>69.30002756434732</ele>
<time>2026-07-11T18:23:24.357Z</time>
</trkpt>
<trkpt lat="41.9983039" lon="2.824353500000001">
<ele>69.82485703922436</ele>
<time>2026-07-11T18:23:26.379Z</time>
</trkpt>
<trkpt lat="41.998274" lon="2.824363500000004">
<ele>69.96588160172512</ele>
<time>2026-07-11T18:23:28.321Z</time>
</trkpt>
<trkpt lat="41.9982518" lon="2.824368800000002">
<ele>70.05399667838303</ele>
<time>2026-07-11T18:23:30.138Z</time>
</trkpt>
<trkpt lat="41.9982188" lon="2.8243731000000025">
<ele>70.15000758351792</ele>
<time>2026-07-11T18:23:32.319Z</time>
</trkpt>
<trkpt lat="41.9981883" lon="2.8243808">
<ele>70.29234924268181</ele>
<time>2026-07-11T18:23:34.301Z</time>
</trkpt>
<trkpt lat="41.9981625" lon="2.8243864000000087">
<ele>70.40811853723602</ele>
<time>2026-07-11T18:23:36.182Z</time>
</trkpt>
<trkpt lat="41.9981258" lon="2.824391399999996">
<ele>70.54090658439476</ele>
<time>2026-07-11T18:23:38.298Z</time>
</trkpt>
<trkpt lat="41.9980928" lon="2.824392700000004">
<ele>70.61904288358876</ele>
<time>2026-07-11T18:23:40.319Z</time>
</trkpt>
<trkpt lat="41.9980596" lon="2.824391800000001">
<ele>70.66487854455416</ele>
<time>2026-07-11T18:23:42.342Z</time>
</trkpt>
<trkpt lat="41.9980291" lon="2.824405299999995">
<ele>70.70449326616199</ele>
<time>2026-07-11T18:23:44.299Z</time>
</trkpt>
<trkpt lat="41.9980064" lon="2.8244239999999934">
<ele>70.82905684228027</ele>
<time>2026-07-11T18:23:46.245Z</time>
</trkpt>
<trkpt lat="41.9979786" lon="2.8244318000000135">
<ele>70.74313061271461</ele>
<time>2026-07-11T18:23:48.122Z</time>
</trkpt>
<trkpt lat="41.9979482" lon="2.824433499999998">
<ele>70.53954709161316</ele>
<time>2026-07-11T18:23:50.039Z</time>
</trkpt>
<trkpt lat="41.9979195" lon="2.8244338000000084">
<ele>70.32611924110316</ele>
<time>2026-07-11T18:23:51.959Z</time>
</trkpt>
<trkpt lat="41.9978982" lon="2.8244312999999863">
<ele>70.12157760788845</ele>
<time>2026-07-11T18:23:53.958Z</time>
</trkpt>
<trkpt lat="41.9978762" lon="2.8244425000000035">
<ele>70.14577062504954</ele>
<time>2026-07-11T18:23:55.940Z</time>
</trkpt>
<trkpt lat="41.9978585" lon="2.8244578000000047">
<ele>70.2766126751091</ele>
<time>2026-07-11T18:23:57.839Z</time>
</trkpt>
<trkpt lat="41.9978269" lon="2.8244741999999974">
<ele>70.32917424787905</ele>
<time>2026-07-11T18:23:59.920Z</time>
</trkpt>
<trkpt lat="41.9978002" lon="2.824493100000012">
<ele>70.47235701905902</ele>
<time>2026-07-11T18:24:01.912Z</time>
</trkpt>
<trkpt lat="41.9977738" lon="2.8245138000000054">
<ele>70.67415173068183</ele>
<time>2026-07-11T18:24:03.862Z</time>
</trkpt>
<trkpt lat="41.9977479" lon="2.824542699999995">
<ele>71.14807646742301</ele>
<time>2026-07-11T18:24:05.819Z</time>
</trkpt>
<trkpt lat="41.9977253" lon="2.824569700000012">
<ele>71.60370724205397</ele>
<time>2026-07-11T18:24:07.803Z</time>
</trkpt>
<trkpt lat="41.9977047" lon="2.8246005000000025">
<ele>72.14374863797038</ele>
<time>2026-07-11T18:24:09.780Z</time>
</trkpt>
<trkpt lat="41.9976873" lon="2.824617200000006">
<ele>72.42918832883761</ele>
<time>2026-07-11T18:24:11.699Z</time>
</trkpt>
<trkpt lat="41.9976569" lon="2.8246321999999964">
<ele>72.6642935678816</ele>
<time>2026-07-11T18:24:13.742Z</time>
</trkpt>
<trkpt lat="41.9976306" lon="2.8246350999999947">
<ele>72.67667774894228</ele>
<time>2026-07-11T18:24:15.761Z</time>
</trkpt>
<trkpt lat="41.9976037" lon="2.8246303999999895">
<ele>72.53976388004396</ele>
<time>2026-07-11T18:24:17.718Z</time>
</trkpt>
<trkpt lat="41.9975735" lon="2.824624599999993">
<ele>72.37354137754227</ele>
<time>2026-07-11T18:24:19.742Z</time>
</trkpt>
<trkpt lat="41.9975424" lon="2.8246217999999885">
<ele>72.26352741660426</ele>
<time>2026-07-11T18:24:21.717Z</time>
</trkpt>
<trkpt lat="41.997505" lon="2.824617399999994">
<ele>72.10859410508341</ele>
<time>2026-07-11T18:24:23.702Z</time>
</trkpt>
<trkpt lat="41.9974782" lon="2.824612099999996">
<ele>71.94451026106745</ele>
<time>2026-07-11T18:24:25.742Z</time>
</trkpt>
<trkpt lat="41.9974476" lon="2.8246077000000014">
<ele>71.78611062213491</ele>
<time>2026-07-11T18:24:27.714Z</time>
</trkpt>
<trkpt lat="41.9974155" lon="2.8246064999999874">
<ele>71.689629384388</ele>
<time>2026-07-11T18:24:29.740Z</time>
</trkpt>
<trkpt lat="41.997387" lon="2.8246075000000133">
<ele>71.6464241116184</ele>
<time>2026-07-11T18:24:31.682Z</time>
</trkpt>
<trkpt lat="41.9973654" lon="2.824613599999992">
<ele>71.72409240108654</ele>
<time>2026-07-11T18:24:34.090Z</time>
</trkpt>
<trkpt lat="41.9973345" lon="2.824646300000012">
<ele>72.33263909600946</ele>
<time>2026-07-11T18:24:36.216Z</time>
</trkpt>
<trkpt lat="41.9972907" lon="2.824629499999986">
<ele>71.88847317859994</ele>
<time>2026-07-11T18:24:38.480Z</time>
</trkpt>
<trkpt lat="41.997254" lon="2.8246192000000008">
<ele>71.59297191514236</ele>
<time>2026-07-11T18:24:40.375Z</time>
</trkpt>
<trkpt lat="41.997227" lon="2.824629399999992">
<ele>71.74650131602817</ele>
<time>2026-07-11T18:24:42.496Z</time>
</trkpt>
<trkpt lat="41.9971996" lon="2.82463580000001">
<ele>71.64896350423932</ele>
<time>2026-07-11T18:24:44.503Z</time>
</trkpt>
<trkpt lat="41.9971702" lon="2.824659099999991">
<ele>71.80334097790387</ele>
<time>2026-07-11T18:24:46.856Z</time>
</trkpt>
<trkpt lat="41.9971437" lon="2.8246704999999963">
<ele>71.74139912399627</ele>
<time>2026-07-11T18:24:48.783Z</time>
</trkpt>
<trkpt lat="41.9971198" lon="2.8246766999999977">
<ele>71.60007228489307</ele>
<time>2026-07-11T18:24:50.663Z</time>
</trkpt>
<trkpt lat="41.9970947" lon="2.824683399999998">
<ele>71.45552042981336</ele>
<time>2026-07-11T18:24:52.500Z</time>
</trkpt>
<trkpt lat="41.9970684" lon="2.8246863999999903">
<ele>71.21995899168267</ele>
<time>2026-07-11T18:24:54.500Z</time>
</trkpt>
<trkpt lat="41.9970347" lon="2.8246895999999992">
<ele>70.90460930175124</ele>
<time>2026-07-11T18:24:56.501Z</time>
</trkpt>
<trkpt lat="41.9970036" lon="2.8246923000000095">
<ele>70.60825930734471</ele>
<time>2026-07-11T18:24:58.909Z</time>
</trkpt>
<trkpt lat="41.9969778" lon="2.8246924999999976">
<ele>70.3197973415543</ele>
<time>2026-07-11T18:25:00.843Z</time>
</trkpt>
<trkpt lat="41.996946" lon="2.8247029000000055">
<ele>70.17614525089121</ele>
<time>2026-07-11T18:25:02.817Z</time>
</trkpt>
<trkpt lat="41.9969192" lon="2.824710699999997">
<ele>69.97817018060333</ele>
<time>2026-07-11T18:25:04.921Z</time>
</trkpt>
<trkpt lat="41.9969013" lon="2.824717600000014">
<ele>69.8687451630005</ele>
<time>2026-07-11T18:25:06.799Z</time>
</trkpt>
<trkpt lat="41.9968754" lon="2.824725199999989">
<ele>69.65856531179956</ele>
<time>2026-07-11T18:25:08.783Z</time>
</trkpt>
<trkpt lat="41.9968516" lon="2.824729600000012">
<ele>69.4106290950639</ele>
<time>2026-07-11T18:25:10.863Z</time>
</trkpt>
<trkpt lat="41.9968306" lon="2.8247374999999977">
<ele>69.2711319108152</ele>
<time>2026-07-11T18:25:12.783Z</time>
</trkpt>
<trkpt lat="41.9967801" lon="2.824750999999992">
<ele>68.81739155663148</ele>
<time>2026-07-11T18:25:16.521Z</time>
</trkpt>
<trkpt lat="41.9967506" lon="2.824787200000003">
<ele>69.39386130952482</ele>
<time>2026-07-11T18:25:18.706Z</time>
</trkpt>
<trkpt lat="41.9967216" lon="2.8248054999999965">
<ele>69.47909531706921</ele>
<time>2026-07-11T18:25:20.838Z</time>
</trkpt>
<trkpt lat="41.9966882" lon="2.824825599999997">
<ele>69.52207837391627</ele>
<time>2026-07-11T18:25:22.839Z</time>
</trkpt>
<trkpt lat="41.9966625" lon="2.8248366999999917">
<ele>69.41676021687542</ele>
<time>2026-07-11T18:25:24.784Z</time>
</trkpt>
<trkpt lat="41.9966363" lon="2.8248542000000043">
<ele>69.54588833616951</ele>
<time>2026-07-11T18:25:26.760Z</time>
</trkpt>
<trkpt lat="41.9965969" lon="2.824877799999996">
<ele>69.62416030357377</ele>
<time>2026-07-11T18:25:28.908Z</time>
</trkpt>
<trkpt lat="41.9965702" lon="2.824886399999997">
<ele>69.4651355534952</ele>
<time>2026-07-11T18:25:30.839Z</time>
</trkpt>
<trkpt lat="41.9965395" lon="2.824891100000002">
<ele>69.14300676508873</ele>
<time>2026-07-11T18:25:32.842Z</time>
</trkpt>
<trkpt lat="41.9965044" lon="2.824899799999997">
<ele>68.84012250277507</ele>
<time>2026-07-11T18:25:34.818Z</time>
</trkpt>
<trkpt lat="41.9964781" lon="2.8249126000000047">
<ele>68.73962015578974</ele>
<time>2026-07-11T18:25:36.909Z</time>
</trkpt>
<trkpt lat="41.9964577" lon="2.8249270000000024">
<ele>68.74395020630867</ele>
<time>2026-07-11T18:25:38.796Z</time>
</trkpt>
<trkpt lat="41.9964309" lon="2.824941300000006">
<ele>68.62893550797853</ele>
<time>2026-07-11T18:25:40.780Z</time>
</trkpt>
<trkpt lat="41.9963987" lon="2.824960500000003">
<ele>68.50145702670865</ele>
<time>2026-07-11T18:25:42.740Z</time>
</trkpt>
<trkpt lat="41.9963747" lon="2.824980299999993">
<ele>68.56137619753177</ele>
<time>2026-07-11T18:25:44.783Z</time>
</trkpt>
<trkpt lat="41.9963496" lon="2.824985199999986">
<ele>68.43526105119608</ele>
<time>2026-07-11T18:25:46.679Z</time>
</trkpt>
<trkpt lat="41.9963105" lon="2.8249985999999865">
<ele>68.34830069437596</ele>
<time>2026-07-11T18:25:48.834Z</time>
</trkpt>
<trkpt lat="41.9962844" lon="2.8250076999999862">
<ele>68.29222148889414</ele>
<time>2026-07-11T18:25:50.906Z</time>
</trkpt>
<trkpt lat="41.9962632" lon="2.8250119999999868">
<ele>68.18717530346284</ele>
<time>2026-07-11T18:25:52.828Z</time>
</trkpt>
<trkpt lat="41.996226" lon="2.825019700000013">
<ele>68.00503517096423</ele>
<time>2026-07-11T18:25:54.843Z</time>
</trkpt>
<trkpt lat="41.9962032" lon="2.8250229999999874">
<ele>67.86602240134337</ele>
<time>2026-07-11T18:25:56.839Z</time>
</trkpt>
<trkpt lat="41.9961792" lon="2.8250386999999932">
<ele>67.97525037062049</ele>
<time>2026-07-11T18:25:58.838Z</time>
</trkpt>
<trkpt lat="41.9961473" lon="2.825069500000012">
<ele>68.45136402580324</ele>
<time>2026-07-11T18:26:00.784Z</time>
</trkpt>
<trkpt lat="41.9961196" lon="2.8250760999999898">
<ele>68.3515474028877</ele>
<time>2026-07-11T18:26:02.857Z</time>
</trkpt>
<trkpt lat="41.9960959" lon="2.8250898999999947">
<ele>68.48297098097399</ele>
<time>2026-07-11T18:26:04.839Z</time>
</trkpt>
<trkpt lat="41.9960692" lon="2.825103399999989">
<ele>68.60167725259029</ele>
<time>2026-07-11T18:26:06.838Z</time>
</trkpt>
<trkpt lat="41.9960475" lon="2.8251209999999958">
<ele>68.8231818648617</ele>
<time>2026-07-11T18:26:08.839Z</time>
</trkpt>
<trkpt lat="41.9960268" lon="2.825144899999998">
<ele>69.15771886942659</ele>
<time>2026-07-11T18:26:10.838Z</time>
</trkpt>
<trkpt lat="41.9960074" lon="2.825167599999986">
<ele>69.44354210358294</ele>
<time>2026-07-11T18:26:12.838Z</time>
</trkpt>
<trkpt lat="41.9959836" lon="2.825195199999996">
<ele>69.74403386564967</ele>
<time>2026-07-11T18:26:14.910Z</time>
</trkpt>
<trkpt lat="41.9959605" lon="2.8252192999999863">
<ele>69.93834798937247</ele>
<time>2026-07-11T18:26:16.843Z</time>
</trkpt>
<trkpt lat="41.9959325" lon="2.8252425999999957">
<ele>70.0138946710852</ele>
<time>2026-07-11T18:26:18.900Z</time>
</trkpt>
<trkpt lat="41.9959094" lon="2.8252602000000024">
<ele>70.0121566210519</ele>
<time>2026-07-11T18:26:20.762Z</time>
</trkpt>
<trkpt lat="41.9958776" lon="2.8252675999999894">
<ele>69.69912867474036</ele>
<time>2026-07-11T18:26:22.642Z</time>
</trkpt>
<trkpt lat="41.9958484" lon="2.8252761999999905">
<ele>69.42203912872783</ele>
<time>2026-07-11T18:26:24.495Z</time>
</trkpt>
<trkpt lat="41.995814" lon="2.825290999999993">
<ele>69.2173940736337</ele>
<time>2026-07-11T18:26:26.840Z</time>
</trkpt>
<trkpt lat="41.995784" lon="2.82530109999999">
<ele>69.11424622737158</ele>
<time>2026-07-11T18:26:28.745Z</time>
</trkpt>
<trkpt lat="41.9957431" lon="2.8253109999999992">
<ele>68.93494959859474</ele>
<time>2026-07-11T18:26:30.698Z</time>
</trkpt>
<trkpt lat="41.995713" lon="2.825323300000008">
<ele>68.97623030672652</ele>
<time>2026-07-11T18:26:32.905Z</time>
</trkpt>
<trkpt lat="41.995689" lon="2.825320799999986">
<ele>68.71959424821134</ele>
<time>2026-07-11T18:26:34.719Z</time>
</trkpt>
<trkpt lat="41.9956585" lon="2.8253315000000043">
<ele>68.70022048399359</ele>
<time>2026-07-11T18:26:36.661Z</time>
</trkpt>
<trkpt lat="41.9956289" lon="2.8253474999999924">
<ele>68.76822951637438</ele>
<time>2026-07-11T18:26:38.911Z</time>
</trkpt>
<trkpt lat="41.9956005" lon="2.8253593000000023">
<ele>68.72720267304547</ele>
<time>2026-07-11T18:26:40.804Z</time>
</trkpt>
<trkpt lat="41.995558" lon="2.8253853999999876">
<ele>68.75671543102663</ele>
<time>2026-07-11T18:26:42.818Z</time>
</trkpt>
<trkpt lat="41.9955329" lon="2.825406600000008">
<ele>69.08181459387094</ele>
<time>2026-07-11T18:26:44.801Z</time>
</trkpt>
<trkpt lat="41.9955042" lon="2.8254282000000046">
<ele>69.57328621507642</ele>
<time>2026-07-11T18:26:46.816Z</time>
</trkpt>
<trkpt lat="41.9954679" lon="2.825448499999993">
<ele>70.09873350883522</ele>
<time>2026-07-11T18:26:48.783Z</time>
</trkpt>
<trkpt lat="41.9954345" lon="2.825467300000014">
<ele>70.60827019128088</ele>
<time>2026-07-11T18:26:50.847Z</time>
</trkpt>
<trkpt lat="41.995409" lon="2.8254824999999926">
<ele>71.02913815865466</ele>
<time>2026-07-11T18:26:52.783Z</time>
</trkpt>
<trkpt lat="41.9953774" lon="2.8254996000000006">
<ele>71.53564825509471</ele>
<time>2026-07-11T18:26:54.783Z</time>
</trkpt>
<trkpt lat="41.9953558" lon="2.825511000000006">
<ele>71.88734352844985</ele>
<time>2026-07-11T18:26:56.784Z</time>
</trkpt>
<trkpt lat="41.9953311" lon="2.8255307000000016">
<ele>72.43923268365596</ele>
<time>2026-07-11T18:26:58.914Z</time>
</trkpt>
<trkpt lat="41.9952972" lon="2.825538200000011">
<ele>72.80685727502316</ele>
<time>2026-07-11T18:27:00.818Z</time>
</trkpt>
<trkpt lat="41.9952745" lon="2.82554540000001">
<ele>73.105793459454</ele>
<time>2026-07-11T18:27:02.782Z</time>
</trkpt>
<trkpt lat="41.9952495" lon="2.8255604000000005">
<ele>73.19225854189854</ele>
<time>2026-07-11T18:27:04.720Z</time>
</trkpt>
<trkpt lat="41.9952249" lon="2.8255780000000073">
<ele>73.27279745031908</ele>
<time>2026-07-11T18:27:06.722Z</time>
</trkpt>
<trkpt lat="41.9951946" lon="2.8255906999999922">
<ele>73.17106117483529</ele>
<time>2026-07-11T18:27:08.681Z</time>
</trkpt>
<trkpt lat="41.9951704" lon="2.825601699999993">
<ele>72.96765643183855</ele>
<time>2026-07-11T18:27:10.681Z</time>
</trkpt>
<trkpt lat="41.9951459" lon="2.8256140000000016">
<ele>72.74711828110071</ele>
<time>2026-07-11T18:27:12.638Z</time>
</trkpt>
<trkpt lat="41.9951076" lon="2.825618399999996">
<ele>72.27035472979064</ele>
<time>2026-07-11T18:27:14.596Z</time>
</trkpt>
<trkpt lat="41.995085" lon="2.8256284999999934">
<ele>72.02404692148453</ele>
<time>2026-07-11T18:27:16.500Z</time>
</trkpt>
<trkpt lat="41.9950567" lon="2.8256364000000076">
<ele>71.6728301313526</ele>
<time>2026-07-11T18:27:18.578Z</time>
</trkpt>
<trkpt lat="41.9950238" lon="2.8256418999999937">
<ele>71.23330840566298</ele>
<time>2026-07-11T18:27:20.560Z</time>
</trkpt>
<trkpt lat="41.9949995" lon="2.825649800000008">
<ele>70.9103513074049</ele>
<time>2026-07-11T18:27:22.546Z</time>
</trkpt>
<trkpt lat="41.9949757" lon="2.825656400000014">
<ele>70.674835760913</ele>
<time>2026-07-11T18:27:24.543Z</time>
</trkpt>
<trkpt lat="41.9949381" lon="2.825665200000003">
<ele>70.35606646432888</ele>
<time>2026-07-11T18:27:26.499Z</time>
</trkpt>
<trkpt lat="41.9949172" lon="2.825671">
<ele>70.18332409065171</ele>
<time>2026-07-11T18:27:28.457Z</time>
</trkpt>
<trkpt lat="41.9948935" lon="2.8256733000000054">
<ele>69.9768510766687</ele>
<time>2026-07-11T18:27:30.384Z</time>
</trkpt>
<trkpt lat="41.9948752" lon="2.8256781000000046">
<ele>69.8271754988216</ele>
<time>2026-07-11T18:27:32.263Z</time>
</trkpt>
<trkpt lat="41.9948434" lon="2.825692800000013">
<ele>69.5907049568624</ele>
<time>2026-07-11T18:27:34.304Z</time>
</trkpt>
<trkpt lat="41.994821" lon="2.8257070999999883">
<ele>69.44141265615137</ele>
<time>2026-07-11T18:27:36.263Z</time>
</trkpt>
<trkpt lat="41.9948012" lon="2.8257231000000047">
<ele>69.32498283249033</ele>
<time>2026-07-11T18:27:38.180Z</time>
</trkpt>
<trkpt lat="41.9947772" lon="2.825738599999994">
<ele>69.17508638811022</ele>
<time>2026-07-11T18:27:40.124Z</time>
</trkpt>
<trkpt lat="41.9947562" lon="2.825753700000007">
<ele>69.05396119267007</ele>
<time>2026-07-11T18:27:42.085Z</time>
</trkpt>
<trkpt lat="41.9947349" lon="2.825773499999997">
<ele>68.95340556785253</ele>
<time>2026-07-11T18:27:44.058Z</time>
</trkpt>
<trkpt lat="41.9947034" lon="2.8257943000000125">
<ele>68.8708304138576</ele>
<time>2026-07-11T18:27:46.044Z</time>
</trkpt>
<trkpt lat="41.9946817" lon="2.825809800000002">
<ele>68.93807026254328</ele>
<time>2026-07-11T18:27:47.978Z</time>
</trkpt>
<trkpt lat="41.9946571" lon="2.825827099999998">
<ele>69.02476745368217</ele>
<time>2026-07-11T18:27:49.937Z</time>
</trkpt>
<trkpt lat="41.9946259" lon="2.8258401999999876">
<ele>69.10450988227376</ele>
<time>2026-07-11T18:27:51.762Z</time>
</trkpt>
<trkpt lat="41.9946016" lon="2.825852800000007">
<ele>69.18870747304628</ele>
<time>2026-07-11T18:27:53.802Z</time>
</trkpt>
<trkpt lat="41.994575" lon="2.825864700000011">
<ele>69.27940001684618</ele>
<time>2026-07-11T18:27:55.743Z</time>
</trkpt>
<trkpt lat="41.9945321" lon="2.825875400000001">
<ele>69.53729529163708</ele>
<time>2026-07-11T18:27:57.700Z</time>
</trkpt>
<trkpt lat="41.9945061" lon="2.825882799999988">
<ele>69.7811071204044</ele>
<time>2026-07-11T18:27:59.661Z</time>
</trkpt>
<trkpt lat="41.9944786" lon="2.8258936999999946">
<ele>70.11779700243761</ele>
<time>2026-07-11T18:28:01.622Z</time>
</trkpt>
<trkpt lat="41.9944515" lon="2.825904600000001">
<ele>70.43692873771862</ele>
<time>2026-07-11T18:28:03.580Z</time>
</trkpt>
<trkpt lat="41.9944148" lon="2.825913000000014">
<ele>70.53650451988061</ele>
<time>2026-07-11T18:28:05.619Z</time>
</trkpt>
<trkpt lat="41.994387" lon="2.8259245000000135">
<ele>70.68081850768112</ele>
<time>2026-07-11T18:28:07.581Z</time>
</trkpt>
<trkpt lat="41.99436" lon="2.825937699999997">
<ele>70.86684650119054</ele>
<time>2026-07-11T18:28:09.540Z</time>
</trkpt>
<trkpt lat="41.9943241" lon="2.825936899999988">
<ele>70.60752286966128</ele>
<time>2026-07-11T18:28:11.519Z</time>
</trkpt>
<trkpt lat="41.9942976" lon="2.8259425999999905">
<ele>70.58193619176954</ele>
<time>2026-07-11T18:28:13.499Z</time>
</trkpt>
<trkpt lat="41.9942691" lon="2.8259505999999988">
<ele>70.597516697907</ele>
<time>2026-07-11T18:28:15.522Z</time>
</trkpt>
<trkpt lat="41.9942329" lon="2.825942900000001">
<ele>70.15573368658328</ele>
<time>2026-07-11T18:28:17.500Z</time>
</trkpt>
<trkpt lat="41.994209" lon="2.8259491000000025">
<ele>70.14979491409882</ele>
<time>2026-07-11T18:28:19.497Z</time>
</trkpt>
<trkpt lat="41.9941828" lon="2.8259561000000133">
<ele>70.14301130551492</ele>
<time>2026-07-11T18:28:21.562Z</time>
</trkpt>
<trkpt lat="41.9941376" lon="2.825950000000006">
<ele>69.7820668764502</ele>
<time>2026-07-11T18:28:23.521Z</time>
</trkpt>
<trkpt lat="41.9941074" lon="2.825953499999997">
<ele>69.79214145277692</ele>
<time>2026-07-11T18:28:25.841Z</time>
</trkpt>
<trkpt lat="41.994078" lon="2.8259609000000125">
<ele>69.8753078554365</ele>
<time>2026-07-11T18:28:28.438Z</time>
</trkpt>
<trkpt lat="41.9940541" lon="2.8259750999999937">
<ele>70.08891137636941</ele>
<time>2026-07-11T18:28:30.358Z</time>
</trkpt>
<trkpt lat="41.9940361" lon="2.8259840999999994">
<ele>70.19836757356862</ele>
<time>2026-07-11T18:28:32.176Z</time>
</trkpt>
<trkpt lat="41.994009" lon="2.8259874999999965">
<ele>70.15797908088403</ele>
<time>2026-07-11T18:28:34.241Z</time>
</trkpt>
<trkpt lat="41.9939682" lon="2.8259973000000116">
<ele>70.1558856914518</ele>
<time>2026-07-11T18:28:36.079Z</time>
</trkpt>
<trkpt lat="41.9939336" lon="2.8260113000000047">
<ele>70.20790799402562</ele>
<time>2026-07-11T18:28:38.657Z</time>
</trkpt>
<trkpt lat="41.9939028" lon="2.826019599999995">
<ele>70.16471607376866</ele>
<time>2026-07-11T18:28:40.496Z</time>
</trkpt>
<trkpt lat="41.9938622" lon="2.826033499999994">
<ele>70.14321535384494</ele>
<time>2026-07-11T18:28:42.800Z</time>
</trkpt>
<trkpt lat="41.9938386" lon="2.82604520000001">
<ele>70.17590378457196</ele>
<time>2026-07-11T18:28:44.639Z</time>
</trkpt>
<trkpt lat="41.9938071" lon="2.826048600000007">
<ele>70.07473271132609</ele>
<time>2026-07-11T18:28:46.656Z</time>
</trkpt>
<trkpt lat="41.9937637" lon="2.826055700000012">
<ele>69.94300870003568</ele>
<time>2026-07-11T18:28:48.638Z</time>
</trkpt>
<trkpt lat="41.9937362" lon="2.826064599999995">
<ele>69.88018811232446</ele>
<time>2026-07-11T18:28:50.599Z</time>
</trkpt>
<trkpt lat="41.9937001" lon="2.8260798999999963">
<ele>69.79420336544915</ele>
<time>2026-07-11T18:28:52.583Z</time>
</trkpt>
<trkpt lat="41.9936653" lon="2.826096100000001">
<ele>69.68316899303998</ele>
<time>2026-07-11T18:28:54.518Z</time>
</trkpt>
<trkpt lat="41.9936349" lon="2.8261118000000067">
<ele>69.56103302547952</ele>
<time>2026-07-11T18:28:56.540Z</time>
</trkpt>
<trkpt lat="41.9936075" lon="2.8261230999999896">
<ele>69.4155489851965</ele>
<time>2026-07-11T18:28:58.421Z</time>
</trkpt>
<trkpt lat="41.9935676" lon="2.826133999999996">
<ele>69.63474913450722</ele>
<time>2026-07-11T18:29:00.557Z</time>
</trkpt>
<trkpt lat="41.9935424" lon="2.826142900000008">
<ele>69.83099083204232</ele>
<time>2026-07-11T18:29:02.359Z</time>
</trkpt>
<trkpt lat="41.993516" lon="2.8261521999999957">
<ele>70.1971667159629</ele>
<time>2026-07-11T18:29:04.338Z</time>
</trkpt>
<trkpt lat="41.9934785" lon="2.826160200000004">
<ele>70.72978110207269</ele>
<time>2026-07-11T18:29:06.322Z</time>
</trkpt>
<trkpt lat="41.9934527" lon="2.826166999999998">
<ele>71.13495334736994</ele>
<time>2026-07-11T18:29:08.336Z</time>
</trkpt>
<trkpt lat="41.993427" lon="2.826169099999987">
<ele>71.37118313410906</ele>
<time>2026-07-11T18:29:10.784Z</time>
</trkpt>
<trkpt lat="41.9934165" lon="2.826174299999991">
<ele>71.61572143072453</ele>
<time>2026-07-11T18:29:12.743Z</time>
</trkpt>
<trkpt lat="41.9933707" lon="2.8261798999999996">
<ele>72.0885330369856</ele>
<time>2026-07-11T18:29:14.926Z</time>
</trkpt>
<trkpt lat="41.9933429" lon="2.826186799999988">
<ele>72.48587009029093</ele>
<time>2026-07-11T18:29:16.838Z</time>
</trkpt>
<trkpt lat="41.9933134" lon="2.8261909999999943">
<ele>72.7401589083502</ele>
<time>2026-07-11T18:29:18.836Z</time>
</trkpt>
<trkpt lat="41.993279" lon="2.8262063999999896">
<ele>73.2271568080542</ele>
<time>2026-07-11T18:29:20.839Z</time>
</trkpt>
<trkpt lat="41.9932512" lon="2.8262186999999983">
<ele>73.58492861848569</ele>
<time>2026-07-11T18:29:22.802Z</time>
</trkpt>
<trkpt lat="41.993228" lon="2.8262426000000005">
<ele>74.25206256650313</ele>
<time>2026-07-11T18:29:24.838Z</time>
</trkpt>
<trkpt lat="41.9931938" lon="2.8262612999999988">
<ele>74.70354522548267</ele>
<time>2026-07-11T18:29:26.839Z</time>
</trkpt>
<trkpt lat="41.9931686" lon="2.826267999999999">
<ele>74.81762019215572</ele>
<time>2026-07-11T18:29:28.801Z</time>
</trkpt>
<trkpt lat="41.9931394" lon="2.8262737999999956">
<ele>74.88355576387833</ele>
<time>2026-07-11T18:29:30.784Z</time>
</trkpt>
<trkpt lat="41.9931089" lon="2.826278500000001">
<ele>74.90545806509381</ele>
<time>2026-07-11T18:29:32.831Z</time>
</trkpt>
<trkpt lat="41.99307" lon="2.8262756000000024">
<ele>74.71933467287701</ele>
<time>2026-07-11T18:29:34.783Z</time>
</trkpt>
<trkpt lat="41.993036" lon="2.8262775999999974">
<ele>74.90376947987869</ele>
<time>2026-07-11T18:29:36.821Z</time>
</trkpt>
<trkpt lat="41.9930068" lon="2.8262828000000013">
<ele>75.65815444830288</ele>
<time>2026-07-11T18:29:38.797Z</time>
</trkpt>
<trkpt lat="41.9929746" lon="2.826287900000011">
<ele>76.49278758297412</ele>
<time>2026-07-11T18:29:40.911Z</time>
</trkpt>
<trkpt lat="41.9929498" lon="2.8262876999999946">
<ele>77.03906004380468</ele>
<time>2026-07-11T18:29:42.722Z</time>
</trkpt>
<trkpt lat="41.9929197" lon="2.826283899999993">
<ele>77.60235446978152</ele>
<time>2026-07-11T18:29:44.601Z</time>
</trkpt>
<trkpt lat="41.992878" lon="2.8262736000000075">
<ele>78.21156594315926</ele>
<time>2026-07-11T18:29:46.784Z</time>
</trkpt>
<trkpt lat="41.9928557" lon="2.8262735000000134">
<ele>78.687558227183</ele>
<time>2026-07-11T18:29:48.783Z</time>
</trkpt>
<trkpt lat="41.9928324" lon="2.826269599999989">
<ele>79.06152422139083</ele>
<time>2026-07-11T18:29:50.797Z</time>
</trkpt>
<trkpt lat="41.9927945" lon="2.826258800000005">
<ele>79.4958965132953</ele>
<time>2026-07-11T18:29:52.784Z</time>
</trkpt>
<trkpt lat="41.9927713" lon="2.8262684000000036">
<ele>80.31857538502226</ele>
<time>2026-07-11T18:29:54.718Z</time>
</trkpt>
<trkpt lat="41.9927463" lon="2.8262721000000113">
<ele>80.72151149693238</ele>
<time>2026-07-11T18:29:56.661Z</time>
</trkpt>
<trkpt lat="41.9927202" lon="2.8262722999999994">
<ele>80.96604176084007</ele>
<time>2026-07-11T18:29:58.557Z</time>
</trkpt>
<trkpt lat="41.9926941" lon="2.8262731000000088">
<ele>81.23401725912588</ele>
<time>2026-07-11T18:30:00.459Z</time>
</trkpt>
<trkpt lat="41.9926498" lon="2.8262603999999953">
<ele>81.12952165813856</ele>
<time>2026-07-11T18:30:02.419Z</time>
</trkpt>
<trkpt lat="41.9926181" lon="2.8262598000000025">
<ele>81.37955808672179</ele>
<time>2026-07-11T18:30:04.421Z</time>
</trkpt>
<trkpt lat="41.9925872" lon="2.8262571999999864">
<ele>81.5368487943796</ele>
<time>2026-07-11T18:30:06.422Z</time>
</trkpt>
<trkpt lat="41.9925545" lon="2.8262579999999957">
<ele>81.85126002760707</ele>
<time>2026-07-11T18:30:08.401Z</time>
</trkpt>
<trkpt lat="41.9925308" lon="2.826260200000007">
<ele>82.15198658709178</ele>
<time>2026-07-11T18:30:10.418Z</time>
</trkpt>
<trkpt lat="41.9925055" lon="2.8262598999999966">
<ele>82.35752613620545</ele>
<time>2026-07-11T18:30:12.337Z</time>
</trkpt>
<trkpt lat="41.9924774" lon="2.8262636000000043">
<ele>82.63725328513183</ele>
<time>2026-07-11T18:30:14.322Z</time>
</trkpt>
<trkpt lat="41.9924414" lon="2.826255500000002">
<ele>82.18224846983433</ele>
<time>2026-07-11T18:30:16.279Z</time>
</trkpt>
<trkpt lat="41.9924173" lon="2.826252199999999">
<ele>81.97275976293838</ele>
<time>2026-07-11T18:30:18.241Z</time>
</trkpt>
<trkpt lat="41.992391" lon="2.826244800000012">
<ele>81.56435120845475</ele>
<time>2026-07-11T18:30:20.264Z</time>
</trkpt>
<trkpt lat="41.9923566" lon="2.826227899999992">
<ele>80.68295769386545</ele>
<time>2026-07-11T18:30:22.200Z</time>
</trkpt>
<trkpt lat="41.9923326" lon="2.8262215999999967">
<ele>80.32093327185375</ele>
<time>2026-07-11T18:30:24.183Z</time>
</trkpt>
<trkpt lat="41.9923063" lon="2.8262158">
<ele>79.97306348761448</ele>
<time>2026-07-11T18:30:26.154Z</time>
</trkpt>
<trkpt lat="41.9922696" lon="2.826207000000011">
<ele>79.44797707703279</ele>
<time>2026-07-11T18:30:28.101Z</time>
</trkpt>
<trkpt lat="41.9922468" lon="2.826204600000011">
<ele>79.2666017528691</ele>
<time>2026-07-11T18:30:30.060Z</time>
</trkpt>
<trkpt lat="41.9922204" lon="2.826199300000013">
<ele>78.93232589653138</ele>
<time>2026-07-11T18:30:32.043Z</time>
</trkpt>
<trkpt lat="41.9921921" lon="2.826190099999991">
<ele>78.64430918658117</ele>
<time>2026-07-11T18:30:33.978Z</time>
</trkpt>
<trkpt lat="41.9921545" lon="2.8261766999999907">
<ele>78.34762679386455</ele>
<time>2026-07-11T18:30:35.976Z</time>
</trkpt>
<trkpt lat="41.9921392" lon="2.826174199999997">
<ele>78.37019090939818</ele>
<time>2026-07-11T18:30:37.902Z</time>
</trkpt>
<trkpt lat="41.9921338" lon="2.8261759000000097">
<ele>78.50600765459008</ele>
<time>2026-07-11T18:30:39.861Z</time>
</trkpt>
<trkpt lat="41.9920959" lon="2.826139399999988">
<ele>77.33176629445624</ele>
<time>2026-07-11T18:30:41.838Z</time>
</trkpt>
<trkpt lat="41.9920702" lon="2.826116500000012">
<ele>77.19761772700762</ele>
<time>2026-07-11T18:30:43.757Z</time>
</trkpt>
<trkpt lat="41.9920366" lon="2.8261110999999914">
<ele>77.35067561070612</ele>
<time>2026-07-11T18:30:45.756Z</time>
</trkpt>
<trkpt lat="41.9920074" lon="2.826113399999997">
<ele>77.60229352441428</ele>
<time>2026-07-11T18:30:47.733Z</time>
</trkpt>
<trkpt lat="41.9919757" lon="2.826127000000014">
<ele>78.12228373613114</ele>
<time>2026-07-11T18:30:49.819Z</time>
</trkpt>
<trkpt lat="41.9919521" lon="2.82611399999999">
<ele>78.01524070763539</ele>
<time>2026-07-11T18:30:52.179Z</time>
</trkpt>
<trkpt lat="41.9919283" lon="2.8260937000000013">
<ele>77.68949094159572</ele>
<time>2026-07-11T18:30:54.115Z</time>
</trkpt>
<trkpt lat="41.9919026" lon="2.8260814999999866">
<ele>77.51855235272139</ele>
<time>2026-07-11T18:30:55.939Z</time>
</trkpt>
<trkpt lat="41.9918847" lon="2.8260851999999943">
<ele>77.69333308449467</ele>
<time>2026-07-11T18:30:57.998Z</time>
</trkpt>
<trkpt lat="41.9918696" lon="2.8260648000000117">
<ele>77.26731451611654</ele>
<time>2026-07-11T18:31:00.101Z</time>
</trkpt>
<trkpt lat="41.9918236" lon="2.826032099999992">
<ele>76.67108634591175</ele>
<time>2026-07-11T18:31:02.037Z</time>
</trkpt>
<trkpt lat="41.9917952" lon="2.8260199000000057">
<ele>76.491591327874</ele>
<time>2026-07-11T18:31:04.022Z</time>
</trkpt>
<trkpt lat="41.9917682" lon="2.8260124999999903">
<ele>76.42190832589799</ele>
<time>2026-07-11T18:31:05.997Z</time>
</trkpt>
<trkpt lat="41.9917466" lon="2.826005400000014">
<ele>76.3343024903525</ele>
<time>2026-07-11T18:31:07.864Z</time>
</trkpt>
<trkpt lat="41.9917071" lon="2.8259954000000107">
<ele>76.24475978472944</ele>
<time>2026-07-11T18:31:09.982Z</time>
</trkpt>
<trkpt lat="41.9916803" lon="2.825979700000005">
<ele>75.95129355549443</ele>
<time>2026-07-11T18:31:11.997Z</time>
</trkpt>
<trkpt lat="41.9916563" lon="2.8259635999999944">
<ele>75.63057165004851</ele>
<time>2026-07-11T18:31:13.980Z</time>
</trkpt>
<trkpt lat="41.9916248" lon="2.8259524999999996">
<ele>75.49086954004072</ele>
<time>2026-07-11T18:31:15.899Z</time>
</trkpt>
<trkpt lat="41.9915988" lon="2.8259390000000053">
<ele>75.28268931637378</ele>
<time>2026-07-11T18:31:17.962Z</time>
</trkpt>
<trkpt lat="41.9915727" lon="2.825927699999994">
<ele>75.14494491197439</ele>
<time>2026-07-11T18:31:19.959Z</time>
</trkpt>
<trkpt lat="41.9915433" lon="2.825915600000002">
<ele>75.02179526395497</ele>
<time>2026-07-11T18:31:21.943Z</time>
</trkpt>
<trkpt lat="41.9915175" lon="2.8259027999999944">
<ele>74.87905384694771</ele>
<time>2026-07-11T18:31:23.942Z</time>
</trkpt>
<trkpt lat="41.9914918" lon="2.8258870999999885">
<ele>74.68850722190865</ele>
<time>2026-07-11T18:31:25.916Z</time>
</trkpt>
<trkpt lat="41.991456" lon="2.8258629999999982">
<ele>74.49153981632276</ele>
<time>2026-07-11T18:31:27.899Z</time>
</trkpt>
<trkpt lat="41.9914341" lon="2.825847699999997">
<ele>74.52017002395301</ele>
<time>2026-07-11T18:31:29.899Z</time>
</trkpt>
<trkpt lat="41.9914105" lon="2.8258326000000125">
<ele>74.56321573730449</ele>
<time>2026-07-11T18:31:31.926Z</time>
</trkpt>
<trkpt lat="41.9913901" lon="2.825814500000007">
<ele>74.56217200359539</ele>
<time>2026-07-11T18:31:33.803Z</time>
</trkpt>
<trkpt lat="41.9913557" lon="2.825798099999986">
<ele>74.43478470530927</ele>
<time>2026-07-11T18:31:35.764Z</time>
</trkpt>
<trkpt lat="41.991337" lon="2.82577839999999">
<ele>74.20893696717113</ele>
<time>2026-07-11T18:31:37.659Z</time>
</trkpt>
<trkpt lat="41.9913175" lon="2.825754499999988">
<ele>73.95636994713858</ele>
<time>2026-07-11T18:31:39.618Z</time>
</trkpt>
<trkpt lat="41.9912865" lon="2.8257327999999973">
<ele>73.68534974332513</ele>
<time>2026-07-11T18:31:41.579Z</time>
</trkpt>
<trkpt lat="41.9912659" lon="2.825706999999994">
<ele>73.43529528965064</ele>
<time>2026-07-11T18:31:43.535Z</time>
</trkpt>
<trkpt lat="41.9912479" lon="2.8256845999999882">
<ele>73.225695533232</ele>
<time>2026-07-11T18:31:45.462Z</time>
</trkpt>
<trkpt lat="41.9912351" lon="2.825653899999992">
<ele>72.98565836034754</ele>
<time>2026-07-11T18:31:47.300Z</time>
</trkpt>
<trkpt lat="41.9912169" lon="2.825613000000004">
<ele>72.67404331607015</ele>
<time>2026-07-11T18:31:49.275Z</time>
</trkpt>
<trkpt lat="41.9912064" lon="2.825581199999988">
<ele>72.54047537900739</ele>
<time>2026-07-11T18:31:51.219Z</time>
</trkpt>
<trkpt lat="41.9911904" lon="2.825549300000006">
<ele>72.6109576179212</ele>
<time>2026-07-11T18:31:53.242Z</time>
</trkpt>
<trkpt lat="41.991159" lon="2.825511799999987">
<ele>72.71090394802602</ele>
<time>2026-07-11T18:31:55.099Z</time>
</trkpt>
<trkpt lat="41.9911369" lon="2.825486500000011">
<ele>72.8054033734806</ele>
<time>2026-07-11T18:31:57.082Z</time>
</trkpt>
<trkpt lat="41.9911219" lon="2.8254560999999967">
<ele>72.94499133669396</ele>
<time>2026-07-11T18:31:59.000Z</time>
</trkpt>
<trkpt lat="41.9911119" lon="2.8254177999999968">
<ele>73.13718127042422</ele>
<time>2026-07-11T18:32:00.958Z</time>
</trkpt>
<trkpt lat="41.9910974" lon="2.8253939999999886">
<ele>73.28057939701888</ele>
<time>2026-07-11T18:32:02.838Z</time>
</trkpt>
<trkpt lat="41.9910865" lon="2.825359700000007">
<ele>73.48907588681038</ele>
<time>2026-07-11T18:32:04.799Z</time>
</trkpt>
<trkpt lat="41.9910835" lon="2.8253224000000046">
<ele>73.68192157718917</ele>
<time>2026-07-11T18:32:06.839Z</time>
</trkpt>
<trkpt lat="41.9910685" lon="2.8252865999999983">
<ele>73.53600970466151</ele>
<time>2026-07-11T18:32:08.901Z</time>
</trkpt>
<trkpt lat="41.9910548" lon="2.825266400000004">
<ele>73.406271303586</ele>
<time>2026-07-11T18:32:10.838Z</time>
</trkpt>
<trkpt lat="41.9910402" lon="2.8252392999999927">
<ele>73.23676474372073</ele>
<time>2026-07-11T18:32:12.839Z</time>
</trkpt>
<trkpt lat="41.9910224" lon="2.825217699999996">
<ele>73.1389136491047</ele>
<time>2026-07-11T18:32:14.783Z</time>
</trkpt>
<trkpt lat="41.9910024" lon="2.825186599999995">
<ele>72.99972285502297</ele>
<time>2026-07-11T18:32:16.851Z</time>
</trkpt>
<trkpt lat="41.9909884" lon="2.8251644999999996">
<ele>72.91565414466011</ele>
<time>2026-07-11T18:32:18.838Z</time>
</trkpt>
<trkpt lat="41.9909799" lon="2.825125799999995">
<ele>72.70309279710504</ele>
<time>2026-07-11T18:32:20.882Z</time>
</trkpt>
<trkpt lat="41.9909748" lon="2.8250944000000118">
<ele>72.52877813226371</ele>
<time>2026-07-11T18:32:22.839Z</time>
</trkpt>
<trkpt lat="41.9909644" lon="2.8250626999999895">
<ele>72.39837879874847</ele>
<time>2026-07-11T18:32:24.799Z</time>
</trkpt>
<trkpt lat="41.9909515" lon="2.825037000000009">
<ele>72.33824734707413</ele>
<time>2026-07-11T18:32:26.837Z</time>
</trkpt>
<trkpt lat="41.9909347" lon="2.825010700000007">
<ele>72.51326446864864</ele>
<time>2026-07-11T18:32:28.819Z</time>
</trkpt>
<trkpt lat="41.9909191" lon="2.824992100000003">
<ele>72.67023623328302</ele>
<time>2026-07-11T18:32:30.766Z</time>
</trkpt>
<trkpt lat="41.9908985" lon="2.824977799999999">
<ele>72.84679396912298</ele>
<time>2026-07-11T18:32:32.683Z</time>
</trkpt>
<trkpt lat="41.9908757" lon="2.824958500000008">
<ele>73.03733325001222</ele>
<time>2026-07-11T18:32:34.641Z</time>
</trkpt>
<trkpt lat="41.9908542" lon="2.8249372999999878">
<ele>73.20882834329907</ele>
<time>2026-07-11T18:32:36.615Z</time>
</trkpt>
<trkpt lat="41.9908294" lon="2.8249198999999976">
<ele>73.38504394345948</ele>
<time>2026-07-11T18:32:38.584Z</time>
</trkpt>
<trkpt lat="41.9907971" lon="2.8249006000000065">
<ele>73.43212903201903</ele>
<time>2026-07-11T18:32:40.624Z</time>
</trkpt>
<trkpt lat="41.9907732" lon="2.8249184999999954">
<ele>73.39722240980394</ele>
<time>2026-07-11T18:32:42.839Z</time>
</trkpt>
<trkpt lat="41.990771" lon="2.824936799999989">
<ele>73.38117508075345</ele>
<time>2026-07-11T18:32:44.795Z</time>
</trkpt>
<trkpt lat="41.990749" lon="2.82490820000001">
<ele>73.38297571036529</ele>
<time>2026-07-11T18:32:46.783Z</time>
</trkpt>
<trkpt lat="41.9907364" lon="2.824887799999999">
<ele>73.38886472111848</ele>
<time>2026-07-11T18:32:48.783Z</time>
</trkpt>
<trkpt lat="41.9907276" lon="2.824889100000007">
<ele>73.38016074683206</ele>
<time>2026-07-11T18:32:50.642Z</time>
</trkpt>
<trkpt lat="41.9907007" lon="2.824887100000012">
<ele>73.35882295736066</ele>
<time>2026-07-11T18:32:52.802Z</time>
</trkpt>
<trkpt lat="41.9906781" lon="2.824868699999996">
<ele>73.35781300207793</ele>
<time>2026-07-11T18:32:54.803Z</time>
</trkpt>
<trkpt lat="41.9906565" lon="2.824851499999994">
<ele>73.35840762292511</ele>
<time>2026-07-11T18:32:56.782Z</time>
</trkpt>
<trkpt lat="41.9906388" lon="2.8248558999999887">
<ele>73.33997752650528</ele>
<time>2026-07-11T18:32:58.782Z</time>
</trkpt>
<trkpt lat="41.9906225" lon="2.8248523999999975">
<ele>73.33126496125553</ele>
<time>2026-07-11T18:33:01.056Z</time>
</trkpt>
<trkpt lat="41.9906324" lon="2.8248074999999915">
<ele>73.38894799267676</ele>
<time>2026-07-11T18:33:05.162Z</time>
</trkpt>
<trkpt lat="41.9906539" lon="2.824789299999992">
<ele>73.4223696375982</ele>
<time>2026-07-11T18:33:07.142Z</time>
</trkpt>
<trkpt lat="41.9906636" lon="2.8248088999999936">
<ele>73.40799061157661</ele>
<time>2026-07-11T18:33:09.001Z</time>
</trkpt>
<trkpt lat="41.9906591" lon="2.8248326000000077">
<ele>73.38019840385981</ele>
<time>2026-07-11T18:33:10.958Z</time>
</trkpt>
<trkpt lat="41.9906329" lon="2.8248412000000087">
<ele>73.3517492378279</ele>
<time>2026-07-11T18:33:16.283Z</time>
</trkpt>
<trkpt lat="41.9906358" lon="2.8248317999999983">
<ele>73.3642998274431</ele>
<time>2026-07-11T18:33:18.339Z</time>
</trkpt>
<trkpt lat="41.99063" lon="2.8248351000000014">
<ele>73.35643470602407</ele>
<time>2026-07-11T18:33:20.216Z</time>
</trkpt>
<trkpt lat="41.9906406" lon="2.8248258000000135">
<ele>73.37431218104224</ele>
<time>2026-07-11T18:33:22.442Z</time>
</trkpt>
<trkpt lat="41.9906576" lon="2.8248351000000014">
<ele>73.37649022673135</ele>
<time>2026-07-11T18:33:24.438Z</time>
</trkpt>
<trkpt lat="41.9906655" lon="2.824856100000005">
<ele>73.36057787382664</ele>
<time>2026-07-11T18:33:26.477Z</time>
</trkpt>
<trkpt lat="41.9906554" lon="2.8248776000000078">
<ele>73.32998431083409</ele>
<time>2026-07-11T18:33:28.779Z</time>
</trkpt>
<trkpt lat="41.9906396" lon="2.82487900000001">
<ele>73.31526913422633</ele>
<time>2026-07-11T18:33:30.940Z</time>
</trkpt>
<trkpt lat="41.990629" lon="2.8248715999999945">
<ele>73.3147027689598</ele>
<time>2026-07-11T18:33:33.019Z</time>
</trkpt>
<trkpt lat="41.9906357" lon="2.8248523000000034">
<ele>73.3415451179083</ele>
<time>2026-07-11T18:33:35.083Z</time>
</trkpt>
<trkpt lat="41.9906554" lon="2.824851499999994">
<ele>73.35756266853086</ele>
<time>2026-07-11T18:33:37.442Z</time>
</trkpt>
<trkpt lat="41.9906719" lon="2.8248536000000115">
<ele>73.36810569865088</ele>
<time>2026-07-11T18:33:39.799Z</time>
</trkpt>
<trkpt lat="41.9906688" lon="2.8248761000000115">
<ele>73.34269632500708</ele>
<time>2026-07-11T18:33:41.903Z</time>
</trkpt>
<trkpt lat="41.9906523" lon="2.8248836999999867">
<ele>73.32090502030192</ele>
<time>2026-07-11T18:33:44.462Z</time>
</trkpt>
<trkpt lat="41.9906377" lon="2.824882300000013">
<ele>73.31004278530808</ele>
<time>2026-07-11T18:33:46.821Z</time>
</trkpt>
<trkpt lat="41.990649" lon="2.8248647000000062">
<ele>73.33848516552207</ele>
<time>2026-07-11T18:33:48.902Z</time>
</trkpt>
<trkpt lat="41.9906672" lon="2.824870599999997">
<ele>73.34701505993057</ele>
<time>2026-07-11T18:33:50.841Z</time>
</trkpt>
<trkpt lat="41.9906693" lon="2.8248767999999984">
<ele>73.34239648038037</ele>
<time>2026-07-11T18:33:53.080Z</time>
</trkpt>
<trkpt lat="41.990665" lon="2.824900200000002">
<ele>73.31466114654064</ele>
<time>2026-07-11T18:33:55.041Z</time>
</trkpt>
<trkpt lat="41.9906664" lon="2.8249118999999894">
<ele>73.30387192606952</ele>
<time>2026-07-11T18:33:57.528Z</time>
</trkpt>
<trkpt lat="41.9906694" lon="2.8248959999999954">
<ele>73.32287221623625</ele>
<time>2026-07-11T18:34:00.997Z</time>
</trkpt>
<trkpt lat="41.9906687" lon="2.8248906999999974">
<ele>73.32767757752386</ele>
<time>2026-07-11T18:34:03.938Z</time>
</trkpt>
<trkpt lat="41.9906686" lon="2.8248806999999942">
<ele>73.3378233142653</ele>
<time>2026-07-11T18:34:08.161Z</time>
</trkpt>
<trkpt lat="41.9906693" lon="2.824880900000011">
<ele>73.3382084293728</ele>
<time>2026-07-11T18:34:10.512Z</time>
</trkpt>
<trkpt lat="41.9906742" lon="2.8248748999999975">
<ele>73.34839125548295</ele>
<time>2026-07-11T18:34:13.421Z</time>
</trkpt>
<trkpt lat="41.9906762" lon="2.824875899999995">
<ele>73.34904191826458</ele>
<time>2026-07-11T18:34:15.540Z</time>
</trkpt>
<trkpt lat="41.9906828" lon="2.8248539999999878">
<ele>73.37614141030062</ele>
<time>2026-07-11T18:34:19.139Z</time>
</trkpt>
<trkpt lat="41.9906809" lon="2.8248604999999998">
<ele>73.36822109099934</ele>
<time>2026-07-11T18:34:21.520Z</time>
</trkpt>
<trkpt lat="41.9906892" lon="2.824850700000013">
<ele>73.38430271667372</ele>
<time>2026-07-11T18:34:23.815Z</time>
</trkpt>
<trkpt lat="41.9906932" lon="2.8248231999999973">
<ele>73.41379496356573</ele>
<time>2026-07-11T18:34:25.820Z</time>
</trkpt>
<trkpt lat="41.9906953" lon="2.824814400000008">
<ele>73.42366784049712</ele>
<time>2026-07-11T18:34:27.937Z</time>
</trkpt>
<trkpt lat="41.9906977" lon="2.8248160999999925">
<ele>73.42367174794562</ele>
<time>2026-07-11T18:34:30.838Z</time>
</trkpt>
<trkpt lat="41.9906966" lon="2.824818499999992">
<ele>73.42063952929954</ele>
<time>2026-07-11T18:34:32.840Z</time>
</trkpt>
<trkpt lat="41.9906796" lon="2.8248333999999886">
<ele>73.39416872101627</ele>
<time>2026-07-11T18:34:34.838Z</time>
</trkpt>
<trkpt lat="41.9906223" lon="2.8248708000000136">
<ele>73.31012782771045</ele>
<time>2026-07-11T18:34:36.838Z</time>
</trkpt>
<trkpt lat="41.9906096" lon="2.8248767000000043">
<ele>73.29283450170055</ele>
<time>2026-07-11T18:34:38.838Z</time>
</trkpt>
<trkpt lat="41.9906096" lon="2.8248786000000052">
<ele>73.29060672618857</ele>
<time>2026-07-11T18:34:40.782Z</time>
</trkpt>
<trkpt lat="41.9906075" lon="2.8248782000000006">
<ele>73.28932078292755</ele>
<time>2026-07-11T18:34:42.844Z</time>
</trkpt>
<trkpt lat="41.9906053" lon="2.8248833000000104">
<ele>73.28144696518594</ele>
<time>2026-07-11T18:34:44.839Z</time>
</trkpt>
</trkseg></trk></gpx>
