<?xml version="1.0" encoding="UTF-8"?>
<gpx version="1.1" creator="Senda">
<bounds minlat="0.0" minlon="0.0" maxlat="0.0" maxlon="0.0" />
<trk><name>capravo anada-2026-07-11</name><trkseg>
<trkpt lat="41.9907421" lon="2.8247684000000106">
<ele>73.49373973826998</ele>
<time>2026-07-11T18:00:16.658Z</time>
</trkpt>
<trkpt lat="41.9907503" lon="2.8248285999999894">
<ele>73.44915819523993</ele>
<time>2026-07-11T18:00:24.145Z</time>
</trkpt>
<trkpt lat="41.9907874" lon="2.8248662999999965">
<ele>73.44826138933713</ele>
<time>2026-07-11T18:00:27.788Z</time>
</trkpt>
<trkpt lat="41.9908324" lon="2.824873999999994">
<ele>73.40316574246151</ele>
<time>2026-07-11T18:00:34.041Z</time>
</trkpt>
<trkpt lat="41.9908823" lon="2.8248690000000067">
<ele>73.12820618355696</ele>
<time>2026-07-11T18:00:38.745Z</time>
</trkpt>
<trkpt lat="41.9909232" lon="2.82484070000001">
<ele>72.95917143864826</ele>
<time>2026-07-11T18:00:42.080Z</time>
</trkpt>
<trkpt lat="41.9909644" lon="2.8248112999999933">
<ele>72.82480481973529</ele>
<time>2026-07-11T18:00:45.680Z</time>
</trkpt>
<trkpt lat="41.9909914" lon="2.8247623000000033">
<ele>72.84724648209902</ele>
<time>2026-07-11T18:00:49.021Z</time>
</trkpt>
<trkpt lat="41.9910255" lon="2.8247101000000043">
<ele>72.53228061960023</ele>
<time>2026-07-11T18:00:52.526Z</time>
</trkpt>
<trkpt lat="41.9910687" lon="2.82468080000001">
<ele>72.1116232402202</ele>
<time>2026-07-11T18:00:56.606Z</time>
</trkpt>
<trkpt lat="41.9911017" lon="2.824723799999987">
<ele>72.228283996835</ele>
<time>2026-07-11T18:01:02.882Z</time>
</trkpt>
<trkpt lat="41.9911491" lon="2.824738300000007">
<ele>72.62958471588182</ele>
<time>2026-07-11T18:01:07.902Z</time>
</trkpt>
<trkpt lat="41.9911972" lon="2.8247484000000043">
<ele>72.950286761752</ele>
<time>2026-07-11T18:01:12.440Z</time>
</trkpt>
<trkpt lat="41.9912466" lon="2.8247704000000056">
<ele>73.27657559083742</ele>
<time>2026-07-11T18:01:16.387Z</time>
</trkpt>
<trkpt lat="41.991293" lon="2.824809899999991">
<ele>73.81088023325557</ele>
<time>2026-07-11T18:01:19.706Z</time>
</trkpt>
<trkpt lat="41.9913399" lon="2.824809899999991">
<ele>74.20196625904799</ele>
<time>2026-07-11T18:01:24.258Z</time>
</trkpt>
<trkpt lat="41.9913804" lon="2.8248417000000074">
<ele>74.82319015813118</ele>
<time>2026-07-11T18:01:26.786Z</time>
</trkpt>
<trkpt lat="41.9914201" lon="2.824873200000013">
<ele>74.6963466730139</ele>
<time>2026-07-11T18:01:29.785Z</time>
</trkpt>
<trkpt lat="41.9914654" lon="2.8249044000000083">
<ele>74.46166674175596</ele>
<time>2026-07-11T18:01:32.785Z</time>
</trkpt>
<trkpt lat="41.9915038" lon="2.824936400000013">
<ele>74.28298558227613</ele>
<time>2026-07-11T18:01:35.809Z</time>
</trkpt>
<trkpt lat="41.9915446" lon="2.8249620999999934">
<ele>73.98264325098583</ele>
<time>2026-07-11T18:01:38.829Z</time>
</trkpt>
<trkpt lat="41.9915886" lon="2.824992100000003">
<ele>73.64394261951875</ele>
<time>2026-07-11T18:01:42.080Z</time>
</trkpt>
<trkpt lat="41.9916308" lon="2.8250207000000103">
<ele>73.28267212396113</ele>
<time>2026-07-11T18:01:45.022Z</time>
</trkpt>
<trkpt lat="41.9916739" lon="2.825049699999994">
<ele>72.76464660711277</ele>
<time>2026-07-11T18:01:48.005Z</time>
</trkpt>
<trkpt lat="41.9917162" lon="2.8250772000000097">
<ele>72.24991636350549</ele>
<time>2026-07-11T18:01:50.924Z</time>
</trkpt>
<trkpt lat="41.9917617" lon="2.8251090999999917">
<ele>71.80375668829929</ele>
<time>2026-07-11T18:01:54.226Z</time>
</trkpt>
<trkpt lat="41.9918039" lon="2.8251329">
<ele>71.49982955022234</ele>
<time>2026-07-11T18:01:56.881Z</time>
</trkpt>
<trkpt lat="41.9918486" lon="2.8251611000000025">
<ele>71.27806201697533</ele>
<time>2026-07-11T18:01:59.876Z</time>
</trkpt>
<trkpt lat="41.9918903" lon="2.825189999999992">
<ele>71.17864735418385</ele>
<time>2026-07-11T18:02:02.786Z</time>
</trkpt>
<trkpt lat="41.9919327" lon="2.8252201999999897">
<ele>71.18804989795251</ele>
<time>2026-07-11T18:02:05.810Z</time>
</trkpt>
<trkpt lat="41.9919769" lon="2.8252438000000097">
<ele>71.24682727467257</ele>
<time>2026-07-11T18:02:09.323Z</time>
</trkpt>
<trkpt lat="41.9920222" lon="2.825273799999991">
<ele>71.31711511590328</ele>
<time>2026-07-11T18:02:12.866Z</time>
</trkpt>
<trkpt lat="41.9920637" lon="2.8252985999999964">
<ele>71.34788988469587</ele>
<time>2026-07-11T18:02:15.961Z</time>
</trkpt>
<trkpt lat="41.9921079" lon="2.8253291000000047">
<ele>71.32131551679183</ele>
<time>2026-07-11T18:02:19.284Z</time>
</trkpt>
<trkpt lat="41.9921487" lon="2.825355000000002">
<ele>71.27858377123692</ele>
<time>2026-07-11T18:02:22.322Z</time>
</trkpt>
<trkpt lat="41.9921945" lon="2.825382200000007">
<ele>71.27686730306748</ele>
<time>2026-07-11T18:02:25.883Z</time>
</trkpt>
<trkpt lat="41.9922384" lon="2.825413400000002">
<ele>71.05027481847871</ele>
<time>2026-07-11T18:02:29.803Z</time>
</trkpt>
<trkpt lat="41.9922781" lon="2.82544630000001">
<ele>70.74769276252415</ele>
<time>2026-07-11T18:02:33.125Z</time>
</trkpt>
<trkpt lat="41.9923239" lon="2.8254804000000036">
<ele>70.44346690876507</ele>
<time>2026-07-11T18:02:36.721Z</time>
</trkpt>
<trkpt lat="41.9923703" lon="2.825510400000013">
<ele>70.17126427693663</ele>
<time>2026-07-11T18:02:40.640Z</time>
</trkpt>
<trkpt lat="41.9924186" lon="2.825535699999989">
<ele>69.90552926289132</ele>
<time>2026-07-11T18:02:44.621Z</time>
</trkpt>
<trkpt lat="41.9924589" lon="2.8255641000000082">
<ele>69.77696777809963</ele>
<time>2026-07-11T18:02:47.904Z</time>
</trkpt>
<trkpt lat="41.9925041" lon="2.8255913000000135">
<ele>69.82682413761036</ele>
<time>2026-07-11T18:02:51.502Z</time>
</trkpt>
<trkpt lat="41.9925476" lon="2.8256159999999966">
<ele>70.19168621422288</ele>
<time>2026-07-11T18:02:54.865Z</time>
</trkpt>
<trkpt lat="41.9925908" lon="2.8256437000000005">
<ele>70.4816681988637</ele>
<time>2026-07-11T18:02:57.867Z</time>
</trkpt>
<trkpt lat="41.9926327" lon="2.8256681000000015">
<ele>70.66331822097555</ele>
<time>2026-07-11T18:03:00.826Z</time>
</trkpt>
<trkpt lat="41.9926741" lon="2.825694300000009">
<ele>70.76339447326687</ele>
<time>2026-07-11T18:03:03.785Z</time>
</trkpt>
<trkpt lat="41.992711" lon="2.8257289999999955">
<ele>70.77313589193021</ele>
<time>2026-07-11T18:03:06.746Z</time>
</trkpt>
<trkpt lat="41.9927559" lon="2.8257579000000135">
<ele>70.6750503607251</ele>
<time>2026-07-11T18:03:10.382Z</time>
</trkpt>
<trkpt lat="41.992798" lon="2.825782900000007">
<ele>70.38369668267359</ele>
<time>2026-07-11T18:03:13.368Z</time>
</trkpt>
<trkpt lat="41.9928427" lon="2.825809300000003">
<ele>70.05661591376719</ele>
<time>2026-07-11T18:03:16.746Z</time>
</trkpt>
<trkpt lat="41.9928856" lon="2.825829099999993">
<ele>69.7905405581962</ele>
<time>2026-07-11T18:03:19.720Z</time>
</trkpt>
<trkpt lat="41.9929295" lon="2.8258538999999985">
<ele>69.5575169616183</ele>
<time>2026-07-11T18:03:23.344Z</time>
</trkpt>
<trkpt lat="41.9929731" lon="2.825874199999987">
<ele>69.42176815578095</ele>
<time>2026-07-11T18:03:26.348Z</time>
</trkpt>
<trkpt lat="41.9930194" lon="2.8258869000000004">
<ele>69.33638601616083</ele>
<time>2026-07-11T18:03:29.344Z</time>
</trkpt>
<trkpt lat="41.9930667" lon="2.8259009999999876">
<ele>69.36391775346891</ele>
<time>2026-07-11T18:03:32.344Z</time>
</trkpt>
<trkpt lat="41.9931117" lon="2.825910499999992">
<ele>69.5064335103421</ele>
<time>2026-07-11T18:03:35.728Z</time>
</trkpt>
<trkpt lat="41.9931589" lon="2.825908400000003">
<ele>69.53507040670515</ele>
<time>2026-07-11T18:03:38.640Z</time>
</trkpt>
<trkpt lat="41.9931963" lon="2.825873300000012">
<ele>69.27614478455753</ele>
<time>2026-07-11T18:03:40.786Z</time>
</trkpt>
<trkpt lat="41.9932422" lon="2.825860000000006">
<ele>69.2316842868609</ele>
<time>2026-07-11T18:03:43.796Z</time>
</trkpt>
<trkpt lat="41.9932918" lon="2.8258546000000138">
<ele>69.23982519459891</ele>
<time>2026-07-11T18:03:47.260Z</time>
</trkpt>
<trkpt lat="41.9933404" lon="2.8258468999999877">
<ele>69.14343896915337</ele>
<time>2026-07-11T18:03:50.586Z</time>
</trkpt>
<trkpt lat="41.9933876" lon="2.825837799999988">
<ele>68.90360229608206</ele>
<time>2026-07-11T18:03:53.876Z</time>
</trkpt>
<trkpt lat="41.9934374" lon="2.825829800000008">
<ele>68.66259312823065</ele>
<time>2026-07-11T18:03:57.145Z</time>
</trkpt>
<trkpt lat="41.9934866" lon="2.8258227999999974">
<ele>68.42956866510879</ele>
<time>2026-07-11T18:04:00.441Z</time>
</trkpt>
<trkpt lat="41.9935369" lon="2.8258103000000006">
<ele>68.11607874282988</ele>
<time>2026-07-11T18:04:03.847Z</time>
</trkpt>
<trkpt lat="41.993583" lon="2.825802699999997">
<ele>67.87146201810857</ele>
<time>2026-07-11T18:04:06.871Z</time>
</trkpt>
<trkpt lat="41.9936296" lon="2.825796800000006">
<ele>67.68865808365796</ele>
<time>2026-07-11T18:04:09.786Z</time>
</trkpt>
<trkpt lat="41.9936747" lon="2.825789399999991">
<ele>67.51989717509429</ele>
<time>2026-07-11T18:04:12.808Z</time>
</trkpt>
<trkpt lat="41.9937188" lon="2.825776999999988">
<ele>67.2869897098924</ele>
<time>2026-07-11T18:04:15.844Z</time>
</trkpt>
<trkpt lat="41.9937657" lon="2.825768900000014">
<ele>67.10874994856934</ele>
<time>2026-07-11T18:04:18.805Z</time>
</trkpt>
<trkpt lat="41.9938113" lon="2.8257614000000046">
<ele>66.9415815723576</ele>
<time>2026-07-11T18:04:21.765Z</time>
</trkpt>
<trkpt lat="41.993857" lon="2.825748900000008">
<ele>66.70974446647827</ele>
<time>2026-07-11T18:04:24.873Z</time>
</trkpt>
<trkpt lat="41.9939023" lon="2.825737900000007">
<ele>66.56713367235638</ele>
<time>2026-07-11T18:04:27.786Z</time>
</trkpt>
<trkpt lat="41.9939483" lon="2.825727300000011">
<ele>66.51926723391345</ele>
<time>2026-07-11T18:04:30.808Z</time>
</trkpt>
<trkpt lat="41.9939937" lon="2.8257198999999957">
<ele>66.52579968677094</ele>
<time>2026-07-11T18:04:33.834Z</time>
</trkpt>
<trkpt lat="41.9940454" lon="2.825708999999989">
<ele>66.5284570080231</ele>
<time>2026-07-11T18:04:37.486Z</time>
</trkpt>
<trkpt lat="41.9940926" lon="2.825702199999995">
<ele>66.57921991757024</ele>
<time>2026-07-11T18:04:40.888Z</time>
</trkpt>
<trkpt lat="41.9941446" lon="2.825691500000005">
<ele>66.62893947617499</ele>
<time>2026-07-11T18:04:44.462Z</time>
</trkpt>
<trkpt lat="41.99419" lon="2.8256837000000132">
<ele>66.75982953795906</ele>
<time>2026-07-11T18:04:47.445Z</time>
</trkpt>
<trkpt lat="41.9942383" lon="2.825674499999991">
<ele>66.91914744750919</ele>
<time>2026-07-11T18:04:50.806Z</time>
</trkpt>
<trkpt lat="41.9942875" lon="2.825656699999996">
<ele>67.01416634693922</ele>
<time>2026-07-11T18:04:54.406Z</time>
</trkpt>
<trkpt lat="41.9943345" lon="2.825640800000002">
<ele>67.10548974146089</ele>
<time>2026-07-11T18:04:57.744Z</time>
</trkpt>
<trkpt lat="41.9943784" lon="2.825627300000008">
<ele>67.1949153927561</ele>
<time>2026-07-11T18:05:00.828Z</time>
</trkpt>
<trkpt lat="41.9944265" lon="2.825618899999995">
<ele>67.33825841211814</ele>
<time>2026-07-11T18:05:04.303Z</time>
</trkpt>
<trkpt lat="41.994472" lon="2.8256100000000117">
<ele>67.41157308302094</ele>
<time>2026-07-11T18:05:07.666Z</time>
</trkpt>
<trkpt lat="41.9945263" lon="2.8255992999999933">
<ele>67.49430117368618</ele>
<time>2026-07-11T18:05:11.319Z</time>
</trkpt>
<trkpt lat="41.9945722" lon="2.8255883999999867">
<ele>67.53840171202162</ele>
<time>2026-07-11T18:05:14.827Z</time>
</trkpt>
<trkpt lat="41.994622" lon="2.8255761000000064">
<ele>67.49571639929155</ele>
<time>2026-07-11T18:05:18.206Z</time>
</trkpt>
<trkpt lat="41.9946719" lon="2.825562600000012">
<ele>67.43710117222112</ele>
<time>2026-07-11T18:05:21.569Z</time>
</trkpt>
<trkpt lat="41.9947208" lon="2.825550700000008">
<ele>67.43839845041848</ele>
<time>2026-07-11T18:05:24.791Z</time>
</trkpt>
<trkpt lat="41.994766" lon="2.8255384999999933">
<ele>67.64274643385984</ele>
<time>2026-07-11T18:05:27.816Z</time>
</trkpt>
<trkpt lat="41.9948108" lon="2.8255269">
<ele>67.83998804047516</ele>
<time>2026-07-11T18:05:30.838Z</time>
</trkpt>
<trkpt lat="41.9948578" lon="2.8255140999999924">
<ele>68.02152206523195</ele>
<time>2026-07-11T18:05:34.040Z</time>
</trkpt>
<trkpt lat="41.9949065" lon="2.8254910999999936">
<ele>68.01384159673711</ele>
<time>2026-07-11T18:05:37.567Z</time>
</trkpt>
<trkpt lat="41.9949492" lon="2.8254657999999893">
<ele>67.88624105928585</ele>
<time>2026-07-11T18:05:41.020Z</time>
</trkpt>
<trkpt lat="41.9949936" lon="2.825441899999987">
<ele>67.77354848638858</ele>
<time>2026-07-11T18:05:44.345Z</time>
</trkpt>
<trkpt lat="41.9950383" lon="2.825425700000011">
<ele>67.94746795646553</ele>
<time>2026-07-11T18:05:47.842Z</time>
</trkpt>
<trkpt lat="41.9950857" lon="2.825420400000013">
<ele>68.36006445647816</ele>
<time>2026-07-11T18:05:50.965Z</time>
</trkpt>
<trkpt lat="41.9951344" lon="2.8254116999999894">
<ele>68.71201624171817</ele>
<time>2026-07-11T18:05:54.301Z</time>
</trkpt>
<trkpt lat="41.9951787" lon="2.8253989000000104">
<ele>68.92272577757944</ele>
<time>2026-07-11T18:05:57.230Z</time>
</trkpt>
<trkpt lat="41.9952263" lon="2.825396799999993">
<ele>69.38929391750379</ele>
<time>2026-07-11T18:06:00.767Z</time>
</trkpt>
<trkpt lat="41.9952762" lon="2.825389400000006">
<ele>69.69165319866867</ele>
<time>2026-07-11T18:06:03.906Z</time>
</trkpt>
<trkpt lat="41.99532" lon="2.8253730000000132">
<ele>69.19265086145211</ele>
<time>2026-07-11T18:06:06.822Z</time>
</trkpt>
<trkpt lat="41.9953639" lon="2.8253522999999916">
<ele>68.63265270062293</ele>
<time>2026-07-11T18:06:09.666Z</time>
</trkpt>
<trkpt lat="41.9954103" lon="2.8253290000000106">
<ele>68.04929898939557</ele>
<time>2026-07-11T18:06:12.927Z</time>
</trkpt>
<trkpt lat="41.9954487" lon="2.825296900000012">
<ele>67.33036842592554</ele>
<time>2026-07-11T18:06:16.064Z</time>
</trkpt>
<trkpt lat="41.9954981" lon="2.8252720000000124">
<ele>66.73438489121398</ele>
<time>2026-07-11T18:06:19.588Z</time>
</trkpt>
<trkpt lat="41.9955406" lon="2.825247300000001">
<ele>66.17235343013932</ele>
<time>2026-07-11T18:06:22.832Z</time>
</trkpt>
<trkpt lat="41.9955979" lon="2.8252198000000135">
<ele>66.09842022202847</ele>
<time>2026-07-11T18:06:26.916Z</time>
</trkpt>
<trkpt lat="41.9956439" lon="2.8252012000000093">
<ele>66.22570774687219</ele>
<time>2026-07-11T18:06:29.786Z</time>
</trkpt>
<trkpt lat="41.995689" lon="2.825188400000002">
<ele>66.47622324506116</ele>
<time>2026-07-11T18:06:33.604Z</time>
</trkpt>
<trkpt lat="41.9957352" lon="2.8251779">
<ele>66.79922918972883</ele>
<time>2026-07-11T18:06:36.604Z</time>
</trkpt>
<trkpt lat="41.9957846" lon="2.825150100000002">
<ele>66.92705548563049</ele>
<time>2026-07-11T18:06:40.833Z</time>
</trkpt>
<trkpt lat="41.9958275" lon="2.8251207000000136">
<ele>67.01439288044746</ele>
<time>2026-07-11T18:06:43.786Z</time>
</trkpt>
<trkpt lat="41.9958671" lon="2.825090700000004">
<ele>66.88633824273988</ele>
<time>2026-07-11T18:06:46.883Z</time>
</trkpt>
<trkpt lat="41.9959098" lon="2.8250693999999896">
<ele>66.83226164285298</ele>
<time>2026-07-11T18:06:49.885Z</time>
</trkpt>
<trkpt lat="41.995953" lon="2.8250338">
<ele>66.45258341256114</ele>
<time>2026-07-11T18:06:53.443Z</time>
</trkpt>
<trkpt lat="41.9959969" lon="2.825003500000008">
<ele>66.15891631205011</ele>
<time>2026-07-11T18:06:56.739Z</time>
</trkpt>
<trkpt lat="41.9960431" lon="2.8249825999999985">
<ele>65.99281684189256</ele>
<time>2026-07-11T18:07:00.122Z</time>
</trkpt>
<trkpt lat="41.9960867" lon="2.8249654999999905">
<ele>65.85291311091248</ele>
<time>2026-07-11T18:07:02.914Z</time>
</trkpt>
<trkpt lat="41.99613" lon="2.824945000000014">
<ele>65.75025222206102</ele>
<time>2026-07-11T18:07:06.146Z</time>
</trkpt>
<trkpt lat="41.9961748" lon="2.8249270999999965">
<ele>65.80224002848716</ele>
<time>2026-07-11T18:07:09.120Z</time>
</trkpt>
<trkpt lat="41.9962211" lon="2.8249074000000007">
<ele>65.83030573319006</ele>
<time>2026-07-11T18:07:12.787Z</time>
</trkpt>
<trkpt lat="41.9962619" lon="2.8248801000000014">
<ele>65.66310576612234</ele>
<time>2026-07-11T18:07:16.086Z</time>
</trkpt>
<trkpt lat="41.9963053" lon="2.8248611999999866">
<ele>65.67498469398211</ele>
<time>2026-07-11T18:07:19.694Z</time>
</trkpt>
<trkpt lat="41.99635" lon="2.824835699999994">
<ele>65.56844700043933</ele>
<time>2026-07-11T18:07:23.202Z</time>
</trkpt>
<trkpt lat="41.996403" lon="2.8248093999999924">
<ele>65.5787685531908</ele>
<time>2026-07-11T18:07:26.761Z</time>
</trkpt>
<trkpt lat="41.9964485" lon="2.824776500000013">
<ele>65.42663046622076</ele>
<time>2026-07-11T18:07:30.644Z</time>
</trkpt>
<trkpt lat="41.9964923" lon="2.8247546999999997">
<ele>65.43883537671627</ele>
<time>2026-07-11T18:07:33.801Z</time>
</trkpt>
<trkpt lat="41.9965375" lon="2.824731899999989">
<ele>65.58365306049485</ele>
<time>2026-07-11T18:07:36.915Z</time>
</trkpt>
<trkpt lat="41.9965874" lon="2.8247154000000023">
<ele>65.79275381151078</ele>
<time>2026-07-11T18:07:39.717Z</time>
</trkpt>
<trkpt lat="41.996632" lon="2.824704099999991">
<ele>65.98843680621762</ele>
<time>2026-07-11T18:07:42.917Z</time>
</trkpt>
<trkpt lat="41.9966762" lon="2.8246830999999872">
<ele>66.04332552120651</ele>
<time>2026-07-11T18:07:45.792Z</time>
</trkpt>
<trkpt lat="41.9967219" lon="2.8246731000000125">
<ele>66.48339035026225</ele>
<time>2026-07-11T18:07:48.815Z</time>
</trkpt>
<trkpt lat="41.9967703" lon="2.8246574000000066">
<ele>66.8418790116488</ele>
<time>2026-07-11T18:07:51.838Z</time>
</trkpt>
<trkpt lat="41.9968201" lon="2.8246388000000024">
<ele>67.15007860856213</ele>
<time>2026-07-11T18:07:54.925Z</time>
</trkpt>
<trkpt lat="41.9968696" lon="2.8246210000000076">
<ele>67.4567561466137</ele>
<time>2026-07-11T18:07:58.188Z</time>
</trkpt>
<trkpt lat="41.9969167" lon="2.824611900000008">
<ele>67.8985628073676</ele>
<time>2026-07-11T18:08:01.097Z</time>
</trkpt>
<trkpt lat="41.996962" lon="2.824600199999992">
<ele>68.21399669041584</ele>
<time>2026-07-11T18:08:03.926Z</time>
</trkpt>
<trkpt lat="41.9970093" lon="2.8245857">
<ele>68.44667349235458</ele>
<time>2026-07-11T18:08:06.805Z</time>
</trkpt>
<trkpt lat="41.9970596" lon="2.8245655999999997">
<ele>68.59596138257442</ele>
<time>2026-07-11T18:08:09.929Z</time>
</trkpt>
<trkpt lat="41.9971029" lon="2.8245483000000036">
<ele>68.72415765347066</ele>
<time>2026-07-11T18:08:12.824Z</time>
</trkpt>
<trkpt lat="41.9971493" lon="2.8245324000000096">
<ele>68.91633706634572</ele>
<time>2026-07-11T18:08:15.561Z</time>
</trkpt>
<trkpt lat="41.997194" lon="2.8245224000000064">
<ele>69.21242990524539</ele>
<time>2026-07-11T18:08:18.362Z</time>
</trkpt>
<trkpt lat="41.9972426" lon="2.824509000000006">
<ele>69.26601036442686</ele>
<time>2026-07-11T18:08:21.284Z</time>
</trkpt>
<trkpt lat="41.997288" lon="2.8244928999999956">
<ele>69.04112293176664</ele>
<time>2026-07-11T18:08:24.161Z</time>
</trkpt>
<trkpt lat="41.9973327" lon="2.8244788000000085">
<ele>68.8586865373009</ele>
<time>2026-07-11T18:08:26.836Z</time>
</trkpt>
<trkpt lat="41.9973853" lon="2.8244617000000005">
<ele>68.62935272425719</ele>
<time>2026-07-11T18:08:29.926Z</time>
</trkpt>
<trkpt lat="41.9974323" lon="2.8244497999999965">
<ele>68.53061390123074</ele>
<time>2026-07-11T18:08:32.767Z</time>
</trkpt>
<trkpt lat="41.9974785" lon="2.82444559999999">
<ele>68.60159091290325</ele>
<time>2026-07-11T18:08:35.725Z</time>
</trkpt>
<trkpt lat="41.9975262" lon="2.8244405000000086">
<ele>68.65188993214088</ele>
<time>2026-07-11T18:08:38.553Z</time>
</trkpt>
<trkpt lat="41.997573" lon="2.824425700000006">
<ele>68.51465990700775</ele>
<time>2026-07-11T18:08:41.388Z</time>
</trkpt>
<trkpt lat="41.9976183" lon="2.8244200000000035">
<ele>68.53856317714421</ele>
<time>2026-07-11T18:08:44.301Z</time>
</trkpt>
<trkpt lat="41.997664" lon="2.8244161000000076">
<ele>68.59642909815037</ele>
<time>2026-07-11T18:08:47.225Z</time>
</trkpt>
<trkpt lat="41.9977182" lon="2.8244182999999907">
<ele>68.78802883211566</ele>
<time>2026-07-11T18:08:50.824Z</time>
</trkpt>
<trkpt lat="41.9977671" lon="2.8244162000000017">
<ele>68.88752290130476</ele>
<time>2026-07-11T18:08:53.766Z</time>
</trkpt>
<trkpt lat="41.9978199" lon="2.8244167999999945">
<ele>69.2694458783464</ele>
<time>2026-07-11T18:08:57.645Z</time>
</trkpt>
<trkpt lat="41.9978649" lon="2.8244247000000087">
<ele>69.75380899906186</ele>
<time>2026-07-11T18:09:00.602Z</time>
</trkpt>
<trkpt lat="41.9979121" lon="2.824431500000003">
<ele>70.23099479803066</ele>
<time>2026-07-11T18:09:03.885Z</time>
</trkpt>
<trkpt lat="41.9979578" lon="2.8244300000000067">
<ele>70.5547761854809</ele>
<time>2026-07-11T18:09:06.864Z</time>
</trkpt>
<trkpt lat="41.9980031" lon="2.8244301000000007">
<ele>70.90243159465857</ele>
<time>2026-07-11T18:09:09.822Z</time>
</trkpt>
<trkpt lat="41.9980485" lon="2.824426499999987">
<ele>71.19216587365327</ele>
<time>2026-07-11T18:09:12.794Z</time>
</trkpt>
<trkpt lat="41.9980973" lon="2.8244247000000087">
<ele>71.0869511761387</ele>
<time>2026-07-11T18:09:16.287Z</time>
</trkpt>
<trkpt lat="41.9981482" lon="2.8244285000000104">
<ele>71.01332658562838</ele>
<time>2026-07-11T18:09:19.625Z</time>
</trkpt>
<trkpt lat="41.9981979" lon="2.824428299999994">
<ele>70.88368889523055</ele>
<time>2026-07-11T18:09:23.420Z</time>
</trkpt>
<trkpt lat="41.998247" lon="2.824425600000012">
<ele>70.72666627246208</ele>
<time>2026-07-11T18:09:26.896Z</time>
</trkpt>
<trkpt lat="41.9982934" lon="2.8244182999999907">
<ele>70.53230928224272</ele>
<time>2026-07-11T18:09:29.806Z</time>
</trkpt>
<trkpt lat="41.9983463" lon="2.8244153999999924">
<ele>70.42938546822593</ele>
<time>2026-07-11T18:09:32.865Z</time>
</trkpt>
<trkpt lat="41.9983976" lon="2.8244181999999967">
<ele>70.50693310144152</ele>
<time>2026-07-11T18:09:36.740Z</time>
</trkpt>
<trkpt lat="41.9984478" lon="2.824415799999997">
<ele>70.52765617537446</ele>
<time>2026-07-11T18:09:39.650Z</time>
</trkpt>
<trkpt lat="41.9984986" lon="2.8244081999999935">
<ele>70.4835327497067</ele>
<time>2026-07-11T18:09:43.408Z</time>
</trkpt>
<trkpt lat="41.9985517" lon="2.8243889000000024">
<ele>70.28363105588272</ele>
<time>2026-07-11T18:09:46.324Z</time>
</trkpt>
<trkpt lat="41.9985964" lon="2.824368800000002">
<ele>70.04513279416233</ele>
<time>2026-07-11T18:09:49.809Z</time>
</trkpt>
<trkpt lat="41.9986447" lon="2.8243597000000022">
<ele>69.93371241017822</ele>
<time>2026-07-11T18:09:52.885Z</time>
</trkpt>
<trkpt lat="41.9986939" lon="2.824355499999996">
<ele>69.88339991751721</ele>
<time>2026-07-11T18:09:55.914Z</time>
</trkpt>
<trkpt lat="41.998739" lon="2.824361699999997">
<ele>69.97665858317467</ele>
<time>2026-07-11T18:09:59.281Z</time>
</trkpt>
<trkpt lat="41.9987844" lon="2.824362000000008">
<ele>69.98858104551982</ele>
<time>2026-07-11T18:10:02.180Z</time>
</trkpt>
<trkpt lat="41.9988377" lon="2.824372299999993">
<ele>70.14805526210345</ele>
<time>2026-07-11T18:10:05.706Z</time>
</trkpt>
<trkpt lat="41.9988831" lon="2.8243749000000093">
<ele>70.19692998813403</ele>
<time>2026-07-11T18:10:08.833Z</time>
</trkpt>
<trkpt lat="41.9989349" lon="2.824379399999998">
<ele>70.34452134529633</ele>
<time>2026-07-11T18:10:12.522Z</time>
</trkpt>
<trkpt lat="41.998986" lon="2.824386099999998">
<ele>70.539801685553</ele>
<time>2026-07-11T18:10:15.914Z</time>
</trkpt>
<trkpt lat="41.9990351" lon="2.82439389999999">
<ele>70.76056799745555</ele>
<time>2026-07-11T18:10:19.668Z</time>
</trkpt>
<trkpt lat="41.9990806" lon="2.8243771999999865">
<ele>70.5492951273355</ele>
<time>2026-07-11T18:10:22.221Z</time>
</trkpt>
<trkpt lat="41.9991268" lon="2.8243672000000117">
<ele>70.43995018855625</ele>
<time>2026-07-11T18:10:25.524Z</time>
</trkpt>
<trkpt lat="41.9991761" lon="2.8243670999999893">
<ele>70.49367004905056</ele>
<time>2026-07-11T18:10:28.828Z</time>
</trkpt>
<trkpt lat="41.9992237" lon="2.8243630999999993">
<ele>70.41541110768036</ele>
<time>2026-07-11T18:10:32.201Z</time>
</trkpt>
<trkpt lat="41.9992772" lon="2.824361500000009">
<ele>70.38681033734532</ele>
<time>2026-07-11T18:10:35.912Z</time>
</trkpt>
<trkpt lat="41.9993306" lon="2.824365300000011">
<ele>70.43918949695863</ele>
<time>2026-07-11T18:10:39.582Z</time>
</trkpt>
<trkpt lat="41.9993776" lon="2.824366999999995">
<ele>70.45427330418981</ele>
<time>2026-07-11T18:10:42.609Z</time>
</trkpt>
<trkpt lat="41.9994253" lon="2.8243808">
<ele>70.59863583556654</ele>
<time>2026-07-11T18:10:45.914Z</time>
</trkpt>
<trkpt lat="41.9994712" lon="2.824386699999991">
<ele>70.67225851165954</ele>
<time>2026-07-11T18:10:48.629Z</time>
</trkpt>
<trkpt lat="41.9995196" lon="2.824376199999989">
<ele>70.6037747531191</ele>
<time>2026-07-11T18:10:52.165Z</time>
</trkpt>
<trkpt lat="41.9995649" lon="2.8243718999999885">
<ele>70.59865963894086</ele>
<time>2026-07-11T18:10:55.044Z</time>
</trkpt>
<trkpt lat="41.9996127" lon="2.8243703999999923">
<ele>70.62500796705595</ele>
<time>2026-07-11T18:10:57.883Z</time>
</trkpt>
<trkpt lat="41.9996631" lon="2.8243736000000013">
<ele>70.70058539766339</ele>
<time>2026-07-11T18:11:01.117Z</time>
</trkpt>
<trkpt lat="41.9997099" lon="2.8243769999999984">
<ele>70.7741105570025</ele>
<time>2026-07-11T18:11:03.929Z</time>
</trkpt>
<trkpt lat="41.9997576" lon="2.8243645999999956">
<ele>70.528426844309</ele>
<time>2026-07-11T18:11:06.822Z</time>
</trkpt>
<trkpt lat="41.9998044" lon="2.8243546999999865">
<ele>70.25074645701079</ele>
<time>2026-07-11T18:11:09.467Z</time>
</trkpt>
<trkpt lat="41.9998549" lon="2.824348299999997">
<ele>69.99023484118204</ele>
<time>2026-07-11T18:11:12.821Z</time>
</trkpt>
<trkpt lat="41.9999033" lon="2.8243433000000095">
<ele>69.74941102859023</ele>
<time>2026-07-11T18:11:15.842Z</time>
</trkpt>
<trkpt lat="41.9999558" lon="2.8243373999999903">
<ele>69.47997064785224</ele>
<time>2026-07-11T18:11:19.321Z</time>
</trkpt>
<trkpt lat="42.0000032" lon="2.8243319000000042">
<ele>69.76760906266594</ele>
<time>2026-07-11T18:11:22.562Z</time>
</trkpt>
<trkpt lat="42.0000469" lon="2.824317199999996">
<ele>69.60023614310731</ele>
<time>2026-07-11T18:11:25.828Z</time>
</trkpt>
<trkpt lat="42.000096" lon="2.824323700000008">
<ele>69.67424457692637</ele>
<time>2026-07-11T18:11:28.850Z</time>
</trkpt>
<trkpt lat="42.0001426" lon="2.8243263999999897">
<ele>69.70498654174366</ele>
<time>2026-07-11T18:11:31.924Z</time>
</trkpt>
<trkpt lat="42.0001916" lon="2.8243279000000143">
<ele>69.72206541108885</ele>
<time>2026-07-11T18:11:34.841Z</time>
</trkpt>
<trkpt lat="42.0002393" lon="2.8243349999999907">
<ele>69.80290539264395</ele>
<time>2026-07-11T18:11:38.183Z</time>
</trkpt>
<trkpt lat="42.0002847" lon="2.8243380000000116">
<ele>69.84931487568085</ele>
<time>2026-07-11T18:11:41.126Z</time>
</trkpt>
<trkpt lat="42.0003334" lon="2.82433309999999">
<ele>69.89071431988333</ele>
<time>2026-07-11T18:11:44.726Z</time>
</trkpt>
<trkpt lat="42.0003843" lon="2.8243425">
<ele>70.0768428439195</ele>
<time>2026-07-11T18:11:48.683Z</time>
</trkpt>
<trkpt lat="42.0004332" lon="2.8243506000000025">
<ele>70.22855884853114</ele>
<time>2026-07-11T18:11:51.666Z</time>
</trkpt>
<trkpt lat="42.0004826" lon="2.8243538000000115">
<ele>70.32976401615728</ele>
<time>2026-07-11T18:11:55.024Z</time>
</trkpt>
<trkpt lat="42.0005284" lon="2.8243546999999865">
<ele>70.40517921449607</ele>
<time>2026-07-11T18:11:57.818Z</time>
</trkpt>
<trkpt lat="42.0005788" lon="2.82434760000001">
<ele>70.34262024857829</ele>
<time>2026-07-11T18:12:01.523Z</time>
</trkpt>
<trkpt lat="42.0006263" lon="2.8243500000000097">
<ele>70.21683287266978</ele>
<time>2026-07-11T18:12:04.466Z</time>
</trkpt>
<trkpt lat="42.0006782" lon="2.8243624000000125">
<ele>70.1571738723809</ele>
<time>2026-07-11T18:12:08.384Z</time>
</trkpt>
<trkpt lat="42.0007313" lon="2.8243524000000093">
<ele>69.92864683290563</ele>
<time>2026-07-11T18:12:11.247Z</time>
</trkpt>
<trkpt lat="42.0007799" lon="2.824348100000009">
<ele>69.74804172227984</ele>
<time>2026-07-11T18:12:14.831Z</time>
</trkpt>
<trkpt lat="42.000829" lon="2.8243500000000097">
<ele>69.6214686597333</ele>
<time>2026-07-11T18:12:17.466Z</time>
</trkpt>
<trkpt lat="42.0008765" lon="2.8243559000000005">
<ele>69.72770419628104</ele>
<time>2026-07-11T18:12:20.828Z</time>
</trkpt>
<trkpt lat="42.0009254" lon="2.8243558000000064">
<ele>69.7988239392366</ele>
<time>2026-07-11T18:12:23.785Z</time>
</trkpt>
<trkpt lat="42.0009711" lon="2.8243524000000093">
<ele>69.83740015630956</ele>
<time>2026-07-11T18:12:27.221Z</time>
</trkpt>
<trkpt lat="42.0010234" lon="2.8243512999999894">
<ele>69.90825897256492</ele>
<time>2026-07-11T18:12:30.763Z</time>
</trkpt>
<trkpt lat="42.0010704" lon="2.824353599999995">
<ele>69.99680755038189</ele>
<time>2026-07-11T18:12:33.684Z</time>
</trkpt>
<trkpt lat="42.0011165" lon="2.8243557000000123">
<ele>70.08355858330638</ele>
<time>2026-07-11T18:12:36.958Z</time>
</trkpt>
<trkpt lat="42.0011717" lon="2.824356399999999">
<ele>70.22199076428637</ele>
<time>2026-07-11T18:12:40.758Z</time>
</trkpt>
<trkpt lat="42.0012259" lon="2.8243605000000116">
<ele>70.37728479285391</ele>
<time>2026-07-11T18:12:44.399Z</time>
</trkpt>
<trkpt lat="42.0012711" lon="2.824358799999999">
<ele>70.47618980563168</ele>
<time>2026-07-11T18:12:47.302Z</time>
</trkpt>
<trkpt lat="42.0013187" lon="2.82435559999999">
<ele>70.57420371564127</ele>
<time>2026-07-11T18:12:50.631Z</time>
</trkpt>
<trkpt lat="42.0013646" lon="2.8243573000000026">
<ele>70.69399378956791</ele>
<time>2026-07-11T18:12:53.849Z</time>
</trkpt>
<trkpt lat="42.0014146" lon="2.8243593999999916">
<ele>70.75768885111187</ele>
<time>2026-07-11T18:12:57.202Z</time>
</trkpt>
<trkpt lat="42.0014639" lon="2.8243611000000044">
<ele>70.74683326900957</ele>
<time>2026-07-11T18:13:00.463Z</time>
</trkpt>
<trkpt lat="42.001514" lon="2.824362199999996">
<ele>70.7335825179539</ele>
<time>2026-07-11T18:13:03.785Z</time>
</trkpt>
<trkpt lat="42.0015631" lon="2.824365400000005">
<ele>70.7341049054969</ele>
<time>2026-07-11T18:13:06.906Z</time>
</trkpt>
<trkpt lat="42.0016125" lon="2.8243717000000004">
<ele>70.75662329389712</ele>
<time>2026-07-11T18:13:10.287Z</time>
</trkpt>
<trkpt lat="42.0016641" lon="2.824374299999988">
<ele>70.75831744622263</ele>
<time>2026-07-11T18:13:13.907Z</time>
</trkpt>
<trkpt lat="42.0017114" lon="2.8243803999999955">
<ele>70.79316214140415</ele>
<time>2026-07-11T18:13:17.145Z</time>
</trkpt>
<trkpt lat="42.0017627" lon="2.8243831999999998">
<ele>70.80857979746453</ele>
<time>2026-07-11T18:13:20.725Z</time>
</trkpt>
<trkpt lat="42.0018085" lon="2.8243710000000135">
<ele>70.70435340826118</ele>
<time>2026-07-11T18:13:24.423Z</time>
</trkpt>
<trkpt lat="42.0018629" lon="2.82437809999999">
<ele>70.75465646309708</ele>
<time>2026-07-11T18:13:27.921Z</time>
</trkpt>
<trkpt lat="42.0019157" lon="2.824381200000005">
<ele>70.77576768176041</ele>
<time>2026-07-11T18:13:31.663Z</time>
</trkpt>
<trkpt lat="42.0019618" lon="2.8243783000000064">
<ele>70.7229412189703</ele>
<time>2026-07-11T18:13:36.303Z</time>
</trkpt>
<trkpt lat="42.002008" lon="2.8243811000000107">
<ele>70.6800934467446</ele>
<time>2026-07-11T18:13:40.784Z</time>
</trkpt>
<trkpt lat="42.0020529" lon="2.82437010000001">
<ele>70.52146570711292</ele>
<time>2026-07-11T18:13:43.670Z</time>
</trkpt>
<trkpt lat="42.0020963" lon="2.824348399999991">
<ele>70.29343557414379</ele>
<time>2026-07-11T18:13:47.625Z</time>
</trkpt>
<trkpt lat="42.0021175" lon="2.824275499999999">
<ele>69.72172782380966</ele>
<time>2026-07-11T18:14:06.952Z</time>
</trkpt>
<trkpt lat="42.0020976" lon="2.8241984999999943">
<ele>69.14872301817721</ele>
<time>2026-07-11T18:14:49.164Z</time>
</trkpt>
<trkpt lat="42.0020562" lon="2.8241482999999903">
<ele>69.25795019916424</ele>
<time>2026-07-11T18:15:17.297Z</time>
</trkpt>
<trkpt lat="42.0022402" lon="2.824085800000006">
<ele>69.96251366326383</ele>
<time>2026-07-11T18:15:49.712Z</time>
</trkpt>
<trkpt lat="42.0022236" lon="2.8241430999999864">
<ele>69.61752306868563</ele>
<time>2026-07-11T18:15:59.441Z</time>
</trkpt>
<trkpt lat="42.0022788" lon="2.824115500000005">
<ele>69.6347331136737</ele>
<time>2026-07-11T18:16:03.483Z</time>
</trkpt>
<trkpt lat="42.0023265" lon="2.824141999999995">
<ele>69.30286346536538</ele>
<time>2026-07-11T18:16:08.185Z</time>
</trkpt>
<trkpt lat="42.0023323" lon="2.824204199999997">
<ele>68.92544472473286</ele>
<time>2026-07-11T18:16:13.745Z</time>
</trkpt>
<trkpt lat="42.0022945" lon="2.8241548999999964">
<ele>69.31939181709073</ele>
<time>2026-07-11T18:16:32.144Z</time>
</trkpt>
<trkpt lat="42.0022551" lon="2.8241078000000073">
<ele>69.76420521550955</ele>
<time>2026-07-11T18:16:36.100Z</time>
</trkpt>
<trkpt lat="42.0022131" lon="2.824077399999993">
<ele>70.02481716521329</ele>
<time>2026-07-11T18:16:39.242Z</time>
</trkpt>
<trkpt lat="42.0022058" lon="2.824005199999988">
<ele>70.45713166784385</ele>
<time>2026-07-11T18:16:49.005Z</time>
</trkpt>
<trkpt lat="42.0021808" lon="2.824060000000003">
<ele>70.00780567237078</ele>
<time>2026-07-11T18:17:02.086Z</time>
</trkpt>
<trkpt lat="42.0021769" lon="2.8241279000000077">
<ele>69.60736538982695</ele>
<time>2026-07-11T18:17:40.077Z</time>
</trkpt>
<trkpt lat="42.0021697" lon="2.8241964000000053">
<ele>69.21360826762657</ele>
<time>2026-07-11T18:18:08.621Z</time>
</trkpt>
</trkseg></trk></gpx>
