<?xml version="1.0" encoding="UTF-8"?>
<gpx version="1.1" creator="Senda">
<bounds minlat="0.0" minlon="0.0" maxlat="0.0" maxlon="0.0" />
<trk><name>Ricard anada-2026-07-12</name><trkseg>
<trkpt lat="41.990626" lon="2.824661600000013">
<ele>73.57164767503538</ele>
<time>2026-07-12T11:18:04.489Z</time>
</trkpt>
<trkpt lat="41.9906956" lon="2.8248040000000003">
<ele>73.43380148335035</ele>
<time>2026-07-12T11:18:10.955Z</time>
</trkpt>
<trkpt lat="41.9905883" lon="2.8249104999999872">
<ele>73.23366277936425</ele>
<time>2026-07-12T11:18:17.445Z</time>
</trkpt>
<trkpt lat="41.9906632" lon="2.8248505999999907">
<ele>73.36448738098751</ele>
<time>2026-07-12T11:18:26.211Z</time>
</trkpt>
<trkpt lat="41.9906973" lon="2.8247981000000095">
<ele>73.44051179013074</ele>
<time>2026-07-12T11:18:27.238Z</time>
</trkpt>
<trkpt lat="41.990748" lon="2.8247877000000017">
<ele>73.4811596319153</ele>
<time>2026-07-12T11:18:31.843Z</time>
</trkpt>
<trkpt lat="41.9907081" lon="2.8247516000000132">
<ele>73.4971442372592</ele>
<time>2026-07-12T11:18:43.870Z</time>
</trkpt>
<trkpt lat="41.990645" lon="2.8246895999999992">
<ele>73.55802139656673</ele>
<time>2026-07-12T11:18:45.561Z</time>
</trkpt>
<trkpt lat="41.9905958" lon="2.824676000000011">
<ele>73.50844795817551</ele>
<time>2026-07-12T11:18:47.575Z</time>
</trkpt>
<trkpt lat="41.9905505" lon="2.8246316999999976">
<ele>73.46537724584492</ele>
<time>2026-07-12T11:18:50.845Z</time>
</trkpt>
<trkpt lat="41.9905148" lon="2.824586199999999">
<ele>73.36814729629965</ele>
<time>2026-07-12T11:18:54.838Z</time>
</trkpt>
<trkpt lat="41.9904841" lon="2.824541299999993">
<ele>73.32972575021785</ele>
<time>2026-07-12T11:18:59.337Z</time>
</trkpt>
<trkpt lat="41.9904455" lon="2.824507799999992">
<ele>73.30708386411725</ele>
<time>2026-07-12T11:19:03.844Z</time>
</trkpt>
<trkpt lat="41.9904037" lon="2.8244736999999986">
<ele>73.30523973349963</ele>
<time>2026-07-12T11:19:08.414Z</time>
</trkpt>
<trkpt lat="41.990367" lon="2.8244268999999917">
<ele>73.07521881375222</ele>
<time>2026-07-12T11:19:11.844Z</time>
</trkpt>
<trkpt lat="41.9903296" lon="2.8243928999999923">
<ele>72.84598409635507</ele>
<time>2026-07-12T11:19:16.526Z</time>
</trkpt>
<trkpt lat="41.9902981" lon="2.824346300000002">
<ele>72.5358273326017</ele>
<time>2026-07-12T11:19:20.962Z</time>
</trkpt>
<trkpt lat="41.9902624" lon="2.8243076999999914">
<ele>72.20316021909753</ele>
<time>2026-07-12T11:19:26.179Z</time>
</trkpt>
<trkpt lat="41.9902264" lon="2.8242638000000113">
<ele>71.80322719628231</ele>
<time>2026-07-12T11:19:30.856Z</time>
</trkpt>
<trkpt lat="41.9901924" lon="2.8242237999999986">
<ele>71.49790356816227</ele>
<time>2026-07-12T11:19:33.869Z</time>
</trkpt>
<trkpt lat="41.9901473" lon="2.824191000000013">
<ele>71.22570049706022</ele>
<time>2026-07-12T11:19:37.257Z</time>
</trkpt>
<trkpt lat="41.990102" lon="2.8241511999999886">
<ele>70.86312318510268</ele>
<time>2026-07-12T11:19:42.257Z</time>
</trkpt>
<trkpt lat="41.9900912" lon="2.8240926">
<ele>70.4974426096259</ele>
<time>2026-07-12T11:19:46.498Z</time>
</trkpt>
<trkpt lat="41.9900734" lon="2.8240366999999935">
<ele>70.08454279481458</ele>
<time>2026-07-12T11:19:49.883Z</time>
</trkpt>
<trkpt lat="41.99003" lon="2.8240153000000134">
<ele>69.68830143486097</ele>
<time>2026-07-12T11:19:52.907Z</time>
</trkpt>
<trkpt lat="41.9899861" lon="2.8239944999999977">
<ele>69.26200051805303</ele>
<time>2026-07-12T11:19:56.856Z</time>
</trkpt>
<trkpt lat="41.9899435" lon="2.8239692999999875">
<ele>69.17241237862564</ele>
<time>2026-07-12T11:20:01.379Z</time>
</trkpt>
<trkpt lat="41.9899048" lon="2.823937000000001">
<ele>69.09590446383788</ele>
<time>2026-07-12T11:20:04.892Z</time>
</trkpt>
<trkpt lat="41.9898727" lon="2.8238918000000126">
<ele>68.94729496315956</ele>
<time>2026-07-12T11:20:07.499Z</time>
</trkpt>
<trkpt lat="41.9898398" lon="2.8238456999999926">
<ele>68.718329701696</ele>
<time>2026-07-12T11:20:10.856Z</time>
</trkpt>
<trkpt lat="41.9898003" lon="2.8238126999999906">
<ele>68.52391142295762</ele>
<time>2026-07-12T11:20:14.016Z</time>
</trkpt>
<trkpt lat="41.9897607" lon="2.8237809999999968">
<ele>68.2785008502777</ele>
<time>2026-07-12T11:20:17.018Z</time>
</trkpt>
<trkpt lat="41.9897206" lon="2.8237511000000097">
<ele>67.99023780867397</ele>
<time>2026-07-12T11:20:20.172Z</time>
</trkpt>
<trkpt lat="41.9896797" lon="2.8237225999999964">
<ele>67.9906984394732</ele>
<time>2026-07-12T11:20:23.132Z</time>
</trkpt>
<trkpt lat="41.9896344" lon="2.823686600000002">
<ele>68.15620264580056</ele>
<time>2026-07-12T11:20:26.757Z</time>
</trkpt>
<trkpt lat="41.9895974" lon="2.823651500000011">
<ele>68.29629866692468</ele>
<time>2026-07-12T11:20:29.872Z</time>
</trkpt>
<trkpt lat="41.9895687" lon="2.823603300000002">
<ele>67.9326567912379</ele>
<time>2026-07-12T11:20:32.899Z</time>
</trkpt>
<trkpt lat="41.9895526" lon="2.823542300000014">
<ele>67.05175354845602</ele>
<time>2026-07-12T11:20:36.672Z</time>
</trkpt>
<trkpt lat="41.9895387" lon="2.8234847999999886">
<ele>66.11075472966387</ele>
<time>2026-07-12T11:20:40.016Z</time>
</trkpt>
<trkpt lat="41.9895409" lon="2.823422700000009">
<ele>65.00619426567785</ele>
<time>2026-07-12T11:20:43.050Z</time>
</trkpt>
<trkpt lat="41.9895376" lon="2.8233548999999982">
<ele>63.96536151084651</ele>
<time>2026-07-12T11:20:46.716Z</time>
</trkpt>
<trkpt lat="41.9895367" lon="2.8232868999999994">
<ele>63.84407011434154</ele>
<time>2026-07-12T11:20:50.693Z</time>
</trkpt>
<trkpt lat="41.9895355" lon="2.823225799999989">
<ele>63.73589881141249</ele>
<time>2026-07-12T11:20:53.857Z</time>
</trkpt>
<trkpt lat="41.9895344" lon="2.8231632000000104">
<ele>63.627685418978224</ele>
<time>2026-07-12T11:20:57.017Z</time>
</trkpt>
<trkpt lat="41.9895316" lon="2.823093599999993">
<ele>63.50982974743024</ele>
<time>2026-07-12T11:21:00.636Z</time>
</trkpt>
<trkpt lat="41.98953" lon="2.823029399999996">
<ele>63.5</ele>
<time>2026-07-12T11:21:03.935Z</time>
</trkpt>
<trkpt lat="41.9895297" lon="2.822961200000009">
<ele>63.5</ele>
<time>2026-07-12T11:21:07.575Z</time>
</trkpt>
<trkpt lat="41.9895374" lon="2.8229002999999864">
<ele>63.5</ele>
<time>2026-07-12T11:21:10.576Z</time>
</trkpt>
<trkpt lat="41.9895352" lon="2.8228348000000096">
<ele>63.5</ele>
<time>2026-07-12T11:21:14.494Z</time>
</trkpt>
<trkpt lat="41.9895338" lon="2.8227640000000065">
<ele>64.07670908249881</ele>
<time>2026-07-12T11:21:18.473Z</time>
</trkpt>
<trkpt lat="41.9895452" lon="2.82269629999999">
<ele>64.93576175563221</ele>
<time>2026-07-12T11:21:22.417Z</time>
</trkpt>
<trkpt lat="41.9895567" lon="2.82263549999999">
<ele>65.70744939014482</ele>
<time>2026-07-12T11:21:25.673Z</time>
</trkpt>
<trkpt lat="41.9895729" lon="2.8225768000000073">
<ele>66.45279402745236</ele>
<time>2026-07-12T11:21:28.917Z</time>
</trkpt>
<trkpt lat="41.9895979" lon="2.822522399999997">
<ele>67.08990204577165</ele>
<time>2026-07-12T11:21:32.156Z</time>
</trkpt>
<trkpt lat="41.9896167" lon="2.8224612999999863">
<ele>67.49881421281339</ele>
<time>2026-07-12T11:21:35.454Z</time>
</trkpt>
<trkpt lat="41.9896287" lon="2.8224030000000084">
<ele>67.8940245317605</ele>
<time>2026-07-12T11:21:38.397Z</time>
</trkpt>
<trkpt lat="41.989644" lon="2.822339400000004">
<ele>68.33291017038381</ele>
<time>2026-07-12T11:21:41.375Z</time>
</trkpt>
<trkpt lat="41.9896575" lon="2.822281199999992">
<ele>68.74051593191659</ele>
<time>2026-07-12T11:21:44.856Z</time>
</trkpt>
<trkpt lat="41.9896594" lon="2.8222089999999866">
<ele>69.05363181548738</ele>
<time>2026-07-12T11:21:48.921Z</time>
</trkpt>
<trkpt lat="41.9896594" lon="2.8221393000000035">
<ele>69.24224783333923</ele>
<time>2026-07-12T11:21:52.878Z</time>
</trkpt>
<trkpt lat="41.9896524" lon="2.8220661999999948">
<ele>69.41945602696542</ele>
<time>2026-07-12T11:21:56.933Z</time>
</trkpt>
<trkpt lat="41.9896175" lon="2.8220263999999986">
<ele>69.40787823789903</ele>
<time>2026-07-12T11:22:00.857Z</time>
</trkpt>
<trkpt lat="41.9895973" lon="2.8219649000000118">
<ele>69.48378685470564</ele>
<time>2026-07-12T11:22:09.235Z</time>
</trkpt>
<trkpt lat="41.9895728" lon="2.82190829999999">
<ele>69.62709837941087</ele>
<time>2026-07-12T11:22:11.857Z</time>
</trkpt>
<trkpt lat="41.9895444" lon="2.8218584999999905">
<ele>69.79523338486065</ele>
<time>2026-07-12T11:22:14.213Z</time>
</trkpt>
<trkpt lat="41.9895083" lon="2.821817199999998">
<ele>69.97764849634095</ele>
<time>2026-07-12T11:22:16.559Z</time>
</trkpt>
<trkpt lat="41.9894741" lon="2.8217766999999867">
<ele>70.21995168652258</ele>
<time>2026-07-12T11:22:19.198Z</time>
</trkpt>
<trkpt lat="41.9894323" lon="2.821747899999991">
<ele>70.45008523299036</ele>
<time>2026-07-12T11:22:22.176Z</time>
</trkpt>
<trkpt lat="41.9893911" lon="2.8217109999999934">
<ele>70.62682978306542</ele>
<time>2026-07-12T11:22:25.696Z</time>
</trkpt>
<trkpt lat="41.9893556" lon="2.8216732999999863">
<ele>70.7764655146676</ele>
<time>2026-07-12T11:22:30.177Z</time>
</trkpt>
<trkpt lat="41.9893086" lon="2.821643800000004">
<ele>70.83445117939</ele>
<time>2026-07-12T11:22:33.738Z</time>
</trkpt>
<trkpt lat="41.9892883" lon="2.8215773999999954">
<ele>71.1536546828062</ele>
<time>2026-07-12T11:22:37.857Z</time>
</trkpt>
<trkpt lat="41.9892849" lon="2.821517099999994">
<ele>71.47441615454245</ele>
<time>2026-07-12T11:22:41.575Z</time>
</trkpt>
<trkpt lat="41.9892816" lon="2.8214566000000048">
<ele>71.79898543555524</ele>
<time>2026-07-12T11:22:49.856Z</time>
</trkpt>
<trkpt lat="41.9892691" lon="2.8213844999999935">
<ele>71.89132475576176</ele>
<time>2026-07-12T11:22:54.839Z</time>
</trkpt>
<trkpt lat="41.9892448" lon="2.821332500000011">
<ele>71.60421072581532</ele>
<time>2026-07-12T11:22:58.891Z</time>
</trkpt>
<trkpt lat="41.9892211" lon="2.821279599999997">
<ele>71.181281137543</ele>
<time>2026-07-12T11:23:02.437Z</time>
</trkpt>
<trkpt lat="41.9891836" lon="2.821239200000008">
<ele>70.57351856698551</ele>
<time>2026-07-12T11:23:05.495Z</time>
</trkpt>
<trkpt lat="41.9891504" lon="2.8211932000000104">
<ele>69.81345725468266</ele>
<time>2026-07-12T11:23:08.864Z</time>
</trkpt>
<trkpt lat="41.9891208" lon="2.8211396000000093">
<ele>69.32226033509104</ele>
<time>2026-07-12T11:23:12.310Z</time>
</trkpt>
<trkpt lat="41.9890924" lon="2.821085399999987">
<ele>70.80294809622295</ele>
<time>2026-07-12T11:23:15.376Z</time>
</trkpt>
<trkpt lat="41.9890639" lon="2.821029299999992">
<ele>72.56455569836535</ele>
<time>2026-07-12T11:23:19.473Z</time>
</trkpt>
<trkpt lat="41.9890394" lon="2.820974100000001">
<ele>74.48407031080369</ele>
<time>2026-07-12T11:23:22.794Z</time>
</trkpt>
<trkpt lat="41.9890218" lon="2.8209110999999893">
<ele>76.7484825685243</ele>
<time>2026-07-12T11:23:25.756Z</time>
</trkpt>
<trkpt lat="41.9890063" lon="2.8208543000000077">
<ele>78.91405964099803</ele>
<time>2026-07-12T11:23:29.335Z</time>
</trkpt>
<trkpt lat="41.9889973" lon="2.820794400000011">
<ele>81.05506570309822</ele>
<time>2026-07-12T11:23:32.695Z</time>
</trkpt>
<trkpt lat="41.988986" lon="2.820725799999991">
<ele>83.49506438491156</ele>
<time>2026-07-12T11:23:36.234Z</time>
</trkpt>
<trkpt lat="41.9889611" lon="2.8206682">
<ele>85.75604486204355</ele>
<time>2026-07-12T11:23:40.856Z</time>
</trkpt>
<trkpt lat="41.9889404" lon="2.8206089999999904">
<ele>87.94611449302337</ele>
<time>2026-07-12T11:23:45.173Z</time>
</trkpt>
<trkpt lat="41.9889221" lon="2.820549099999994">
<ele>89.85261978075039</ele>
<time>2026-07-12T11:23:48.865Z</time>
</trkpt>
<trkpt lat="41.9889095" lon="2.8204885000000104">
<ele>91.5045910501264</ele>
<time>2026-07-12T11:23:52.739Z</time>
</trkpt>
<trkpt lat="41.9888954" lon="2.8204303999999922">
<ele>93.07653601151712</ele>
<time>2026-07-12T11:23:56.476Z</time>
</trkpt>
<trkpt lat="41.9888809" lon="2.8203723999999966">
<ele>94.61260810478308</ele>
<time>2026-07-12T11:24:00.556Z</time>
</trkpt>
<trkpt lat="41.9888694" lon="2.820296799999994">
<ele>96.47466122725285</ele>
<time>2026-07-12T11:24:02.598Z</time>
</trkpt>
<trkpt lat="41.9888592" lon="2.8202319000000102">
<ele>98.07991327122495</ele>
<time>2026-07-12T11:24:05.077Z</time>
</trkpt>
<trkpt lat="41.9888355" lon="2.820173100000005">
<ele>99.41433924124082</ele>
<time>2026-07-12T11:24:08.150Z</time>
</trkpt>
<trkpt lat="41.988826" lon="2.8201052000000004">
<ele>101.04048006635045</ele>
<time>2026-07-12T11:24:11.296Z</time>
</trkpt>
<trkpt lat="41.9888094" lon="2.820043599999991">
<ele>102.42342428650332</ele>
<time>2026-07-12T11:24:14.332Z</time>
</trkpt>
<trkpt lat="41.9887925" lon="2.8199801000000093">
<ele>103.37395226960031</ele>
<time>2026-07-12T11:24:17.857Z</time>
</trkpt>
<trkpt lat="41.9887717" lon="2.8199222000000077">
<ele>104.05250610658098</ele>
<time>2026-07-12T11:24:20.857Z</time>
</trkpt>
<trkpt lat="41.9887462" lon="2.8198691999999994">
<ele>104.61230118574379</ele>
<time>2026-07-12T11:24:23.451Z</time>
</trkpt>
<trkpt lat="41.9887292" lon="2.8198049000000083">
<ele>105.42286598742862</ele>
<time>2026-07-12T11:24:26.591Z</time>
</trkpt>
<trkpt lat="41.9887048" lon="2.8197424999999896">
<ele>106.07655676575679</ele>
<time>2026-07-12T11:24:30.518Z</time>
</trkpt>
<trkpt lat="41.9886795" lon="2.819682699999987">
<ele>106.20514045061616</ele>
<time>2026-07-12T11:24:40.866Z</time>
</trkpt>
<trkpt lat="41.9886703" lon="2.8196205000000134">
<ele>106.47057933221127</ele>
<time>2026-07-12T11:24:44.899Z</time>
</trkpt>
<trkpt lat="41.9886628" lon="2.8195527000000027">
<ele>106.75939228893756</ele>
<time>2026-07-12T11:24:48.432Z</time>
</trkpt>
<trkpt lat="41.988649" lon="2.8194923000000074">
<ele>106.86765333302122</ele>
<time>2026-07-12T11:24:51.476Z</time>
</trkpt>
<trkpt lat="41.9886298" lon="2.8194316999999955">
<ele>106.92243327711792</ele>
<time>2026-07-12T11:24:54.859Z</time>
</trkpt>
<trkpt lat="41.9886086" lon="2.819374900000014">
<ele>107.06230561582295</ele>
<time>2026-07-12T11:24:58.572Z</time>
</trkpt>
<trkpt lat="41.9885855" lon="2.8193225999999925">
<ele>107.40344123232595</ele>
<time>2026-07-12T11:25:01.857Z</time>
</trkpt>
<trkpt lat="41.9885644" lon="2.81926279999999">
<ele>108.08844990234672</ele>
<time>2026-07-12T11:25:05.633Z</time>
</trkpt>
<trkpt lat="41.9885445" lon="2.819198199999988">
<ele>108.9004895763048</ele>
<time>2026-07-12T11:25:08.992Z</time>
</trkpt>
<trkpt lat="41.9885288" lon="2.8191395000000057">
<ele>108.79111058656869</ele>
<time>2026-07-12T11:25:12.651Z</time>
</trkpt>
<trkpt lat="41.9885122" lon="2.8190831000000003">
<ele>108.52799433672882</ele>
<time>2026-07-12T11:25:15.652Z</time>
</trkpt>
<trkpt lat="41.9884963" lon="2.819024600000006">
<ele>108.15345623574078</ele>
<time>2026-07-12T11:25:18.710Z</time>
</trkpt>
<trkpt lat="41.9884851" lon="2.8189630999999906">
<ele>107.67657531370727</ele>
<time>2026-07-12T11:25:21.736Z</time>
</trkpt>
<trkpt lat="41.9884714" lon="2.818903699999993">
<ele>106.99605828395076</ele>
<time>2026-07-12T11:25:24.755Z</time>
</trkpt>
<trkpt lat="41.9884539" lon="2.8188418999999953">
<ele>105.68181094509399</ele>
<time>2026-07-12T11:25:27.773Z</time>
</trkpt>
<trkpt lat="41.9884328" lon="2.818783599999989">
<ele>104.46673149189728</ele>
<time>2026-07-12T11:25:30.793Z</time>
</trkpt>
<trkpt lat="41.9884179" lon="2.818726099999992">
<ele>103.3317579543911</ele>
<time>2026-07-12T11:25:34.155Z</time>
</trkpt>
<trkpt lat="41.9884013" lon="2.8186694999999986">
<ele>102.24679663300796</ele>
<time>2026-07-12T11:25:37.830Z</time>
</trkpt>
<trkpt lat="41.988388" lon="2.818601099999995">
<ele>101.47810804794176</ele>
<time>2026-07-12T11:25:41.928Z</time>
</trkpt>
<trkpt lat="41.988375" lon="2.8185346999999865">
<ele>101.16387249117972</ele>
<time>2026-07-12T11:25:45.964Z</time>
</trkpt>
<trkpt lat="41.9883607" lon="2.818472500000013">
<ele>100.85476201820028</ele>
<time>2026-07-12T11:25:49.354Z</time>
</trkpt>
<trkpt lat="41.9883425" lon="2.818408099999999">
<ele>100.51407255984267</ele>
<time>2026-07-12T11:25:52.611Z</time>
</trkpt>
<trkpt lat="41.9883321" lon="2.8183462000000077">
<ele>100.255536802426</ele>
<time>2026-07-12T11:25:56.135Z</time>
</trkpt>
<trkpt lat="41.9883207" lon="2.8182820000000106">
<ele>100.24168660799035</ele>
<time>2026-07-12T11:25:59.954Z</time>
</trkpt>
<trkpt lat="41.9883089" lon="2.8182185000000004">
<ele>100.37512657213786</ele>
<time>2026-07-12T11:26:03.213Z</time>
</trkpt>
<trkpt lat="41.9882981" lon="2.8181557999999995">
<ele>100.51918667122165</ele>
<time>2026-07-12T11:26:06.233Z</time>
</trkpt>
<trkpt lat="41.9882853" lon="2.8180935999999974">
<ele>100.63827047527825</ele>
<time>2026-07-12T11:26:09.298Z</time>
</trkpt>
<trkpt lat="41.9882685" lon="2.8180354000000136">
<ele>100.59810238186351</ele>
<time>2026-07-12T11:26:12.717Z</time>
</trkpt>
<trkpt lat="41.9882488" lon="2.8179735999999878">
<ele>100.53101767714973</ele>
<time>2026-07-12T11:26:16.375Z</time>
</trkpt>
<trkpt lat="41.9882349" lon="2.8179111999999975">
<ele>100.40166247840237</ele>
<time>2026-07-12T11:26:19.969Z</time>
</trkpt>
<trkpt lat="41.9882195" lon="2.817849300000006">
<ele>100.29853449217349</ele>
<time>2026-07-12T11:26:23.496Z</time>
</trkpt>
<trkpt lat="41.9882058" lon="2.817789299999987">
<ele>100.10187697174817</ele>
<time>2026-07-12T11:26:26.856Z</time>
</trkpt>
<trkpt lat="41.9881886" lon="2.8177135999999905">
<ele>99.55752814283618</ele>
<time>2026-07-12T11:26:30.962Z</time>
</trkpt>
<trkpt lat="41.9881726" lon="2.817655599999995">
<ele>99.31126552742454</ele>
<time>2026-07-12T11:26:34.492Z</time>
</trkpt>
<trkpt lat="41.9881568" lon="2.817598099999998">
<ele>99.18062650654765</ele>
<time>2026-07-12T11:26:37.875Z</time>
</trkpt>
<trkpt lat="41.9881407" lon="2.8175348999999983">
<ele>99.13206934110144</ele>
<time>2026-07-12T11:26:40.936Z</time>
</trkpt>
<trkpt lat="41.988124" lon="2.817471000000012">
<ele>99.09486922109892</ele>
<time>2026-07-12T11:26:44.638Z</time>
</trkpt>
<trkpt lat="41.9881089" lon="2.8174127000000055">
<ele>99.00964957667385</ele>
<time>2026-07-12T11:26:47.694Z</time>
</trkpt>
<trkpt lat="41.9880962" lon="2.81735359999999">
<ele>98.81929624810401</ele>
<time>2026-07-12T11:26:50.857Z</time>
</trkpt>
<trkpt lat="41.9880811" lon="2.8172859000000017">
<ele>98.57826232830998</ele>
<time>2026-07-12T11:26:54.732Z</time>
</trkpt>
<trkpt lat="41.9880667" lon="2.8172209999999893">
<ele>98.5632844638367</ele>
<time>2026-07-12T11:26:58.758Z</time>
</trkpt>
<trkpt lat="41.9880465" lon="2.817159900000007">
<ele>99.17353703701005</ele>
<time>2026-07-12T11:27:02.814Z</time>
</trkpt>
<trkpt lat="41.9880257" lon="2.8170953999999995">
<ele>99.73522468747355</ele>
<time>2026-07-12T11:27:06.858Z</time>
</trkpt>
<trkpt lat="41.9880118" lon="2.817031700000001">
<ele>100.06068091915022</ele>
<time>2026-07-12T11:27:10.212Z</time>
</trkpt>
<trkpt lat="41.9880082" lon="2.8169633999999917">
<ele>100.18371875263152</ele>
<time>2026-07-12T11:27:13.918Z</time>
</trkpt>
<trkpt lat="41.9879911" lon="2.8169043999999985">
<ele>100.12744951286463</ele>
<time>2026-07-12T11:27:16.986Z</time>
</trkpt>
<trkpt lat="41.9879659" lon="2.8168493999999953">
<ele>100.34275336442462</ele>
<time>2026-07-12T11:27:19.896Z</time>
</trkpt>
<trkpt lat="41.9879337" lon="2.8167900999999915">
<ele>100.83331709759749</ele>
<time>2026-07-12T11:27:22.896Z</time>
</trkpt>
<trkpt lat="41.9879103" lon="2.8167371000000117">
<ele>101.28841303944925</ele>
<time>2026-07-12T11:27:26.896Z</time>
</trkpt>
<trkpt lat="41.9878918" lon="2.8166784999999948">
<ele>101.72876950708283</ele>
<time>2026-07-12T11:27:30.051Z</time>
</trkpt>
<trkpt lat="41.9878781" lon="2.8166181999999935">
<ele>102.12526197545263</ele>
<time>2026-07-12T11:27:33.437Z</time>
</trkpt>
<trkpt lat="41.9878597" lon="2.816551699999991">
<ele>102.69549492704259</ele>
<time>2026-07-12T11:27:36.977Z</time>
</trkpt>
<trkpt lat="41.9878432" lon="2.8164939000000118">
<ele>103.24317599569346</ele>
<time>2026-07-12T11:27:39.896Z</time>
</trkpt>
<trkpt lat="41.9878279" lon="2.8164355000000114">
<ele>103.78835151862108</ele>
<time>2026-07-12T11:27:42.907Z</time>
</trkpt>
<trkpt lat="41.9878102" lon="2.8163734999999974">
<ele>103.76367201039868</ele>
<time>2026-07-12T11:27:46.238Z</time>
</trkpt>
<trkpt lat="41.9877908" lon="2.816313500000007">
<ele>103.37358958542215</ele>
<time>2026-07-12T11:27:49.618Z</time>
</trkpt>
<trkpt lat="41.9877708" lon="2.8162590000000023">
<ele>103.05596508555789</ele>
<time>2026-07-12T11:27:52.698Z</time>
</trkpt>
<trkpt lat="41.9877536" lon="2.8162024000000088">
<ele>102.56980138087579</ele>
<time>2026-07-12T11:27:55.978Z</time>
</trkpt>
<trkpt lat="41.9877392" lon="2.816138599999988">
<ele>101.92177623376013</ele>
<time>2026-07-12T11:27:59.373Z</time>
</trkpt>
<trkpt lat="41.9877256" lon="2.8160801999999876">
<ele>101.67073419977773</ele>
<time>2026-07-12T11:28:02.620Z</time>
</trkpt>
<trkpt lat="41.9877113" lon="2.8160225000000025">
<ele>101.43649867473631</ele>
<time>2026-07-12T11:28:05.792Z</time>
</trkpt>
<trkpt lat="41.9876947" lon="2.815961299999998">
<ele>101.18076251698251</ele>
<time>2026-07-12T11:28:09.514Z</time>
</trkpt>
<trkpt lat="41.9876761" lon="2.815903800000001">
<ele>100.96839184533333</ele>
<time>2026-07-12T11:28:12.842Z</time>
</trkpt>
<trkpt lat="41.9876562" lon="2.8158471000000134">
<ele>100.59897583374975</ele>
<time>2026-07-12T11:28:16.038Z</time>
</trkpt>
<trkpt lat="41.9876326" lon="2.8157917999999995">
<ele>99.42820953790968</ele>
<time>2026-07-12T11:28:19.071Z</time>
</trkpt>
<trkpt lat="41.9876103" lon="2.8157381000000044">
<ele>98.18307100827644</ele>
<time>2026-07-12T11:28:22.098Z</time>
</trkpt>
<trkpt lat="41.9875872" lon="2.8156859000000054">
<ele>96.90759958178273</ele>
<time>2026-07-12T11:28:25.236Z</time>
</trkpt>
<trkpt lat="41.9875611" lon="2.8156338000000005">
<ele>95.58615756113257</ele>
<time>2026-07-12T11:28:28.807Z</time>
</trkpt>
<trkpt lat="41.9875324" lon="2.815585900000002">
<ele>94.3386609154613</ele>
<time>2026-07-12T11:28:31.579Z</time>
</trkpt>
<trkpt lat="41.9874938" lon="2.815532300000001">
<ele>93.1996565743278</ele>
<time>2026-07-12T11:28:34.899Z</time>
</trkpt>
<trkpt lat="41.9874668" lon="2.8154795000000092">
<ele>91.67611735409274</ele>
<time>2026-07-12T11:28:38.130Z</time>
</trkpt>
<trkpt lat="41.987445" lon="2.815426599999995">
<ele>89.98054545697764</ele>
<time>2026-07-12T11:28:40.958Z</time>
</trkpt>
<trkpt lat="41.9874199" lon="2.815376299999997">
<ele>88.3226253027813</ele>
<time>2026-07-12T11:28:43.639Z</time>
</trkpt>
<trkpt lat="41.9873946" lon="2.81531369999999">
<ele>86.26255261280569</ele>
<time>2026-07-12T11:28:46.717Z</time>
</trkpt>
<trkpt lat="41.9873752" lon="2.815250700000007">
<ele>84.26631774830908</ele>
<time>2026-07-12T11:28:50.595Z</time>
</trkpt>
<trkpt lat="41.9873571" lon="2.8151930999999877">
<ele>82.3786577465615</ele>
<time>2026-07-12T11:28:53.896Z</time>
</trkpt>
<trkpt lat="41.9873432" lon="2.8151353000000086">
<ele>80.45653162609257</ele>
<time>2026-07-12T11:28:57.095Z</time>
</trkpt>
<trkpt lat="41.9873215" lon="2.815069599999987">
<ele>78.10260271213735</ele>
<time>2026-07-12T11:29:00.968Z</time>
</trkpt>
<trkpt lat="41.9873117" lon="2.8150076999999953">
<ele>76.2499987761883</ele>
<time>2026-07-12T11:29:04.788Z</time>
</trkpt>
<trkpt lat="41.9872981" lon="2.8149443000000076">
<ele>75.27759954316107</ele>
<time>2026-07-12T11:29:07.896Z</time>
</trkpt>
<trkpt lat="41.9872797" lon="2.8148855999999967">
<ele>74.17841521216076</ele>
<time>2026-07-12T11:29:11.173Z</time>
</trkpt>
<trkpt lat="41.9872615" lon="2.8148261000000048">
<ele>72.98343489297595</ele>
<time>2026-07-12T11:29:14.656Z</time>
</trkpt>
<trkpt lat="41.9872397" lon="2.8147599000000127">
<ele>71.50317817337046</ele>
<time>2026-07-12T11:29:18.620Z</time>
</trkpt>
<trkpt lat="41.987227" lon="2.814688600000011">
<ele>70.61413888707389</ele>
<time>2026-07-12T11:29:22.562Z</time>
</trkpt>
<trkpt lat="41.9872227" lon="2.81462479999999">
<ele>70.16146599257819</ele>
<time>2026-07-12T11:29:26.671Z</time>
</trkpt>
<trkpt lat="41.9872126" lon="2.814555899999988">
<ele>69.5213136862449</ele>
<time>2026-07-12T11:29:30.791Z</time>
</trkpt>
<trkpt lat="41.9871965" lon="2.8144972000000053">
<ele>68.99838144557341</ele>
<time>2026-07-12T11:29:34.217Z</time>
</trkpt>
<trkpt lat="41.9871792" lon="2.8144331000000022">
<ele>68.97787554973196</ele>
<time>2026-07-12T11:29:37.913Z</time>
</trkpt>
<trkpt lat="41.987161" lon="2.814377500000006">
<ele>69.19571197027922</ele>
<time>2026-07-12T11:29:40.993Z</time>
</trkpt>
<trkpt lat="41.9871422" lon="2.8143192">
<ele>69.41245572925406</ele>
<time>2026-07-12T11:29:44.396Z</time>
</trkpt>
<trkpt lat="41.9871259" lon="2.8142592000000093">
<ele>69.62234703313919</ele>
<time>2026-07-12T11:29:47.896Z</time>
</trkpt>
<trkpt lat="41.987117" lon="2.8141999999999996">
<ele>69.81900693755354</ele>
<time>2026-07-12T11:29:51.472Z</time>
</trkpt>
<trkpt lat="41.9871056" lon="2.814138299999996">
<ele>70.13192273554165</ele>
<time>2026-07-12T11:29:55.594Z</time>
</trkpt>
<trkpt lat="41.9870954" lon="2.8140787000000103">
<ele>70.42561069808548</ele>
<time>2026-07-12T11:29:57.899Z</time>
</trkpt>
<trkpt lat="41.987079" lon="2.814001399999995">
<ele>70.72092874166943</ele>
<time>2026-07-12T11:30:00.354Z</time>
</trkpt>
<trkpt lat="41.9870658" lon="2.813941099999994">
<ele>70.88495686813972</ele>
<time>2026-07-12T11:30:02.436Z</time>
</trkpt>
<trkpt lat="41.9870431" lon="2.8138791000000083">
<ele>70.89335351384416</ele>
<time>2026-07-12T11:30:05.518Z</time>
</trkpt>
<trkpt lat="41.9870152" lon="2.813831399999998">
<ele>70.62259588188594</ele>
<time>2026-07-12T11:30:09.036Z</time>
</trkpt>
<trkpt lat="41.9870137" lon="2.813768699999997">
<ele>70.67757864031978</ele>
<time>2026-07-12T11:30:11.175Z</time>
</trkpt>
<trkpt lat="41.9870174" lon="2.8136981000000105">
<ele>70.85754325747361</ele>
<time>2026-07-12T11:30:13.752Z</time>
</trkpt>
<trkpt lat="41.9870047" lon="2.813635199999993">
<ele>70.57975965427441</ele>
<time>2026-07-12T11:30:17.210Z</time>
</trkpt>
<trkpt lat="41.9869908" lon="2.8135777999999902">
<ele>70.80378765173279</ele>
<time>2026-07-12T11:30:20.894Z</time>
</trkpt>
<trkpt lat="41.9869573" lon="2.8135307999999952">
<ele>70.58172237915032</ele>
<time>2026-07-12T11:30:24.337Z</time>
</trkpt>
<trkpt lat="41.9869345" lon="2.813475600000004">
<ele>70.90192334390083</ele>
<time>2026-07-12T11:30:27.589Z</time>
</trkpt>
<trkpt lat="41.9869102" lon="2.813418200000001">
<ele>71.88430806008839</ele>
<time>2026-07-12T11:30:38.970Z</time>
</trkpt>
<trkpt lat="41.9869055" lon="2.8133550000000014">
<ele>73.00814731300221</ele>
<time>2026-07-12T11:30:42.913Z</time>
</trkpt>
<trkpt lat="41.9868916" lon="2.813292700000005">
<ele>73.65144310924907</ele>
<time>2026-07-12T11:30:45.965Z</time>
</trkpt>
<trkpt lat="41.9868686" lon="2.8132300999999984">
<ele>74.17901398390208</ele>
<time>2026-07-12T11:30:49.774Z</time>
</trkpt>
<trkpt lat="41.9868501" lon="2.8131727999999896">
<ele>74.44932948329352</ele>
<time>2026-07-12T11:30:52.857Z</time>
</trkpt>
<trkpt lat="41.9868291" lon="2.813119400000005">
<ele>74.53163064233722</ele>
<time>2026-07-12T11:30:55.870Z</time>
</trkpt>
<trkpt lat="41.9868102" lon="2.8130643000000077">
<ele>74.4214931839222</ele>
<time>2026-07-12T11:30:58.961Z</time>
</trkpt>
<trkpt lat="41.9867965" lon="2.8130065">
<ele>74.15161135784845</ele>
<time>2026-07-12T11:31:02.096Z</time>
</trkpt>
<trkpt lat="41.986781" lon="2.8129471999999964">
<ele>73.84048367655217</ele>
<time>2026-07-12T11:31:05.175Z</time>
</trkpt>
<trkpt lat="41.9867681" lon="2.8128838000000087">
<ele>73.51518772855572</ele>
<time>2026-07-12T11:31:08.633Z</time>
</trkpt>
<trkpt lat="41.986756" lon="2.812825299999986">
<ele>73.19370895889057</ele>
<time>2026-07-12T11:31:11.897Z</time>
</trkpt>
<trkpt lat="41.9867412" lon="2.8127634999999884">
<ele>72.73129459176974</ele>
<time>2026-07-12T11:31:15.373Z</time>
</trkpt>
<trkpt lat="41.9867259" lon="2.812702300000012">
<ele>72.15636582081308</ele>
<time>2026-07-12T11:31:18.982Z</time>
</trkpt>
<trkpt lat="41.9867147" lon="2.8126374">
<ele>71.57276675265942</ele>
<time>2026-07-12T11:31:22.615Z</time>
</trkpt>
<trkpt lat="41.9867034" lon="2.812576699999994">
<ele>70.98603498229254</ele>
<time>2026-07-12T11:31:25.897Z</time>
</trkpt>
<trkpt lat="41.9866865" lon="2.812517200000002">
<ele>70.28770159136673</ele>
<time>2026-07-12T11:31:29.196Z</time>
</trkpt>
<trkpt lat="41.9866677" lon="2.8124560999999915">
<ele>70.09659947691615</ele>
<time>2026-07-12T11:31:32.965Z</time>
</trkpt>
<trkpt lat="41.9866457" lon="2.8123970999999983">
<ele>69.87796302680634</ele>
<time>2026-07-12T11:31:36.375Z</time>
</trkpt>
<trkpt lat="41.9866272" lon="2.8123358999999937">
<ele>70.09497649792566</ele>
<time>2026-07-12T11:31:39.458Z</time>
</trkpt>
<trkpt lat="41.9866114" lon="2.8122726">
<ele>70.33191249438714</ele>
<time>2026-07-12T11:31:42.900Z</time>
</trkpt>
<trkpt lat="41.9865936" lon="2.8122118">
<ele>71.03547866352365</ele>
<time>2026-07-12T11:31:46.238Z</time>
</trkpt>
<trkpt lat="41.9865732" lon="2.812152999999995">
<ele>72.21410569715181</ele>
<time>2026-07-12T11:31:49.614Z</time>
</trkpt>
<trkpt lat="41.9865533" lon="2.812090799999993">
<ele>73.39828726743706</ele>
<time>2026-07-12T11:31:52.971Z</time>
</trkpt>
<trkpt lat="41.9865327" lon="2.81203450000001">
<ele>74.43157456863823</ele>
<time>2026-07-12T11:31:56.251Z</time>
</trkpt>
<trkpt lat="41.9865143" lon="2.8119761000000096">
<ele>75.44641405655351</ele>
<time>2026-07-12T11:31:59.641Z</time>
</trkpt>
<trkpt lat="41.9864941" lon="2.8119125999999994">
<ele>75.75764323410675</ele>
<time>2026-07-12T11:32:03.394Z</time>
</trkpt>
<trkpt lat="41.9864749" lon="2.8118564000000106">
<ele>75.92018195079977</ele>
<time>2026-07-12T11:32:06.794Z</time>
</trkpt>
<trkpt lat="41.9864489" lon="2.8117970000000128">
<ele>76.25328388214717</ele>
<time>2026-07-12T11:32:10.390Z</time>
</trkpt>
<trkpt lat="41.9864164" lon="2.811750999999987">
<ele>76.74815053527034</ele>
<time>2026-07-12T11:32:14.393Z</time>
</trkpt>
<trkpt lat="41.9863798" lon="2.8117090000000076">
<ele>77.41335064403953</ele>
<time>2026-07-12T11:32:17.383Z</time>
</trkpt>
<trkpt lat="41.9863457" lon="2.8116674999999987">
<ele>77.90145320497219</ele>
<time>2026-07-12T11:32:20.939Z</time>
</trkpt>
<trkpt lat="41.9863012" lon="2.811629399999987">
<ele>78.2540111986282</ele>
<time>2026-07-12T11:32:24.436Z</time>
</trkpt>
<trkpt lat="41.98626" lon="2.8115971999999942">
<ele>78.72463921457559</ele>
<time>2026-07-12T11:32:27.617Z</time>
</trkpt>
<trkpt lat="41.9862198" lon="2.8115570999999875">
<ele>79.25930518528216</ele>
<time>2026-07-12T11:32:30.879Z</time>
</trkpt>
<trkpt lat="41.9861799" lon="2.8115258999999924">
<ele>79.94210297616523</ele>
<time>2026-07-12T11:32:33.858Z</time>
</trkpt>
<trkpt lat="41.98613" lon="2.811496500000004">
<ele>80.94331751535391</ele>
<time>2026-07-12T11:32:36.831Z</time>
</trkpt>
<trkpt lat="41.9860877" lon="2.811469299999999">
<ele>81.80027337693794</ele>
<time>2026-07-12T11:32:40.596Z</time>
</trkpt>
<trkpt lat="41.986043" lon="2.811437000000012">
<ele>81.8207976029706</ele>
<time>2026-07-12T11:32:43.796Z</time>
</trkpt>
<trkpt lat="41.9859971" lon="2.811399999999992">
<ele>81.79195548503196</ele>
<time>2026-07-12T11:32:47.492Z</time>
</trkpt>
<trkpt lat="41.9859575" lon="2.811359600000003">
<ele>81.73762696921675</ele>
<time>2026-07-12T11:32:50.518Z</time>
</trkpt>
<trkpt lat="41.9859173" lon="2.811331700000011">
<ele>81.79020973627354</ele>
<time>2026-07-12T11:32:53.555Z</time>
</trkpt>
<trkpt lat="41.9858722" lon="2.8113037999999904">
<ele>81.93940381637381</ele>
<time>2026-07-12T11:32:56.574Z</time>
</trkpt>
<trkpt lat="41.9858294" lon="2.8112788999999907">
<ele>82.16096009256435</ele>
<time>2026-07-12T11:32:59.897Z</time>
</trkpt>
<trkpt lat="41.9857878" lon="2.811249299999986">
<ele>81.98640116261329</ele>
<time>2026-07-12T11:33:03.015Z</time>
</trkpt>
<trkpt lat="41.9857362" lon="2.811224699999997">
<ele>81.3272695893848</ele>
<time>2026-07-12T11:33:06.673Z</time>
</trkpt>
<trkpt lat="41.9856954" lon="2.811198399999995">
<ele>80.8035885753276</ele>
<time>2026-07-12T11:33:09.961Z</time>
</trkpt>
<trkpt lat="41.9856529" lon="2.811175300000002">
<ele>80.2144115181102</ele>
<time>2026-07-12T11:33:12.843Z</time>
</trkpt>
<trkpt lat="41.9856112" lon="2.811151599999988">
<ele>79.61177126154769</ele>
<time>2026-07-12T11:33:15.896Z</time>
</trkpt>
<trkpt lat="41.9855705" lon="2.811122299999994">
<ele>78.96198846738532</ele>
<time>2026-07-12T11:33:18.840Z</time>
</trkpt>
<trkpt lat="41.985526" lon="2.811085399999996">
<ele>78.06704056710255</ele>
<time>2026-07-12T11:33:21.964Z</time>
</trkpt>
<trkpt lat="41.9854845" lon="2.811057799999986">
<ele>77.62268181655546</ele>
<time>2026-07-12T11:33:25.338Z</time>
</trkpt>
<trkpt lat="41.9854409" lon="2.8110360999999955">
<ele>77.17744814760253</ele>
<time>2026-07-12T11:33:28.395Z</time>
</trkpt>
<trkpt lat="41.9853979" lon="2.8110149000000035">
<ele>76.70515369852784</ele>
<time>2026-07-12T11:33:32.090Z</time>
</trkpt>
<trkpt lat="41.9853507" lon="2.8109945999999866">
<ele>76.17981129092041</ele>
<time>2026-07-12T11:33:35.533Z</time>
</trkpt>
<trkpt lat="41.9853103" lon="2.810962499999988">
<ele>75.52633598110398</ele>
<time>2026-07-12T11:33:38.911Z</time>
</trkpt>
<trkpt lat="41.9852751" lon="2.810924699999987">
<ele>74.79341822508731</ele>
<time>2026-07-12T11:33:41.929Z</time>
</trkpt>
<trkpt lat="41.9852386" lon="2.810878400000007">
<ele>73.87392605896662</ele>
<time>2026-07-12T11:33:45.271Z</time>
</trkpt>
<trkpt lat="41.9851952" lon="2.8108574000000033">
<ele>73.22033375188498</ele>
<time>2026-07-12T11:33:48.897Z</time>
</trkpt>
<trkpt lat="41.9851548" lon="2.810821400000009">
<ele>72.65765308823453</ele>
<time>2026-07-12T11:33:52.474Z</time>
</trkpt>
<trkpt lat="41.9851278" lon="2.8107704999999896">
<ele>72.25697365801688</ele>
<time>2026-07-12T11:33:55.612Z</time>
</trkpt>
<trkpt lat="41.9850908" lon="2.8107353000000046">
<ele>71.87826202741095</ele>
<time>2026-07-12T11:33:58.897Z</time>
</trkpt>
<trkpt lat="41.9850511" lon="2.8107042999999976">
<ele>71.53395128933057</ele>
<time>2026-07-12T11:34:02.631Z</time>
</trkpt>
<trkpt lat="41.9850159" lon="2.810663699999992">
<ele>71.24140137720691</ele>
<time>2026-07-12T11:34:06.656Z</time>
</trkpt>
<trkpt lat="41.9849864" lon="2.8106175000000064">
<ele>71.01865906580726</ele>
<time>2026-07-12T11:34:10.656Z</time>
</trkpt>
<trkpt lat="41.9849532" lon="2.8105581000000086">
<ele>70.91807336931603</ele>
<time>2026-07-12T11:34:14.966Z</time>
</trkpt>
<trkpt lat="41.9849134" lon="2.810522600000013">
<ele>70.87690140034812</ele>
<time>2026-07-12T11:34:18.897Z</time>
</trkpt>
<trkpt lat="41.9848732" lon="2.810495099999997">
<ele>70.75742650472515</ele>
<time>2026-07-12T11:34:22.293Z</time>
</trkpt>
<trkpt lat="41.9848334" lon="2.81046409999999">
<ele>70.57568746261482</ele>
<time>2026-07-12T11:34:25.897Z</time>
</trkpt>
<trkpt lat="41.98479" lon="2.810436100000004">
<ele>70.31423272641524</ele>
<time>2026-07-12T11:34:29.531Z</time>
</trkpt>
<trkpt lat="41.9847511" lon="2.8104005000000143">
<ele>69.98853507126645</ele>
<time>2026-07-12T11:34:32.896Z</time>
</trkpt>
<trkpt lat="41.9847167" lon="2.810353399999997">
<ele>69.57083758181354</ele>
<time>2026-07-12T11:34:36.897Z</time>
</trkpt>
<trkpt lat="41.984688" lon="2.8103049999999996">
<ele>69.34837191057456</ele>
<time>2026-07-12T11:34:40.896Z</time>
</trkpt>
<trkpt lat="41.9846741" lon="2.8102408000000025">
<ele>69.33915788649236</ele>
<time>2026-07-12T11:34:44.335Z</time>
</trkpt>
<trkpt lat="41.9846525" lon="2.810184899999996">
<ele>69.39293081845277</ele>
<time>2026-07-12T11:34:47.896Z</time>
</trkpt>
<trkpt lat="41.984628" lon="2.810131299999995">
<ele>69.39938077781747</ele>
<time>2026-07-12T11:34:51.279Z</time>
</trkpt>
<trkpt lat="41.984595" lon="2.810083800000001">
<ele>69.38407685717691</ele>
<time>2026-07-12T11:34:54.238Z</time>
</trkpt>
<trkpt lat="41.9845578" lon="2.8100483000000054">
<ele>69.34776653429836</ele>
<time>2026-07-12T11:34:57.989Z</time>
</trkpt>
<trkpt lat="41.9845175" lon="2.8100206000000014">
<ele>69.28845001525637</ele>
<time>2026-07-12T11:35:01.419Z</time>
</trkpt>
<trkpt lat="41.9844728" lon="2.8099987999999883">
<ele>69.47075489035029</ele>
<time>2026-07-12T11:35:05.896Z</time>
</trkpt>
<trkpt lat="41.9844258" lon="2.8099704999999915">
<ele>69.815375445398</ele>
<time>2026-07-12T11:35:14.322Z</time>
</trkpt>
<trkpt lat="41.9843779" lon="2.809952199999998">
<ele>70.23894372341526</ele>
<time>2026-07-12T11:35:15.961Z</time>
</trkpt>
<trkpt lat="41.9843799" lon="2.809872399999989">
<ele>70.84219945087483</ele>
<time>2026-07-12T11:35:18.251Z</time>
</trkpt>
<trkpt lat="41.9843886" lon="2.8098123000000044">
<ele>71.3103145248627</ele>
<time>2026-07-12T11:35:19.254Z</time>
</trkpt>
<trkpt lat="41.9843707" lon="2.8097533000000112">
<ele>71.72927715914479</ele>
<time>2026-07-12T11:35:21.239Z</time>
</trkpt>
<trkpt lat="41.9843274" lon="2.8097342000000083">
<ele>71.68725439096868</ele>
<time>2026-07-12T11:35:24.615Z</time>
</trkpt>
<trkpt lat="41.9842799" lon="2.8097131000000104">
<ele>71.53409986320142</ele>
<time>2026-07-12T11:35:28.272Z</time>
</trkpt>
<trkpt lat="41.9842342" lon="2.809733599999987">
<ele>71.31976562750933</ele>
<time>2026-07-12T11:35:31.817Z</time>
</trkpt>
<trkpt lat="41.9841948" lon="2.809700200000009">
<ele>71.24633078576787</ele>
<time>2026-07-12T11:35:34.842Z</time>
</trkpt>
<trkpt lat="41.9841467" lon="2.809683199999995">
<ele>71.12132896828629</ele>
<time>2026-07-12T11:35:38.536Z</time>
</trkpt>
<trkpt lat="41.9840994" lon="2.8096596999999974">
<ele>71.21236586210388</ele>
<time>2026-07-12T11:35:42.250Z</time>
</trkpt>
<trkpt lat="41.9840634" lon="2.809620300000006">
<ele>71.29077733130389</ele>
<time>2026-07-12T11:35:45.017Z</time>
</trkpt>
<trkpt lat="41.9840201" lon="2.8096022999999946">
<ele>71.29679845043125</ele>
<time>2026-07-12T11:35:48.810Z</time>
</trkpt>
<trkpt lat="41.9839709" lon="2.809587599999986">
<ele>71.26983073457757</ele>
<time>2026-07-12T11:35:56.516Z</time>
</trkpt>
<trkpt lat="41.9839231" lon="2.8095611999999903">
<ele>71.20224255114626</ele>
<time>2026-07-12T11:36:00.601Z</time>
</trkpt>
<trkpt lat="41.9838788" lon="2.8095222000000035">
<ele>71.06657844912127</ele>
<time>2026-07-12T11:36:04.195Z</time>
</trkpt>
<trkpt lat="41.9838429" lon="2.809476899999993">
<ele>70.82102070509394</ele>
<time>2026-07-12T11:36:08.616Z</time>
</trkpt>
<trkpt lat="41.9838055" lon="2.809429899999998">
<ele>70.65908799567981</ele>
<time>2026-07-12T11:36:12.965Z</time>
</trkpt>
<trkpt lat="41.983779" lon="2.8093728999999996">
<ele>70.66132444035357</ele>
<time>2026-07-12T11:36:17.363Z</time>
</trkpt>
<trkpt lat="41.9837576" lon="2.809318999999988">
<ele>70.67021644333137</ele>
<time>2026-07-12T11:36:20.896Z</time>
</trkpt>
<trkpt lat="41.9837322" lon="2.809264899999988">
<ele>70.64409285766047</ele>
<time>2026-07-12T11:36:24.413Z</time>
</trkpt>
<trkpt lat="41.983704" lon="2.8092069999999865">
<ele>70.59443299483264</ele>
<time>2026-07-12T11:36:28.438Z</time>
</trkpt>
<trkpt lat="41.9836776" lon="2.809155599999997">
<ele>70.55280203401095</ele>
<time>2026-07-12T11:36:31.943Z</time>
</trkpt>
<trkpt lat="41.9836477" lon="2.8091048">
<ele>70.5944841226343</ele>
<time>2026-07-12T11:36:35.616Z</time>
</trkpt>
<trkpt lat="41.9836123" lon="2.8090502000000015">
<ele>70.7584362309386</ele>
<time>2026-07-12T11:36:39.716Z</time>
</trkpt>
<trkpt lat="41.9835759" lon="2.809013499999992">
<ele>70.98172721594793</ele>
<time>2026-07-12T11:36:43.231Z</time>
</trkpt>
<trkpt lat="41.9835334" lon="2.8089736000000016">
<ele>71.3569098944955</ele>
<time>2026-07-12T11:36:46.812Z</time>
</trkpt>
<trkpt lat="41.9834882" lon="2.8089617999999916">
<ele>71.56812455030644</ele>
<time>2026-07-12T11:36:49.975Z</time>
</trkpt>
<trkpt lat="41.9834393" lon="2.8089668000000074">
<ele>71.67774776053515</ele>
<time>2026-07-12T11:36:52.962Z</time>
</trkpt>
<trkpt lat="41.9833937" lon="2.808962600000001">
<ele>71.84235028507103</ele>
<time>2026-07-12T11:36:57.116Z</time>
</trkpt>
<trkpt lat="41.9833454" lon="2.8089583999999945">
<ele>72.01709663056789</ele>
<time>2026-07-12T11:37:02.237Z</time>
</trkpt>
<trkpt lat="41.9833022" lon="2.808934700000009">
<ele>72.30047261611823</ele>
<time>2026-07-12T11:37:05.637Z</time>
</trkpt>
<trkpt lat="41.9832599" lon="2.8089088000000118">
<ele>72.45217925018193</ele>
<time>2026-07-12T11:37:08.905Z</time>
</trkpt>
<trkpt lat="41.983213" lon="2.8089066000000003">
<ele>72.41466667754125</ele>
<time>2026-07-12T11:37:12.393Z</time>
</trkpt>
<trkpt lat="41.9831654" lon="2.808903299999997">
<ele>72.37965548902012</ele>
<time>2026-07-12T11:37:15.812Z</time>
</trkpt>
<trkpt lat="41.9831132" lon="2.808899700000012">
<ele>72.32246918908463</ele>
<time>2026-07-12T11:37:19.558Z</time>
</trkpt>
<trkpt lat="41.9830669" lon="2.8088974000000064">
<ele>72.25827251821445</ele>
<time>2026-07-12T11:37:22.898Z</time>
</trkpt>
<trkpt lat="41.9830195" lon="2.8088960000000043">
<ele>72.21575308134732</ele>
<time>2026-07-12T11:37:26.010Z</time>
</trkpt>
<trkpt lat="41.9829736" lon="2.808898400000004">
<ele>72.23985975583699</ele>
<time>2026-07-12T11:37:29.167Z</time>
</trkpt>
<trkpt lat="41.9829235" lon="2.8089009999999917">
<ele>72.2648299168585</ele>
<time>2026-07-12T11:37:32.792Z</time>
</trkpt>
<trkpt lat="41.9828783" lon="2.8089000999999882">
<ele>72.27704859939176</ele>
<time>2026-07-12T11:37:35.900Z</time>
</trkpt>
<trkpt lat="41.9828294" lon="2.808895100000001">
<ele>72.28036414634131</ele>
<time>2026-07-12T11:37:39.897Z</time>
</trkpt>
<trkpt lat="41.9827804" lon="2.8088903000000016">
<ele>72.28667673884013</ele>
<time>2026-07-12T11:37:43.415Z</time>
</trkpt>
<trkpt lat="41.9827302" lon="2.808888599999989">
<ele>72.26081652394214</ele>
<time>2026-07-12T11:37:46.897Z</time>
</trkpt>
<trkpt lat="41.9826811" lon="2.808887999999996">
<ele>72.19249733940225</ele>
<time>2026-07-12T11:37:50.257Z</time>
</trkpt>
<trkpt lat="41.9826316" lon="2.808887700000014">
<ele>72.12431684464813</ele>
<time>2026-07-12T11:37:53.695Z</time>
</trkpt>
<trkpt lat="41.982585" lon="2.808889800000003">
<ele>72.06488856598743</ele>
<time>2026-07-12T11:37:56.896Z</time>
</trkpt>
<trkpt lat="41.9825317" lon="2.808891299999999">
<ele>71.99489176203686</ele>
<time>2026-07-12T11:38:00.463Z</time>
</trkpt>
<trkpt lat="41.9824826" lon="2.808897800000011">
<ele>71.93974331809699</ele>
<time>2026-07-12T11:38:03.846Z</time>
</trkpt>
<trkpt lat="41.9824325" lon="2.808901999999989">
<ele>71.93936219796868</ele>
<time>2026-07-12T11:38:07.558Z</time>
</trkpt>
<trkpt lat="41.982385" lon="2.808901600000013">
<ele>71.94779810870045</ele>
<time>2026-07-12T11:38:10.907Z</time>
</trkpt>
<trkpt lat="41.9823333" lon="2.8089088000000118">
<ele>71.92318711814498</ele>
<time>2026-07-12T11:38:14.676Z</time>
</trkpt>
<trkpt lat="41.9822857" lon="2.8089093000000105">
<ele>71.9275199547589</ele>
<time>2026-07-12T11:38:18.152Z</time>
</trkpt>
<trkpt lat="41.9822352" lon="2.8089115999999876">
<ele>71.92419004715003</ele>
<time>2026-07-12T11:38:21.898Z</time>
</trkpt>
<trkpt lat="41.9821901" lon="2.8089133999999945">
<ele>71.91868371117052</ele>
<time>2026-07-12T11:38:24.980Z</time>
</trkpt>
<trkpt lat="41.9821434" lon="2.8089133000000004">
<ele>71.90271647203126</ele>
<time>2026-07-12T11:38:28.377Z</time>
</trkpt>
<trkpt lat="41.9820963" lon="2.8089141000000097">
<ele>71.88372520297668</ele>
<time>2026-07-12T11:38:31.896Z</time>
</trkpt>
<trkpt lat="41.9820474" lon="2.8089145000000144">
<ele>71.86615122483775</ele>
<time>2026-07-12T11:38:35.494Z</time>
</trkpt>
<trkpt lat="41.9819991" lon="2.8089131000000123">
<ele>71.85236325483086</ele>
<time>2026-07-12T11:38:38.896Z</time>
</trkpt>
<trkpt lat="41.981952" lon="2.808911800000004">
<ele>71.83701599849107</ele>
<time>2026-07-12T11:38:42.572Z</time>
</trkpt>
<trkpt lat="41.9819035" lon="2.80891059999999">
<ele>71.86599086745554</ele>
<time>2026-07-12T11:38:46.255Z</time>
</trkpt>
<trkpt lat="41.9818568" lon="2.8089093000000105">
<ele>71.98644636410489</ele>
<time>2026-07-12T11:38:49.659Z</time>
</trkpt>
<trkpt lat="41.9818061" lon="2.8089081999999905">
<ele>72.11750449554629</ele>
<time>2026-07-12T11:38:53.360Z</time>
</trkpt>
<trkpt lat="41.9817583" lon="2.8089094999999986">
<ele>72.23851295188875</ele>
<time>2026-07-12T11:38:56.741Z</time>
</trkpt>
<trkpt lat="41.9817131" lon="2.8089107000000126">
<ele>72.3524677554996</ele>
<time>2026-07-12T11:38:59.773Z</time>
</trkpt>
<trkpt lat="41.9816677" lon="2.8089119999999923">
<ele>72.46627376007957</ele>
<time>2026-07-12T11:39:02.897Z</time>
</trkpt>
<trkpt lat="41.9816147" lon="2.8089141000000097">
<ele>72.6136019888508</ele>
<time>2026-07-12T11:39:06.495Z</time>
</trkpt>
<trkpt lat="41.981569" lon="2.808915500000012">
<ele>72.75630576672148</ele>
<time>2026-07-12T11:39:09.514Z</time>
</trkpt>
<trkpt lat="41.9815236" lon="2.808920300000011">
<ele>72.897481023517</ele>
<time>2026-07-12T11:39:12.534Z</time>
</trkpt>
<trkpt lat="41.9814773" lon="2.8089254999999866">
<ele>73.04620073145087</ele>
<time>2026-07-12T11:39:15.573Z</time>
</trkpt>
<trkpt lat="41.9814318" lon="2.8089233999999976">
<ele>73.19440104186637</ele>
<time>2026-07-12T11:39:18.635Z</time>
</trkpt>
<trkpt lat="41.9813853" lon="2.8089251000000104">
<ele>73.34722586466732</ele>
<time>2026-07-12T11:39:21.896Z</time>
</trkpt>
<trkpt lat="41.9813328" lon="2.8089280000000088">
<ele>73.40471124400338</ele>
<time>2026-07-12T11:39:25.759Z</time>
</trkpt>
<trkpt lat="41.9812871" lon="2.808929500000005">
<ele>73.38237432291925</ele>
<time>2026-07-12T11:39:29.219Z</time>
</trkpt>
<trkpt lat="41.981238" lon="2.8089344999999923">
<ele>73.38419770350013</ele>
<time>2026-07-12T11:39:32.855Z</time>
</trkpt>
<trkpt lat="41.9811928" lon="2.8089405000000056">
<ele>73.41307281254484</ele>
<time>2026-07-12T11:39:36.416Z</time>
</trkpt>
<trkpt lat="41.9811421" lon="2.8089412999999865">
<ele>73.41338491168787</ele>
<time>2026-07-12T11:39:39.842Z</time>
</trkpt>
<trkpt lat="41.9810938" lon="2.8089442000000133">
<ele>73.44092596393584</ele>
<time>2026-07-12T11:39:43.090Z</time>
</trkpt>
<trkpt lat="41.9810477" lon="2.8089515000000063">
<ele>73.31686468092074</ele>
<time>2026-07-12T11:39:46.191Z</time>
</trkpt>
<trkpt lat="41.9810019" lon="2.8089516000000003">
<ele>73.05922844000835</ele>
<time>2026-07-12T11:39:49.136Z</time>
</trkpt>
<trkpt lat="41.9809502" lon="2.808952099999999">
<ele>72.77158762974358</ele>
<time>2026-07-12T11:39:52.157Z</time>
</trkpt>
<trkpt lat="41.9809031" lon="2.8089568999999983">
<ele>72.54255924557678</ele>
<time>2026-07-12T11:39:55.843Z</time>
</trkpt>
<trkpt lat="41.9808488" lon="2.8089596000000085">
<ele>72.24757450860682</ele>
<time>2026-07-12T11:39:59.157Z</time>
</trkpt>
<trkpt lat="41.9807976" lon="2.8089617999999916">
<ele>72.08035163084715</ele>
<time>2026-07-12T11:40:03.392Z</time>
</trkpt>
<trkpt lat="41.9807505" lon="2.808975199999992">
<ele>72.4824071900832</ele>
<time>2026-07-12T11:40:06.434Z</time>
</trkpt>
<trkpt lat="41.9806963" lon="2.808975800000013">
<ele>72.86130215417961</ele>
<time>2026-07-12T11:40:10.601Z</time>
</trkpt>
<trkpt lat="41.9806507" lon="2.8089803000000018">
<ele>73.19038208892803</ele>
<time>2026-07-12T11:40:13.791Z</time>
</trkpt>
<trkpt lat="41.980605" lon="2.8089808999999946">
<ele>73.50479523949393</ele>
<time>2026-07-12T11:40:17.458Z</time>
</trkpt>
<trkpt lat="41.9805588" lon="2.8089846000000023">
<ele>73.82497325423651</ele>
<time>2026-07-12T11:40:20.850Z</time>
</trkpt>
<trkpt lat="41.9805112" lon="2.808987099999996">
<ele>74.03136266304328</ele>
<time>2026-07-12T11:40:24.476Z</time>
</trkpt>
<trkpt lat="41.9804594" lon="2.8089913000000024">
<ele>74.03347943661646</ele>
<time>2026-07-12T11:40:28.553Z</time>
</trkpt>
<trkpt lat="41.9804098" lon="2.80899389999999">
<ele>74.0348772520511</ele>
<time>2026-07-12T11:40:32.556Z</time>
</trkpt>
<trkpt lat="41.9803635" lon="2.8089929999999868">
<ele>74.0343003744107</ele>
<time>2026-07-12T11:40:35.997Z</time>
</trkpt>
<trkpt lat="41.9803121" lon="2.8089927999999986">
<ele>74.03411163168133</ele>
<time>2026-07-12T11:40:39.592Z</time>
</trkpt>
<trkpt lat="41.9802669" lon="2.808992399999994">
<ele>74.0337934917004</ele>
<time>2026-07-12T11:40:42.618Z</time>
</trkpt>
<trkpt lat="41.9802203" lon="2.8089822000000026">
<ele>74.00584358320987</ele>
<time>2026-07-12T11:40:45.896Z</time>
</trkpt>
<trkpt lat="41.9801697" lon="2.8089674000000002">
<ele>73.93910315660955</ele>
<time>2026-07-12T11:40:49.721Z</time>
</trkpt>
<trkpt lat="41.9801283" lon="2.808929699999993">
<ele>73.79234462484406</ele>
<time>2026-07-12T11:40:52.752Z</time>
</trkpt>
<trkpt lat="41.9800869" lon="2.808898699999986">
<ele>73.61742346441761</ele>
<time>2026-07-12T11:40:56.194Z</time>
</trkpt>
<trkpt lat="41.9800368" lon="2.808885800000013">
<ele>73.50107187682337</ele>
<time>2026-07-12T11:40:59.878Z</time>
</trkpt>
<trkpt lat="41.9799931" lon="2.808864900000003">
<ele>73.42752502984438</ele>
<time>2026-07-12T11:41:03.391Z</time>
</trkpt>
<trkpt lat="41.9799454" lon="2.8088399000000095">
<ele>73.76176229391257</ele>
<time>2026-07-12T11:41:06.897Z</time>
</trkpt>
<trkpt lat="41.9799112" lon="2.808797800000008">
<ele>74.18922832801154</ele>
<time>2026-07-12T11:41:09.987Z</time>
</trkpt>
<trkpt lat="41.9798673" lon="2.808756499999987">
<ele>74.68455792423357</ele>
<time>2026-07-12T11:41:11.909Z</time>
</trkpt>
<trkpt lat="41.9798236" lon="2.808736600000003">
<ele>75.15597363290495</ele>
<time>2026-07-12T11:41:13.897Z</time>
</trkpt>
<trkpt lat="41.9797786" lon="2.8087254000000144">
<ele>75.63467652103796</ele>
<time>2026-07-12T11:41:16.135Z</time>
</trkpt>
<trkpt lat="41.9797301" lon="2.808708800000005">
<ele>76.11939448286186</ele>
<time>2026-07-12T11:41:19.499Z</time>
</trkpt>
<trkpt lat="41.9796838" lon="2.808683699999989">
<ele>76.43011260373902</ele>
<time>2026-07-12T11:41:22.987Z</time>
</trkpt>
<trkpt lat="41.9796473" lon="2.8086477999999886">
<ele>76.29921134165268</ele>
<time>2026-07-12T11:41:25.879Z</time>
</trkpt>
<trkpt lat="41.9796159" lon="2.80860229999999">
<ele>75.97345427652195</ele>
<time>2026-07-12T11:41:28.631Z</time>
</trkpt>
<trkpt lat="41.9795948" lon="2.808548099999996">
<ele>75.4561620569044</ele>
<time>2026-07-12T11:41:31.692Z</time>
</trkpt>
<trkpt lat="41.9795666" lon="2.8084987000000012">
<ele>74.9659194972147</ele>
<time>2026-07-12T11:41:34.841Z</time>
</trkpt>
<trkpt lat="41.9795381" lon="2.8084441000000027">
<ele>74.41204847264851</ele>
<time>2026-07-12T11:41:38.500Z</time>
</trkpt>
<trkpt lat="41.979511" lon="2.808392700000013">
<ele>73.87664852493661</ele>
<time>2026-07-12T11:41:41.979Z</time>
</trkpt>
<trkpt lat="41.9794837" lon="2.808337399999999">
<ele>73.32875816498648</ele>
<time>2026-07-12T11:41:50.918Z</time>
</trkpt>
<trkpt lat="41.9794545" lon="2.808288800000014">
<ele>73.06966273824007</ele>
<time>2026-07-12T11:41:54.295Z</time>
</trkpt>
<trkpt lat="41.9794171" lon="2.808244699999989">
<ele>72.84965600115194</ele>
<time>2026-07-12T11:41:57.842Z</time>
</trkpt>
<trkpt lat="41.9793753" lon="2.8082134999999937">
<ele>73.65809537634689</ele>
<time>2026-07-12T11:42:01.095Z</time>
</trkpt>
<trkpt lat="41.9793309" lon="2.808189800000008">
<ele>74.44618413938619</ele>
<time>2026-07-12T11:42:04.596Z</time>
</trkpt>
<trkpt lat="41.9792797" lon="2.808183200000002">
<ele>75.45115649880726</ele>
<time>2026-07-12T11:42:08.472Z</time>
</trkpt>
<trkpt lat="41.9792332" lon="2.808191700000009">
<ele>76.56360790161618</ele>
<time>2026-07-12T11:42:12.074Z</time>
</trkpt>
<trkpt lat="41.9791846" lon="2.808214200000009">
<ele>78.05620716434427</ele>
<time>2026-07-12T11:42:15.872Z</time>
</trkpt>
<trkpt lat="41.9791436" lon="2.8082397999999955">
<ele>79.58376880850366</ele>
<time>2026-07-12T11:42:19.090Z</time>
</trkpt>
<trkpt lat="41.9790986" lon="2.8082623999999896">
<ele>80.58167591897748</ele>
<time>2026-07-12T11:42:22.678Z</time>
</trkpt>
<trkpt lat="41.9790539" lon="2.8082722000000047">
<ele>81.22068062679888</ele>
<time>2026-07-12T11:42:25.899Z</time>
</trkpt>
<trkpt lat="41.9790012" lon="2.8082741000000055">
<ele>81.74148263798084</ele>
<time>2026-07-12T11:42:30.836Z</time>
</trkpt>
<trkpt lat="41.9789526" lon="2.808273200000002">
<ele>82.14599402117769</ele>
<time>2026-07-12T11:42:34.896Z</time>
</trkpt>
<trkpt lat="41.978913" lon="2.808238700000004">
<ele>81.34392204065193</ele>
<time>2026-07-12T11:42:38.479Z</time>
</trkpt>
<trkpt lat="41.9788797" lon="2.8081932999999992">
<ele>80.00030800644237</ele>
<time>2026-07-12T11:42:41.593Z</time>
</trkpt>
<trkpt lat="41.9788473" lon="2.808146999999991">
<ele>78.40205987171245</ele>
<time>2026-07-12T11:42:44.698Z</time>
</trkpt>
<trkpt lat="41.9788131" lon="2.8081056000000046">
<ele>76.97874992035085</ele>
<time>2026-07-12T11:42:47.813Z</time>
</trkpt>
<trkpt lat="41.9787755" lon="2.8080574999999897">
<ele>75.904697462371</ele>
<time>2026-07-12T11:42:51.614Z</time>
</trkpt>
<trkpt lat="41.978746" lon="2.808011399999998">
<ele>75.96418817882346</ele>
<time>2026-07-12T11:42:54.896Z</time>
</trkpt>
<trkpt lat="41.978711" lon="2.8079554999999914">
<ele>75.954956131795</ele>
<time>2026-07-12T11:42:58.211Z</time>
</trkpt>
<trkpt lat="41.9786802" lon="2.8079032999999924">
<ele>75.86784675322538</ele>
<time>2026-07-12T11:43:02.257Z</time>
</trkpt>
<trkpt lat="41.978657" lon="2.8078491999999926">
<ele>75.70918438531405</ele>
<time>2026-07-12T11:43:05.896Z</time>
</trkpt>
<trkpt lat="41.9786336" lon="2.8077949999999987">
<ele>75.49466325220655</ele>
<time>2026-07-12T11:43:09.453Z</time>
</trkpt>
<trkpt lat="41.9786092" lon="2.8077375000000018">
<ele>75.44971475609232</ele>
<time>2026-07-12T11:43:13.157Z</time>
</trkpt>
<trkpt lat="41.9785927" lon="2.807680299999987">
<ele>75.52526250167345</ele>
<time>2026-07-12T11:43:16.253Z</time>
</trkpt>
<trkpt lat="41.9785767" lon="2.807622500000008">
<ele>75.67598594791507</ele>
<time>2026-07-12T11:43:19.870Z</time>
</trkpt>
<trkpt lat="41.978558" lon="2.8075667999999894">
<ele>75.86119976186893</ele>
<time>2026-07-12T11:43:23.778Z</time>
</trkpt>
<trkpt lat="41.9785355" lon="2.8075063">
<ele>76.11786545127458</ele>
<time>2026-07-12T11:43:27.538Z</time>
</trkpt>
<trkpt lat="41.978516" lon="2.80745060000001">
<ele>76.6329282241718</ele>
<time>2026-07-12T11:43:30.972Z</time>
</trkpt>
<trkpt lat="41.9784971" lon="2.807393100000013">
<ele>77.14874921934506</ele>
<time>2026-07-12T11:43:34.111Z</time>
</trkpt>
<trkpt lat="41.9784769" lon="2.807329299999992">
<ele>77.70630460083831</ele>
<time>2026-07-12T11:43:37.850Z</time>
</trkpt>
<trkpt lat="41.978458" lon="2.8072745000000054">
<ele>78.18208583836442</ele>
<time>2026-07-12T11:43:40.996Z</time>
</trkpt>
<trkpt lat="41.9784351" lon="2.807213499999989">
<ele>78.54933921348858</ele>
<time>2026-07-12T11:43:44.617Z</time>
</trkpt>
<trkpt lat="41.9784078" lon="2.8071582999999976">
<ele>78.56510846588132</ele>
<time>2026-07-12T11:43:48.256Z</time>
</trkpt>
<trkpt lat="41.9783705" lon="2.807123499999989">
<ele>78.6230774848841</ele>
<time>2026-07-12T11:43:51.657Z</time>
</trkpt>
<trkpt lat="41.9783274" lon="2.807099899999997">
<ele>78.70096779332148</ele>
<time>2026-07-12T11:43:55.317Z</time>
</trkpt>
<trkpt lat="41.9782824" lon="2.8070816000000036">
<ele>78.61116030294612</ele>
<time>2026-07-12T11:43:58.694Z</time>
</trkpt>
<trkpt lat="41.9782289" lon="2.807078600000011">
<ele>78.30751531080584</ele>
<time>2026-07-12T11:44:03.674Z</time>
</trkpt>
<trkpt lat="41.9781879" lon="2.807105199999995">
<ele>78.15223677710843</ele>
<time>2026-07-12T11:44:06.397Z</time>
</trkpt>
<trkpt lat="41.9781457" lon="2.8071286999999927">
<ele>77.98896729732232</ele>
<time>2026-07-12T11:44:10.901Z</time>
</trkpt>
<trkpt lat="41.9780989" lon="2.807124899999991">
<ele>77.72602649820837</ele>
<time>2026-07-12T11:44:14.515Z</time>
</trkpt>
<trkpt lat="41.9780428" lon="2.807129500000002">
<ele>77.43845397991565</ele>
<time>2026-07-12T11:44:18.574Z</time>
</trkpt>
<trkpt lat="41.9779928" lon="2.8071319000000017">
<ele>78.1200459378937</ele>
<time>2026-07-12T11:44:23.576Z</time>
</trkpt>
<trkpt lat="41.9779441" lon="2.807115799999991">
<ele>79.17393792766472</ele>
<time>2026-07-12T11:44:27.596Z</time>
</trkpt>
<trkpt lat="41.9779066" lon="2.807081100000005">
<ele>79.75361956299625</ele>
<time>2026-07-12T11:44:30.955Z</time>
</trkpt>
<trkpt lat="41.9778748" lon="2.8070267999999885">
<ele>79.91621645470083</ele>
<time>2026-07-12T11:44:34.631Z</time>
</trkpt>
<trkpt lat="41.9778462" lon="2.8069797999999935">
<ele>79.95576422802995</ele>
<time>2026-07-12T11:44:37.691Z</time>
</trkpt>
<trkpt lat="41.9778204" lon="2.8069187000000113">
<ele>80.09157639642953</ele>
<time>2026-07-12T11:44:41.737Z</time>
</trkpt>
<trkpt lat="41.9777984" lon="2.806857100000002">
<ele>80.42012444057859</ele>
<time>2026-07-12T11:44:44.734Z</time>
</trkpt>
<trkpt lat="41.9777869" lon="2.8067978999999923">
<ele>80.56707884301788</ele>
<time>2026-07-12T11:44:47.817Z</time>
</trkpt>
<trkpt lat="41.9777552" lon="2.8067430000000115">
<ele>80.97790812628051</ele>
<time>2026-07-12T11:44:50.894Z</time>
</trkpt>
<trkpt lat="41.9777256" lon="2.806695700000006">
<ele>81.13918024690443</ele>
<time>2026-07-12T11:44:53.896Z</time>
</trkpt>
<trkpt lat="41.9776931" lon="2.806640299999998">
<ele>81.49127390317364</ele>
<time>2026-07-12T11:44:57.842Z</time>
</trkpt>
<trkpt lat="41.9776643" lon="2.806593200000009">
<ele>81.93510842462364</ele>
<time>2026-07-12T11:45:01.896Z</time>
</trkpt>
<trkpt lat="41.9776333" lon="2.8065393999999912">
<ele>82.43027410796336</ele>
<time>2026-07-12T11:45:05.394Z</time>
</trkpt>
<trkpt lat="41.9776038" lon="2.8064917000000094">
<ele>82.87227412356361</ele>
<time>2026-07-12T11:45:08.517Z</time>
</trkpt>
<trkpt lat="41.9775721" lon="2.8064463999999987">
<ele>83.30095277019251</ele>
<time>2026-07-12T11:45:10.888Z</time>
</trkpt>
<trkpt lat="41.977542" lon="2.8063994000000037">
<ele>83.73169307528181</ele>
<time>2026-07-12T11:45:14.737Z</time>
</trkpt>
<trkpt lat="41.9775034" lon="2.806357999999989">
<ele>83.44184035730059</ele>
<time>2026-07-12T11:45:18.846Z</time>
</trkpt>
<trkpt lat="41.9774777" lon="2.8063002000000097">
<ele>82.77835822283583</ele>
<time>2026-07-12T11:45:22.897Z</time>
</trkpt>
<trkpt lat="41.9774443" lon="2.806251599999996">
<ele>82.38736663043265</ele>
<time>2026-07-12T11:45:26.916Z</time>
</trkpt>
<trkpt lat="41.9774091" lon="2.8062084000000027">
<ele>82.26792364023252</ele>
<time>2026-07-12T11:45:31.199Z</time>
</trkpt>
<trkpt lat="41.9773783" lon="2.8061567999999966">
<ele>82.11905965128697</ele>
<time>2026-07-12T11:45:35.613Z</time>
</trkpt>
<trkpt lat="41.977368" lon="2.806086499999992">
<ele>82.01811648351237</ele>
<time>2026-07-12T11:45:37.294Z</time>
</trkpt>
<trkpt lat="41.9773526" lon="2.806027300000011">
<ele>82.38893624098114</ele>
<time>2026-07-12T11:45:40.357Z</time>
</trkpt>
<trkpt lat="41.9773428" lon="2.8059670000000096">
<ele>82.66013078994246</ele>
<time>2026-07-12T11:45:43.751Z</time>
</trkpt>
<trkpt lat="41.9773422" lon="2.8059021999999914">
<ele>82.83241876230099</ele>
<time>2026-07-12T11:45:47.794Z</time>
</trkpt>
<trkpt lat="41.9773308" lon="2.805840200000006">
<ele>83.0666037940276</ele>
<time>2026-07-12T11:45:50.474Z</time>
</trkpt>
<trkpt lat="41.9773172" lon="2.805772999999988">
<ele>82.93435151462417</ele>
<time>2026-07-12T11:45:54.608Z</time>
</trkpt>
<trkpt lat="41.9773001" lon="2.8057138000000066">
<ele>82.89719209910271</ele>
<time>2026-07-12T11:45:57.711Z</time>
</trkpt>
<trkpt lat="41.9772855" lon="2.8056464999999946">
<ele>82.84905589271297</ele>
<time>2026-07-12T11:46:01.512Z</time>
</trkpt>
<trkpt lat="41.9772682" lon="2.8055873000000133">
<ele>82.89266861553064</ele>
<time>2026-07-12T11:46:04.910Z</time>
</trkpt>
<trkpt lat="41.9772511" lon="2.8055219000000022">
<ele>83.01861739126224</ele>
<time>2026-07-12T11:46:08.856Z</time>
</trkpt>
<trkpt lat="41.9772298" lon="2.805467599999986">
<ele>83.21413013372744</ele>
<time>2026-07-12T11:46:12.276Z</time>
</trkpt>
<trkpt lat="41.9772132" lon="2.805402600000008">
<ele>83.30839080103519</ele>
<time>2026-07-12T11:46:16.842Z</time>
</trkpt>
<trkpt lat="41.9772133" lon="2.805334600000009">
<ele>83.21362035762851</ele>
<time>2026-07-12T11:46:20.795Z</time>
</trkpt>
<trkpt lat="41.9772093" lon="2.8052648000000033">
<ele>83.30177160898788</ele>
<time>2026-07-12T11:46:24.655Z</time>
</trkpt>
<trkpt lat="41.9771984" lon="2.805204400000008">
<ele>83.80048109973113</ele>
<time>2026-07-12T11:46:27.913Z</time>
</trkpt>
<trkpt lat="41.9771876" lon="2.805140999999992">
<ele>84.32387119091699</ele>
<time>2026-07-12T11:46:32.256Z</time>
</trkpt>
<trkpt lat="41.9771769" lon="2.8050805999999966">
<ele>84.6483362054787</ele>
<time>2026-07-12T11:46:37.842Z</time>
</trkpt>
<trkpt lat="41.9771691" lon="2.8050177000000076">
<ele>84.94655027906047</ele>
<time>2026-07-12T11:46:49.841Z</time>
</trkpt>
<trkpt lat="41.9771745" lon="2.804953100000006">
<ele>84.14169868266097</ele>
<time>2026-07-12T11:47:02.842Z</time>
</trkpt>
<trkpt lat="41.9771744" lon="2.8048880000000054">
<ele>83.01153665324061</ele>
<time>2026-07-12T11:47:08.317Z</time>
</trkpt>
<trkpt lat="41.9771857" lon="2.804816499999987">
<ele>81.79784989754243</ele>
<time>2026-07-12T11:47:13.841Z</time>
</trkpt>
<trkpt lat="41.9771898" lon="2.8047539000000086">
<ele>80.670143628397</ele>
<time>2026-07-12T11:47:19.256Z</time>
</trkpt>
<trkpt lat="41.9772035" lon="2.8046935000000133">
<ele>80.84576552484603</ele>
<time>2026-07-12T11:47:24.841Z</time>
</trkpt>
<trkpt lat="41.9772154" lon="2.80463069999999">
<ele>81.93082821222914</ele>
<time>2026-07-12T11:47:28.474Z</time>
</trkpt>
<trkpt lat="41.9772259" lon="2.8045719000000133">
<ele>82.89881166798247</ele>
<time>2026-07-12T11:47:34.642Z</time>
</trkpt>
<trkpt lat="41.9772547" lon="2.8045114999999896">
<ele>83.68983151064549</ele>
<time>2026-07-12T11:47:49.987Z</time>
</trkpt>
<trkpt lat="41.9772627" lon="2.804451400000005">
<ele>84.56867108179372</ele>
<time>2026-07-12T11:47:57.896Z</time>
</trkpt>
<trkpt lat="41.9772463" lon="2.8043936999999914">
<ele>84.42099995369287</ele>
<time>2026-07-12T11:48:15.841Z</time>
</trkpt>
<trkpt lat="41.9772664" lon="2.8043379000000073">
<ele>83.93861624950216</ele>
<time>2026-07-12T11:49:31.863Z</time>
</trkpt>
<trkpt lat="41.9772796" lon="2.804277899999988">
<ele>83.54299881043467</ele>
<time>2026-07-12T11:50:32.876Z</time>
</trkpt>
<trkpt lat="41.977266" lon="2.804349699999989">
<ele>84.00477272653451</ele>
<time>2026-07-12T11:50:46.899Z</time>
</trkpt>
<trkpt lat="41.9772597" lon="2.804411299999998">
<ele>84.39559896226855</ele>
<time>2026-07-12T11:50:49.840Z</time>
</trkpt>
<trkpt lat="41.977262" lon="2.804482699999994">
<ele>84.08211436589916</ele>
<time>2026-07-12T11:51:07.841Z</time>
</trkpt>
<trkpt lat="41.9772453" lon="2.8045390000000054">
<ele>83.31840879909811</ele>
<time>2026-07-12T11:51:31.840Z</time>
</trkpt>
<trkpt lat="41.9772388" lon="2.8044695000000104">
<ele>84.52620495702793</ele>
<time>2026-07-12T11:51:53.002Z</time>
</trkpt>
<trkpt lat="41.9772054" lon="2.8043877000000066">
<ele>84.75318246007697</ele>
<time>2026-07-12T11:51:54.841Z</time>
</trkpt>
<trkpt lat="41.9772494" lon="2.804363099999989">
<ele>84.21352896663304</ele>
<time>2026-07-12T11:52:08.840Z</time>
</trkpt>
<trkpt lat="41.9772744" lon="2.804302699999994">
<ele>83.69910524462557</ele>
<time>2026-07-12T11:52:16.841Z</time>
</trkpt>
<trkpt lat="41.9772678" lon="2.8042374999999993">
<ele>83.39617415611758</ele>
<time>2026-07-12T11:52:23.840Z</time>
</trkpt>
<trkpt lat="41.9773005" lon="2.804188399999987">
<ele>83.03761164305881</ele>
<time>2026-07-12T11:52:58.848Z</time>
</trkpt>
<trkpt lat="41.977312" lon="2.804275700000005">
<ele>83.34967953266238</ele>
<time>2026-07-12T11:53:04.840Z</time>
</trkpt>
<trkpt lat="41.9772981" lon="2.8043552000000034">
<ele>83.77683411602105</ele>
<time>2026-07-12T11:53:10.847Z</time>
</trkpt>
<trkpt lat="41.9772697" lon="2.804307499999993">
<ele>83.75453864884918</ele>
<time>2026-07-12T11:53:23.654Z</time>
</trkpt>
<trkpt lat="41.9772739" lon="2.8042470000000037">
<ele>83.41741528043202</ele>
<time>2026-07-12T11:53:25.863Z</time>
</trkpt>
<trkpt lat="41.9772563" lon="2.804191000000003">
<ele>83.1853153553171</ele>
<time>2026-07-12T11:53:29.975Z</time>
</trkpt>
<trkpt lat="41.9772386" lon="2.804132100000004">
<ele>82.88311152901744</ele>
<time>2026-07-12T11:53:34.354Z</time>
</trkpt>
<trkpt lat="41.9772486" lon="2.804066699999993">
<ele>82.47177063598316</ele>
<time>2026-07-12T11:53:38.675Z</time>
</trkpt>
<trkpt lat="41.977264" lon="2.80400130000001">
<ele>82.06094043425688</ele>
<time>2026-07-12T11:53:43.896Z</time>
</trkpt>
<trkpt lat="41.9772568" lon="2.8039402999999936">
<ele>81.71206552179319</ele>
<time>2026-07-12T11:53:48.416Z</time>
</trkpt>
<trkpt lat="41.9772426" lon="2.8038732999999922">
<ele>81.59342370030168</ele>
<time>2026-07-12T11:53:52.794Z</time>
</trkpt>
<trkpt lat="41.9772336" lon="2.8038138999999944">
<ele>82.03411354581112</ele>
<time>2026-07-12T11:53:58.537Z</time>
</trkpt>
<trkpt lat="41.9772338" lon="2.803748100000007">
<ele>82.503407439409</ele>
<time>2026-07-12T11:54:05.654Z</time>
</trkpt>
<trkpt lat="41.9772354" lon="2.803682699999996">
<ele>82.95376323414608</ele>
<time>2026-07-12T11:54:10.896Z</time>
</trkpt>
<trkpt lat="41.977248" lon="2.8036117999999988">
<ele>83.28125940817709</ele>
<time>2026-07-12T11:54:14.599Z</time>
</trkpt>
<trkpt lat="41.9772502" lon="2.803550699999988">
<ele>83.66447072039244</ele>
<time>2026-07-12T11:54:18.840Z</time>
</trkpt>
<trkpt lat="41.9772524" lon="2.8034839000000034">
<ele>84.07999793882836</ele>
<time>2026-07-12T11:54:22.793Z</time>
</trkpt>
<trkpt lat="41.9772527" lon="2.8034213999999906">
<ele>84.49458606490703</ele>
<time>2026-07-12T11:54:26.897Z</time>
</trkpt>
<trkpt lat="41.9772621" lon="2.8033535000000143">
<ele>84.76654428602569</ele>
<time>2026-07-12T11:54:31.490Z</time>
</trkpt>
<trkpt lat="41.9772697" lon="2.8032876000000044">
<ele>84.60906190620895</ele>
<time>2026-07-12T11:54:34.991Z</time>
</trkpt>
<trkpt lat="41.9772789" lon="2.8032234000000074">
<ele>84.29937364705803</ele>
<time>2026-07-12T11:54:38.908Z</time>
</trkpt>
<trkpt lat="41.9772836" lon="2.8031628999999896">
<ele>84.09025885205219</ele>
<time>2026-07-12T11:54:42.840Z</time>
</trkpt>
<trkpt lat="41.9772894" lon="2.803101499999997">
<ele>83.86542548746927</ele>
<time>2026-07-12T11:54:45.841Z</time>
</trkpt>
<trkpt lat="41.9772947" lon="2.8030409000000134">
<ele>83.7796001121028</ele>
<time>2026-07-12T11:54:50.097Z</time>
</trkpt>
<trkpt lat="41.9773048" lon="2.802979899999997">
<ele>83.88170143332744</ele>
<time>2026-07-12T11:54:54.375Z</time>
</trkpt>
<trkpt lat="41.9773131" lon="2.8029070999999988">
<ele>84.06488364789152</ele>
<time>2026-07-12T11:54:58.675Z</time>
</trkpt>
<trkpt lat="41.9773253" lon="2.8028380000000084">
<ele>84.15743300593994</ele>
<time>2026-07-12T11:55:02.679Z</time>
</trkpt>
<trkpt lat="41.977342" lon="2.802776300000005">
<ele>84.05130908956936</ele>
<time>2026-07-12T11:55:06.297Z</time>
</trkpt>
<trkpt lat="41.9773579" lon="2.8027150000000063">
<ele>83.22718192814064</ele>
<time>2026-07-12T11:55:09.897Z</time>
</trkpt>
<trkpt lat="41.9773725" lon="2.802653300000003">
<ele>82.58454298594819</ele>
<time>2026-07-12T11:55:13.815Z</time>
</trkpt>
<trkpt lat="41.9773899" lon="2.802597100000014">
<ele>82.13452364620466</ele>
<time>2026-07-12T11:55:17.732Z</time>
</trkpt>
<trkpt lat="41.9774045" lon="2.802535000000006">
<ele>81.8235361909014</ele>
<time>2026-07-12T11:55:21.317Z</time>
</trkpt>
<trkpt lat="41.9774192" lon="2.8024713000000077">
<ele>82.06645896359089</ele>
<time>2026-07-12T11:55:25.578Z</time>
</trkpt>
<trkpt lat="41.9774167" lon="2.8024024000000054">
<ele>82.6858596574675</ele>
<time>2026-07-12T11:55:30.538Z</time>
</trkpt>
<trkpt lat="41.977418" lon="2.802330799999993">
<ele>83.33090418277125</ele>
<time>2026-07-12T11:55:34.733Z</time>
</trkpt>
<trkpt lat="41.9774222" lon="2.8022650999999996">
<ele>83.8701971012721</ele>
<time>2026-07-12T11:55:38.216Z</time>
</trkpt>
<trkpt lat="41.9774333" lon="2.8021989000000076">
<ele>84.36793165488426</ele>
<time>2026-07-12T11:55:41.984Z</time>
</trkpt>
<trkpt lat="41.9774471" lon="2.8021380000000136">
<ele>85.01833998982211</ele>
<time>2026-07-12T11:55:45.841Z</time>
</trkpt>
<trkpt lat="41.9774512" lon="2.8020721000000037">
<ele>85.91926187577899</ele>
<time>2026-07-12T11:55:49.602Z</time>
</trkpt>
<trkpt lat="41.9774635" lon="2.80199429999999">
<ele>87.07780060723296</ele>
<time>2026-07-12T11:55:53.651Z</time>
</trkpt>
<trkpt lat="41.9774708" lon="2.8019318999999996">
<ele>87.64690408828577</ele>
<time>2026-07-12T11:55:57.834Z</time>
</trkpt>
<trkpt lat="41.9774847" lon="2.801873999999998">
<ele>86.73954148248656</ele>
<time>2026-07-12T11:56:00.897Z</time>
</trkpt>
<trkpt lat="41.9774859" lon="2.8018116000000077">
<ele>86.25840697153771</ele>
<time>2026-07-12T11:56:04.459Z</time>
</trkpt>
<trkpt lat="41.9774926" lon="2.801746900000012">
<ele>85.63111605028551</ele>
<time>2026-07-12T11:56:07.896Z</time>
</trkpt>
<trkpt lat="41.9775023" lon="2.80168359999999">
<ele>84.99614213877052</ele>
<time>2026-07-12T11:56:11.321Z</time>
</trkpt>
<trkpt lat="41.9775094" lon="2.8016172000000097">
<ele>83.84289760174653</ele>
<time>2026-07-12T11:56:14.614Z</time>
</trkpt>
<trkpt lat="41.9775005" lon="2.801549300000005">
<ele>82.77321410620446</ele>
<time>2026-07-12T11:56:18.596Z</time>
</trkpt>
<trkpt lat="41.977506" lon="2.80147980000001">
<ele>81.45219993916407</ele>
<time>2026-07-12T11:56:22.736Z</time>
</trkpt>
<trkpt lat="41.9775265" lon="2.801423900000003">
<ele>80.28674345994379</ele>
<time>2026-07-12T11:56:25.836Z</time>
</trkpt>
<trkpt lat="41.9775394" lon="2.801365599999997">
<ele>79.65186491022013</ele>
<time>2026-07-12T11:56:29.272Z</time>
</trkpt>
<trkpt lat="41.9775499" lon="2.80130299999999">
<ele>79.6022975856013</ele>
<time>2026-07-12T11:56:32.903Z</time>
</trkpt>
<trkpt lat="41.9775573" lon="2.801236799999998">
<ele>79.5814691566033</ele>
<time>2026-07-12T11:56:36.629Z</time>
</trkpt>
<trkpt lat="41.977567" lon="2.8011700000000133">
<ele>79.55912733914042</ele>
<time>2026-07-12T11:56:40.294Z</time>
</trkpt>
<trkpt lat="41.9775737" lon="2.801107000000002">
<ele>79.51657589341987</ele>
<time>2026-07-12T11:56:44.434Z</time>
</trkpt>
<trkpt lat="41.9775788" lon="2.8010446000000115">
<ele>79.0647217597468</ele>
<time>2026-07-12T11:56:47.897Z</time>
</trkpt>
<trkpt lat="41.9775907" lon="2.800978200000003">
<ele>78.55513871074692</ele>
<time>2026-07-12T11:56:51.953Z</time>
</trkpt>
<trkpt lat="41.9775964" lon="2.800913400000013">
<ele>78.08098776153192</ele>
<time>2026-07-12T11:56:55.984Z</time>
</trkpt>
<trkpt lat="41.9776069" lon="2.800851399999999">
<ele>77.60352022268005</ele>
<time>2026-07-12T11:56:59.896Z</time>
</trkpt>
<trkpt lat="41.9776134" lon="2.8007882999999936">
<ele>77.68128129696382</ele>
<time>2026-07-12T11:57:03.359Z</time>
</trkpt>
<trkpt lat="41.9776161" lon="2.8007200000000125">
<ele>78.00624081836726</ele>
<time>2026-07-12T11:57:07.595Z</time>
</trkpt>
<trkpt lat="41.9776211" lon="2.800655699999993">
<ele>78.31316757366682</ele>
<time>2026-07-12T11:57:10.987Z</time>
</trkpt>
<trkpt lat="41.9776264" lon="2.8005872999999895">
<ele>78.65065320463587</ele>
<time>2026-07-12T11:57:14.911Z</time>
</trkpt>
<trkpt lat="41.9776371" lon="2.8005261000000132">
<ele>79.09759878400138</ele>
<time>2026-07-12T11:57:18.841Z</time>
</trkpt>
<trkpt lat="41.9776506" lon="2.800457499999993">
<ele>79.7560922483935</ele>
<time>2026-07-12T11:57:22.616Z</time>
</trkpt>
<trkpt lat="41.9776687" lon="2.80039450000001">
<ele>80.35682122747248</ele>
<time>2026-07-12T11:57:26.840Z</time>
</trkpt>
<trkpt lat="41.9776833" lon="2.8003266000000053">
<ele>81.00349727071085</ele>
<time>2026-07-12T11:57:30.990Z</time>
</trkpt>
<trkpt lat="41.9777027" lon="2.8002720000000068">
<ele>81.54474455965725</ele>
<time>2026-07-12T11:57:34.896Z</time>
</trkpt>
<trkpt lat="41.9777193" lon="2.800207400000005">
<ele>82.46684108563572</ele>
<time>2026-07-12T11:57:38.640Z</time>
</trkpt>
<trkpt lat="41.9777352" lon="2.8001323999999954">
<ele>83.59573555267922</ele>
<time>2026-07-12T11:57:42.876Z</time>
</trkpt>
<trkpt lat="41.9777496" lon="2.8000730999999917">
<ele>84.48524562998479</ele>
<time>2026-07-12T11:57:47.112Z</time>
</trkpt>
<trkpt lat="41.977759" lon="2.8000107999999955">
<ele>85.25697871644982</ele>
<time>2026-07-12T11:57:50.638Z</time>
</trkpt>
<trkpt lat="41.9777643" lon="2.799947099999997">
<ele>84.32507489621041</ele>
<time>2026-07-12T11:57:54.491Z</time>
</trkpt>
<trkpt lat="41.9777695" lon="2.7998863999999912">
<ele>83.57861686513829</ele>
<time>2026-07-12T11:57:57.973Z</time>
</trkpt>
<trkpt lat="41.9777736" lon="2.7998263000000065">
<ele>82.88802229387178</ele>
<time>2026-07-12T11:58:02.213Z</time>
</trkpt>
<trkpt lat="41.9777794" lon="2.7997622000000035">
<ele>82.2360171011632</ele>
<time>2026-07-12T11:58:05.841Z</time>
</trkpt>
<trkpt lat="41.9777916" lon="2.799690599999991">
<ele>82.14185986524343</ele>
<time>2026-07-12T11:58:09.859Z</time>
</trkpt>
<trkpt lat="41.9777883" lon="2.7996239000000003">
<ele>82.20690857414952</ele>
<time>2026-07-12T11:58:13.793Z</time>
</trkpt>
<trkpt lat="41.9777799" lon="2.799559600000009">
<ele>82.15592859885753</ele>
<time>2026-07-12T11:58:16.555Z</time>
</trkpt>
<trkpt lat="41.9777722" lon="2.7994999000000007">
<ele>82.12229464088078</ele>
<time>2026-07-12T11:58:19.898Z</time>
</trkpt>
<trkpt lat="41.9777606" lon="2.79943320000001">
<ele>82.01300617948343</ele>
<time>2026-07-12T11:58:22.926Z</time>
</trkpt>
<trkpt lat="41.9777547" lon="2.7993649999999946">
<ele>81.92563910061186</ele>
<time>2026-07-12T11:58:27.672Z</time>
</trkpt>
<trkpt lat="41.9777463" lon="2.7993040000000065">
<ele>81.80045713462033</ele>
<time>2026-07-12T11:58:31.151Z</time>
</trkpt>
<trkpt lat="41.9777365" lon="2.799244899999991">
<ele>81.78167698977363</ele>
<time>2026-07-12T11:58:34.897Z</time>
</trkpt>
<trkpt lat="41.9777139" lon="2.7991917999999885">
<ele>81.66471311110809</ele>
<time>2026-07-12T11:58:37.914Z</time>
</trkpt>
<trkpt lat="41.9777001" lon="2.7991234000000134">
<ele>81.57741663887029</ele>
<time>2026-07-12T11:58:42.634Z</time>
</trkpt>
<trkpt lat="41.9776848" lon="2.7990628999999956">
<ele>81.44008989516163</ele>
<time>2026-07-12T11:58:45.984Z</time>
</trkpt>
<trkpt lat="41.9776735" lon="2.798988500000007">
<ele>81.29556314899865</ele>
<time>2026-07-12T11:58:49.841Z</time>
</trkpt>
<trkpt lat="41.9776625" lon="2.7989292000000034">
<ele>81.13105920874146</ele>
<time>2026-07-12T11:58:53.431Z</time>
</trkpt>
<trkpt lat="41.9776559" lon="2.7988685999999916">
<ele>80.99089700802818</ele>
<time>2026-07-12T11:58:56.556Z</time>
</trkpt>
<trkpt lat="41.9776488" lon="2.7988043000000005">
<ele>80.84738116397097</ele>
<time>2026-07-12T11:59:01.458Z</time>
</trkpt>
<trkpt lat="41.9776359" lon="2.7987347000000113">
<ele>80.69293687748151</ele>
<time>2026-07-12T11:59:04.990Z</time>
</trkpt>
<trkpt lat="41.9776275" lon="2.7986740999999995">
<ele>80.62581751956772</ele>
<time>2026-07-12T11:59:08.770Z</time>
</trkpt>
<trkpt lat="41.9776201" lon="2.798610999999994">
<ele>80.59901875563693</ele>
<time>2026-07-12T11:59:12.295Z</time>
</trkpt>
<trkpt lat="41.9776099" lon="2.798546899999991">
<ele>81.06097238338688</ele>
<time>2026-07-12T11:59:16.157Z</time>
</trkpt>
<trkpt lat="41.9775975" lon="2.7984870999999885">
<ele>81.47722825313875</ele>
<time>2026-07-12T11:59:19.258Z</time>
</trkpt>
<trkpt lat="41.9775854" lon="2.7984227000000033">
<ele>81.90916207957027</ele>
<time>2026-07-12T11:59:22.691Z</time>
</trkpt>
<trkpt lat="41.9775716" lon="2.7983581000000015">
<ele>82.31130312557366</ele>
<time>2026-07-12T11:59:27.516Z</time>
</trkpt>
<trkpt lat="41.9775579" lon="2.798286499999989">
<ele>82.21179438732105</ele>
<time>2026-07-12T11:59:31.987Z</time>
</trkpt>
<trkpt lat="41.9775423" lon="2.7982263000000103">
<ele>81.84755080507335</ele>
<time>2026-07-12T11:59:35.773Z</time>
</trkpt>
<trkpt lat="41.977528" lon="2.7981675000000052">
<ele>81.51713603151198</ele>
<time>2026-07-12T11:59:38.894Z</time>
</trkpt>
<trkpt lat="41.9775153" lon="2.798097399999989">
<ele>81.16429722462892</ele>
<time>2026-07-12T11:59:42.356Z</time>
</trkpt>
<trkpt lat="41.9775078" lon="2.7980335000000025">
<ele>80.98967151387222</ele>
<time>2026-07-12T11:59:46.512Z</time>
</trkpt>
<trkpt lat="41.9775017" lon="2.797956499999998">
<ele>81.11011225405906</ele>
<time>2026-07-12T11:59:50.986Z</time>
</trkpt>
<trkpt lat="41.9775087" lon="2.7978946000000064">
<ele>81.26027142336731</ele>
<time>2026-07-12T11:59:54.595Z</time>
</trkpt>
<trkpt lat="41.9774938" lon="2.797833499999996">
<ele>81.2851872710848</ele>
<time>2026-07-12T11:59:58.056Z</time>
</trkpt>
<trkpt lat="41.9774757" lon="2.7977779">
<ele>81.25244997024224</ele>
<time>2026-07-12T12:00:01.396Z</time>
</trkpt>
<trkpt lat="41.9774607" lon="2.79771869999999">
<ele>81.14698944988409</ele>
<time>2026-07-12T12:00:04.673Z</time>
</trkpt>
<trkpt lat="41.9774538" lon="2.79765789999999">
<ele>81.10000357427688</ele>
<time>2026-07-12T12:00:08.074Z</time>
</trkpt>
<trkpt lat="41.977445" lon="2.7975945000000024">
<ele>81.05843073057937</ele>
<time>2026-07-12T12:00:11.198Z</time>
</trkpt>
<trkpt lat="41.9774376" lon="2.797533499999986">
<ele>81.03352935758015</ele>
<time>2026-07-12T12:00:14.673Z</time>
</trkpt>
<trkpt lat="41.9774359" lon="2.797472599999992">
<ele>80.9982270537068</ele>
<time>2026-07-12T12:00:17.812Z</time>
</trkpt>
<trkpt lat="41.9774363" lon="2.7974036999999896">
<ele>80.91552700082408</ele>
<time>2026-07-12T12:00:20.897Z</time>
</trkpt>
<trkpt lat="41.9774407" lon="2.797337099999993">
<ele>80.8506314204976</ele>
<time>2026-07-12T12:00:24.797Z</time>
</trkpt>
<trkpt lat="41.9774279" lon="2.797277799999989">
<ele>80.72602258818854</ele>
<time>2026-07-12T12:00:28.414Z</time>
</trkpt>
<trkpt lat="41.9774143" lon="2.7972179999999867">
<ele>80.57197726566677</ele>
<time>2026-07-12T12:00:32.259Z</time>
</trkpt>
<trkpt lat="41.9773785" lon="2.7971767999999884">
<ele>80.13309859601635</ele>
<time>2026-07-12T12:00:36.454Z</time>
</trkpt>
<trkpt lat="41.9773424" lon="2.7971358000000066">
<ele>79.74701189367921</ele>
<time>2026-07-12T12:00:40.620Z</time>
</trkpt>
<trkpt lat="41.9772962" lon="2.7971166000000096">
<ele>79.4820315970814</ele>
<time>2026-07-12T12:00:44.116Z</time>
</trkpt>
<trkpt lat="41.9772479" lon="2.797102499999994">
<ele>79.26106993321285</ele>
<time>2026-07-12T12:00:46.910Z</time>
</trkpt>
<trkpt lat="41.9772023" lon="2.7970843999999886">
<ele>79.06108115568858</ele>
<time>2026-07-12T12:00:50.418Z</time>
</trkpt>
<trkpt lat="41.9771591" lon="2.797067400000003">
<ele>78.94508991848897</ele>
<time>2026-07-12T12:00:53.159Z</time>
</trkpt>
<trkpt lat="41.9771134" lon="2.797052799999989">
<ele>78.85220788880447</ele>
<time>2026-07-12T12:00:56.658Z</time>
</trkpt>
<trkpt lat="41.9770623" lon="2.797038399999991">
<ele>78.75213637067372</ele>
<time>2026-07-12T12:01:00.494Z</time>
</trkpt>
<trkpt lat="41.9770149" lon="2.7970339000000024">
<ele>78.68317742850445</ele>
<time>2026-07-12T12:01:03.611Z</time>
</trkpt>
<trkpt lat="41.976972" lon="2.7970146000000113">
<ele>78.5764129407944</ele>
<time>2026-07-12T12:01:06.760Z</time>
</trkpt>
<trkpt lat="41.9769269" lon="2.7970008000000064">
<ele>78.48140706366047</ele>
<time>2026-07-12T12:01:09.970Z</time>
</trkpt>
<trkpt lat="41.9768816" lon="2.796986299999986">
<ele>78.62245223332148</ele>
<time>2026-07-12T12:01:13.415Z</time>
</trkpt>
<trkpt lat="41.9768357" lon="2.7969718999999884">
<ele>78.88044339282062</ele>
<time>2026-07-12T12:01:16.537Z</time>
</trkpt>
<trkpt lat="41.9767912" lon="2.796958999999987">
<ele>79.13355710927848</ele>
<time>2026-07-12T12:01:19.711Z</time>
</trkpt>
<trkpt lat="41.976744" lon="2.796947899999992">
<ele>79.40954504567279</ele>
<time>2026-07-12T12:01:23.516Z</time>
</trkpt>
<trkpt lat="41.9766921" lon="2.7969349999999906">
<ele>79.7232536911679</ele>
<time>2026-07-12T12:01:27.675Z</time>
</trkpt>
<trkpt lat="41.9766474" lon="2.796923300000003">
<ele>79.98147698033736</ele>
<time>2026-07-12T12:01:30.797Z</time>
</trkpt>
<trkpt lat="41.9766011" lon="2.7969110999999884">
<ele>80.63840180385691</ele>
<time>2026-07-12T12:01:33.896Z</time>
</trkpt>
<trkpt lat="41.9765529" lon="2.7968946000000017">
<ele>81.4730957998915</ele>
<time>2026-07-12T12:01:37.414Z</time>
</trkpt>
<trkpt lat="41.9765045" lon="2.796878899999996">
<ele>82.30126985020276</ele>
<time>2026-07-12T12:01:41.238Z</time>
</trkpt>
<trkpt lat="41.9764534" lon="2.7968600000000094">
<ele>83.15227254532752</ele>
<time>2026-07-12T12:01:44.456Z</time>
</trkpt>
<trkpt lat="41.9764085" lon="2.7968501000000003">
<ele>83.91736633145852</ele>
<time>2026-07-12T12:01:48.630Z</time>
</trkpt>
<trkpt lat="41.9763624" lon="2.7968357999999967">
<ele>84.67484294090956</ele>
<time>2026-07-12T12:01:52.677Z</time>
</trkpt>
<trkpt lat="41.9763177" lon="2.7968256999999994">
<ele>84.70280874264927</ele>
<time>2026-07-12T12:01:56.394Z</time>
</trkpt>
<trkpt lat="41.976271" lon="2.796830199999988">
<ele>84.68389130951425</ele>
<time>2026-07-12T12:02:00.497Z</time>
</trkpt>
<trkpt lat="41.9762252" lon="2.796844099999987">
<ele>84.71789271035385</ele>
<time>2026-07-12T12:02:03.695Z</time>
</trkpt>
<trkpt lat="41.9761791" lon="2.7968500000000063">
<ele>84.71129780712707</ele>
<time>2026-07-12T12:02:08.560Z</time>
</trkpt>
<trkpt lat="41.9761324" lon="2.79685760000001">
<ele>84.71562677354922</ele>
<time>2026-07-12T12:02:12.477Z</time>
</trkpt>
<trkpt lat="41.9760925" lon="2.7968871999999863">
<ele>84.85569461878772</ele>
<time>2026-07-12T12:02:17.896Z</time>
</trkpt>
<trkpt lat="41.9760563" lon="2.7969296999999926">
<ele>84.7670602691174</ele>
<time>2026-07-12T12:02:20.455Z</time>
</trkpt>
<trkpt lat="41.9760498" lon="2.7969897000000117">
<ele>84.88141063521604</ele>
<time>2026-07-12T12:02:23.978Z</time>
</trkpt>
<trkpt lat="41.976031" lon="2.797051900000014">
<ele>84.75760145940595</ele>
<time>2026-07-12T12:02:27.776Z</time>
</trkpt>
<trkpt lat="41.9760351" lon="2.797114499999992">
<ele>85.02479069317909</ele>
<time>2026-07-12T12:02:30.982Z</time>
</trkpt>
<trkpt lat="41.9760396" lon="2.7971755000000087">
<ele>85.30409732912517</ele>
<time>2026-07-12T12:02:34.013Z</time>
</trkpt>
<trkpt lat="41.9760439" lon="2.79724139999999">
<ele>85.38171160413081</ele>
<time>2026-07-12T12:02:37.896Z</time>
</trkpt>
<trkpt lat="41.9760471" lon="2.797303499999998">
<ele>85.04011132891263</ele>
<time>2026-07-12T12:02:41.214Z</time>
</trkpt>
<trkpt lat="41.9760506" lon="2.7973703000000114">
<ele>84.65938005008128</ele>
<time>2026-07-12T12:02:45.292Z</time>
</trkpt>
<trkpt lat="41.9760283" lon="2.79742379999999">
<ele>83.98831521363738</ele>
<time>2026-07-12T12:02:48.735Z</time>
</trkpt>
<trkpt lat="41.9760285" lon="2.797484499999996">
<ele>83.63083759861284</ele>
<time>2026-07-12T12:02:54.535Z</time>
</trkpt>
<trkpt lat="41.9760442" lon="2.7975491999999917">
<ele>83.91534106889337</ele>
<time>2026-07-12T12:03:01.732Z</time>
</trkpt>
<trkpt lat="41.976052" lon="2.7976136000000054">
<ele>84.2243233186729</ele>
<time>2026-07-12T12:03:06.297Z</time>
</trkpt>
<trkpt lat="41.9760557" lon="2.7976758000000075">
<ele>84.47994026285082</ele>
<time>2026-07-12T12:03:10.074Z</time>
</trkpt>
<trkpt lat="41.976065" lon="2.797739799999988">
<ele>84.82522894248211</ele>
<time>2026-07-12T12:03:13.897Z</time>
</trkpt>
<trkpt lat="41.9760739" lon="2.797803799999997">
<ele>85.12680447120867</ele>
<time>2026-07-12T12:03:17.817Z</time>
</trkpt>
<trkpt lat="41.9760853" lon="2.797862699999996">
<ele>85.34547522075289</ele>
<time>2026-07-12T12:03:20.896Z</time>
</trkpt>
<trkpt lat="41.976091" lon="2.7979230999999913">
<ele>85.48870432190112</ele>
<time>2026-07-12T12:03:23.961Z</time>
</trkpt>
<trkpt lat="41.9760969" lon="2.797982999999988">
<ele>85.62532306946949</ele>
<time>2026-07-12T12:03:27.195Z</time>
</trkpt>
<trkpt lat="41.9761122" lon="2.7980507999999986">
<ele>85.81555707784663</ele>
<time>2026-07-12T12:03:30.440Z</time>
</trkpt>
<trkpt lat="41.976114" lon="2.798117600000012">
<ele>85.58285911719288</ele>
<time>2026-07-12T12:03:34.896Z</time>
</trkpt>
<trkpt lat="41.9761104" lon="2.7981777999999906">
<ele>85.33480139809264</ele>
<time>2026-07-12T12:03:44.030Z</time>
</trkpt>
<trkpt lat="41.9760889" lon="2.7982398999999987">
<ele>84.97186717545061</ele>
<time>2026-07-12T12:04:12.896Z</time>
</trkpt>
<trkpt lat="41.9760924" lon="2.79816790000001">
<ele>85.27161091638501</ele>
<time>2026-07-12T12:05:03.076Z</time>
</trkpt>
<trkpt lat="41.9760807" lon="2.7981023000000107">
<ele>85.46364494518619</ele>
<time>2026-07-12T12:05:05.614Z</time>
</trkpt>
<trkpt lat="41.9760848" lon="2.7980329000000097">
<ele>85.64338657097201</ele>
<time>2026-07-12T12:05:09.538Z</time>
</trkpt>
<trkpt lat="41.9761051" lon="2.7979759000000115">
<ele>85.66185071665947</ele>
<time>2026-07-12T12:05:12.839Z</time>
</trkpt>
<trkpt lat="41.9760973" lon="2.797911699999986">
<ele>85.51036731367908</ele>
<time>2026-07-12T12:05:16.298Z</time>
</trkpt>
<trkpt lat="41.9760887" lon="2.7978491000000076">
<ele>85.34580779643086</ele>
<time>2026-07-12T12:05:19.897Z</time>
</trkpt>
<trkpt lat="41.9760776" lon="2.7977870999999936">
<ele>85.15008084988507</ele>
<time>2026-07-12T12:05:23.312Z</time>
</trkpt>
<trkpt lat="41.9760696" lon="2.7977274000000136">
<ele>84.84724547995708</ele>
<time>2026-07-12T12:05:26.836Z</time>
</trkpt>
<trkpt lat="41.9760603" lon="2.797664999999995">
<ele>84.50566517903998</ele>
<time>2026-07-12T12:05:30.670Z</time>
</trkpt>
<trkpt lat="41.9760584" lon="2.7976013999999907">
<ele>84.26610676819892</ele>
<time>2026-07-12T12:05:36.912Z</time>
</trkpt>
<trkpt lat="41.9760461" lon="2.797543300000001">
<ele>83.91960480518327</ele>
<time>2026-07-12T12:05:42.154Z</time>
</trkpt>
<trkpt lat="41.9760318" lon="2.797482599999995">
<ele>83.68262165346385</ele>
<time>2026-07-12T12:05:46.349Z</time>
</trkpt>
<trkpt lat="41.9760175" lon="2.797423600000002">
<ele>83.83655164484937</ele>
<time>2026-07-12T12:05:49.877Z</time>
</trkpt>
<trkpt lat="41.9760058" lon="2.797364399999992">
<ele>83.97927011826799</ele>
<time>2026-07-12T12:05:53.735Z</time>
</trkpt>
<trkpt lat="41.9759905" lon="2.797306800000001">
<ele>84.00550023125932</ele>
<time>2026-07-12T12:05:57.237Z</time>
</trkpt>
<trkpt lat="41.975971" lon="2.7972494999999924">
<ele>83.89120155233454</ele>
<time>2026-07-12T12:06:01.136Z</time>
</trkpt>
<trkpt lat="41.9759613" lon="2.7971898000000124">
<ele>83.76685612024156</ele>
<time>2026-07-12T12:06:04.716Z</time>
</trkpt>
<trkpt lat="41.9759485" lon="2.797116899999992">
<ele>83.39506723361336</ele>
<time>2026-07-12T12:06:08.515Z</time>
</trkpt>
<trkpt lat="41.9759422" lon="2.797055499999999">
<ele>83.1877077927814</ele>
<time>2026-07-12T12:06:12.712Z</time>
</trkpt>
<trkpt lat="41.9759298" lon="2.796986000000004">
<ele>82.88254661095547</ele>
<time>2026-07-12T12:06:16.855Z</time>
</trkpt>
<trkpt lat="41.9759269" lon="2.79692">
<ele>82.82260576805206</ele>
<time>2026-07-12T12:06:20.869Z</time>
</trkpt>
<trkpt lat="41.9759187" lon="2.796853700000014">
<ele>82.86644037853054</ele>
<time>2026-07-12T12:06:24.596Z</time>
</trkpt>
<trkpt lat="41.9759138" lon="2.7967917">
<ele>82.98100818917483</ele>
<time>2026-07-12T12:06:28.538Z</time>
</trkpt>
<trkpt lat="41.9759101" lon="2.7967232999999965">
<ele>83.15179695885425</ele>
<time>2026-07-12T12:06:31.983Z</time>
</trkpt>
<trkpt lat="41.9759249" lon="2.7966657999999995">
<ele>83.33995548731332</ele>
<time>2026-07-12T12:06:35.874Z</time>
</trkpt>
<trkpt lat="41.9759119" lon="2.7966001000000063">
<ele>83.56364275671079</ele>
<time>2026-07-12T12:06:39.716Z</time>
</trkpt>
<trkpt lat="41.9758797" lon="2.7965488000000107">
<ele>83.80419422606639</ele>
<time>2026-07-12T12:06:42.839Z</time>
</trkpt>
<trkpt lat="41.975863" lon="2.7964871000000073">
<ele>84.13115091505159</ele>
<time>2026-07-12T12:06:46.839Z</time>
</trkpt>
<trkpt lat="41.9758612" lon="2.796421500000008">
<ele>84.4596133873497</ele>
<time>2026-07-12T12:06:49.478Z</time>
</trkpt>
<trkpt lat="41.9758482" lon="2.796361999999988">
<ele>84.53118000196956</ele>
<time>2026-07-12T12:06:53.635Z</time>
</trkpt>
<trkpt lat="41.9758325" lon="2.7962890999999956">
<ele>83.97231009527641</ele>
<time>2026-07-12T12:06:57.991Z</time>
</trkpt>
<trkpt lat="41.975822" lon="2.7962302999999906">
<ele>83.48387530391643</ele>
<time>2026-07-12T12:07:01.595Z</time>
</trkpt>
<trkpt lat="41.9758084" lon="2.7961707000000047">
<ele>82.96832828526294</ele>
<time>2026-07-12T12:07:04.656Z</time>
</trkpt>
<trkpt lat="41.9757955" lon="2.796094900000014">
<ele>82.41927936058464</ele>
<time>2026-07-12T12:07:08.799Z</time>
</trkpt>
<trkpt lat="41.975812" lon="2.7960363999999913">
<ele>82.7983431428213</ele>
<time>2026-07-12T12:07:13.915Z</time>
</trkpt>
<trkpt lat="41.9758011" lon="2.7959751999999867">
<ele>83.2255925666238</ele>
<time>2026-07-12T12:07:17.977Z</time>
</trkpt>
<trkpt lat="41.9757922" lon="2.7959143999999867">
<ele>83.60487711108094</ele>
<time>2026-07-12T12:07:21.657Z</time>
</trkpt>
<trkpt lat="41.9757957" lon="2.795853099999988">
<ele>84.02480989279805</ele>
<time>2026-07-12T12:07:25.869Z</time>
</trkpt>
<trkpt lat="41.9758353" lon="2.795809200000008">
<ele>83.89420906933624</ele>
<time>2026-07-12T12:07:32.876Z</time>
</trkpt>
<trkpt lat="41.9758858" lon="2.795802199999997">
<ele>83.42598070359874</ele>
<time>2026-07-12T12:07:42.869Z</time>
</trkpt>
<trkpt lat="41.9759304" lon="2.7957754999999906">
<ele>83.02524390636559</ele>
<time>2026-07-12T12:07:51.839Z</time>
</trkpt>
<trkpt lat="41.9759784" lon="2.7957804000000124">
<ele>82.56597486726265</ele>
<time>2026-07-12T12:08:14.549Z</time>
</trkpt>
<trkpt lat="41.9760273" lon="2.7957705999999973">
<ele>82.1054775315987</ele>
<time>2026-07-12T12:08:52.561Z</time>
</trkpt>
<trkpt lat="41.9759924" lon="2.7959438999999975">
<ele>82.38706128371824</ele>
<time>2026-07-12T12:13:02.839Z</time>
</trkpt>
<trkpt lat="41.9760399" lon="2.7960306999999887">
<ele>82.2486416436795</ele>
<time>2026-07-12T12:13:15.838Z</time>
</trkpt>
<trkpt lat="41.9760274" lon="2.7957509999999957">
<ele>82.11206251053036</ele>
<time>2026-07-12T12:13:23.919Z</time>
</trkpt>
</trkseg></trk></gpx>
