<?xml version="1.0" encoding="UTF-8"?>
<gpx version="1.1" creator="Senda">
<bounds minlat="0.0" minlon="0.0" maxlat="0.0" maxlon="0.0" />
<trk><name>no reverse detectwt-2026-07-13</name><trkseg>
<trkpt lat="41.9915244" lon="2.824943499999989">
<ele>74.08215255340296</ele>
<time>2026-07-13T04:18:24.089Z</time>
</trkpt>
<trkpt lat="41.9915675" lon="2.8249661000000117">
<ele>73.71356216306717</ele>
<time>2026-07-13T04:18:27.168Z</time>
</trkpt>
<trkpt lat="41.9916123" lon="2.8249911000000054">
<ele>73.31288883602974</ele>
<time>2026-07-13T04:18:30.708Z</time>
</trkpt>
<trkpt lat="41.9916613" lon="2.825009599999987">
<ele>72.8028624095796</ele>
<time>2026-07-13T04:18:34.585Z</time>
</trkpt>
<trkpt lat="41.9916808" lon="2.8250194999999962">
<ele>72.67779704169372</ele>
<time>2026-07-13T04:18:36.104Z</time>
</trkpt>
<trkpt lat="41.9916808" lon="2.8250194999999962">
<ele>72.67779704169372</ele>
<time>2026-07-13T04:18:36.104Z</time>
</trkpt>
<trkpt lat="41.9916901" lon="2.8250535999999897">
<ele>72.58665160244479</ele>
<time>2026-07-13T04:18:40.357Z</time>
</trkpt>
<trkpt lat="41.9917314" lon="2.825080600000007">
<ele>72.10802800832901</ele>
<time>2026-07-13T04:18:42.741Z</time>
</trkpt>
<trkpt lat="41.9917607" lon="2.8250918999999897">
<ele>71.83923775767055</ele>
<time>2026-07-13T04:18:44.840Z</time>
</trkpt>
<trkpt lat="41.9917832" lon="2.82510640000001">
<ele>71.64815303323805</ele>
<time>2026-07-13T04:18:46.808Z</time>
</trkpt>
<trkpt lat="41.99182" lon="2.8251207000000136">
<ele>71.3873483490561</ele>
<time>2026-07-13T04:18:48.995Z</time>
</trkpt>
<trkpt lat="41.9918578" lon="2.8251401999999928">
<ele>71.17850412882483</ele>
<time>2026-07-13T04:18:51.058Z</time>
</trkpt>
<trkpt lat="41.9918905" lon="2.8251593999999898">
<ele>71.05789996511393</ele>
<time>2026-07-13T04:18:53.126Z</time>
</trkpt>
<trkpt lat="41.9919213" lon="2.8251775999999893">
<ele>70.9940809193175</ele>
<time>2026-07-13T04:18:55.160Z</time>
</trkpt>
<trkpt lat="41.9919545" lon="2.825177400000001">
<ele>70.91634456162771</ele>
<time>2026-07-13T04:18:57.535Z</time>
</trkpt>
<trkpt lat="41.9919837" lon="2.8251624000000106">
<ele>70.80363105546327</ele>
<time>2026-07-13T04:18:59.598Z</time>
</trkpt>
<trkpt lat="41.9920142" lon="2.825176199999987">
<ele>70.84240877426204</ele>
<time>2026-07-13T04:19:01.655Z</time>
</trkpt>
<trkpt lat="41.9920482" lon="2.825201600000014">
<ele>70.92408790322095</ele>
<time>2026-07-13T04:19:03.726Z</time>
</trkpt>
<trkpt lat="41.9920739" lon="2.8252371000000096">
<ele>71.04884680037236</ele>
<time>2026-07-13T04:19:05.686Z</time>
</trkpt>
<trkpt lat="41.9920974" lon="2.8252550999999926">
<ele>71.08670188157092</ele>
<time>2026-07-13T04:19:07.686Z</time>
</trkpt>
<trkpt lat="41.9921403" lon="2.8252961000000028">
<ele>71.16807116824863</ele>
<time>2026-07-13T04:19:11.584Z</time>
</trkpt>
<trkpt lat="41.9921643" lon="2.8253196000000003">
<ele>71.18971703125132</ele>
<time>2026-07-13T04:19:13.813Z</time>
</trkpt>
<trkpt lat="41.9921856" lon="2.8253396000000066">
<ele>71.1881731627357</ele>
<time>2026-07-13T04:19:15.659Z</time>
</trkpt>
<trkpt lat="41.9922121" lon="2.8253654000000097">
<ele>71.20542339869027</ele>
<time>2026-07-13T04:19:17.749Z</time>
</trkpt>
<trkpt lat="41.9922354" lon="2.8253828">
<ele>70.9831254937361</ele>
<time>2026-07-13T04:19:19.686Z</time>
</trkpt>
<trkpt lat="41.9922561" lon="2.8253976000000023">
<ele>70.79666940181326</ele>
<time>2026-07-13T04:19:21.760Z</time>
</trkpt>
<trkpt lat="41.9922612" lon="2.8254057000000046">
<ele>70.76945980675414</ele>
<time>2026-07-13T04:19:23.687Z</time>
</trkpt>
<trkpt lat="41.9922766" lon="2.8254240999999922">
<ele>70.67242928818037</ele>
<time>2026-07-13T04:19:25.814Z</time>
</trkpt>
<trkpt lat="41.9922968" lon="2.825441600000005">
<ele>70.53235857499675</ele>
<time>2026-07-13T04:19:27.839Z</time>
</trkpt>
<trkpt lat="41.9923159" lon="2.825456900000006">
<ele>70.40671427644294</ele>
<time>2026-07-13T04:19:29.854Z</time>
</trkpt>
<trkpt lat="41.9923407" lon="2.8254650000000083">
<ele>70.19776147584386</ele>
<time>2026-07-13T04:19:31.880Z</time>
</trkpt>
<trkpt lat="41.9923623" lon="2.825474700000001">
<ele>70.03756069952092</ele>
<time>2026-07-13T04:19:33.704Z</time>
</trkpt>
<trkpt lat="41.9923812" lon="2.8254882999999893">
<ele>69.93569433337872</ele>
<time>2026-07-13T04:19:35.720Z</time>
</trkpt>
<trkpt lat="41.9924029" lon="2.825504599999988">
<ele>69.83580171277431</ele>
<time>2026-07-13T04:19:37.735Z</time>
</trkpt>
<trkpt lat="41.9924271" lon="2.825521500000008">
<ele>69.73187994811991</ele>
<time>2026-07-13T04:19:39.751Z</time>
</trkpt>
<trkpt lat="41.9924556" lon="2.8255393999999967">
<ele>69.61496164735063</ele>
<time>2026-07-13T04:19:41.686Z</time>
</trkpt>
<trkpt lat="41.9924769" lon="2.825550700000008">
<ele>69.5240265407697</ele>
<time>2026-07-13T04:19:43.781Z</time>
</trkpt>
<trkpt lat="41.9925075" lon="2.825568500000003">
<ele>69.64215247656936</ele>
<time>2026-07-13T04:19:46.099Z</time>
</trkpt>
<trkpt lat="41.9925336" lon="2.825587000000013">
<ele>69.92997270130193</ele>
<time>2026-07-13T04:19:48.116Z</time>
</trkpt>
<trkpt lat="41.9925596" lon="2.8256034000000056">
<ele>70.16641574053712</ele>
<time>2026-07-13T04:19:50.143Z</time>
</trkpt>
<trkpt lat="41.9925851" lon="2.8256153000000097">
<ele>70.3336897325387</ele>
<time>2026-07-13T04:19:52.143Z</time>
</trkpt>
<trkpt lat="41.9926077" lon="2.8256312999999977">
<ele>70.4817306658484</ele>
<time>2026-07-13T04:19:54.142Z</time>
</trkpt>
<trkpt lat="41.9926334" lon="2.8256548999999893">
<ele>70.62895222386742</ele>
<time>2026-07-13T04:19:56.074Z</time>
</trkpt>
<trkpt lat="41.9926579" lon="2.825675100000012">
<ele>70.71950688661225</ele>
<time>2026-07-13T04:19:58.100Z</time>
</trkpt>
<trkpt lat="41.9926807" lon="2.8256939999999986">
<ele>70.76773389771392</ele>
<time>2026-07-13T04:20:00.123Z</time>
</trkpt>
<trkpt lat="41.9927091" lon="2.8257183999999995">
<ele>70.77851257734318</ele>
<time>2026-07-13T04:20:02.120Z</time>
</trkpt>
<trkpt lat="41.9927292" lon="2.8257337999999947">
<ele>70.7543490668863</ele>
<time>2026-07-13T04:20:04.159Z</time>
</trkpt>
<trkpt lat="41.992752" lon="2.8257514999999955">
<ele>70.69600363353231</ele>
<time>2026-07-13T04:20:06.215Z</time>
</trkpt>
<trkpt lat="41.9927826" lon="2.825776100000013">
<ele>70.50210923296908</ele>
<time>2026-07-13T04:20:08.262Z</time>
</trkpt>
<trkpt lat="41.9928032" lon="2.825788700000004">
<ele>70.33760391004103</ele>
<time>2026-07-13T04:20:10.277Z</time>
</trkpt>
<trkpt lat="41.9928296" lon="2.8258031999999957">
<ele>70.14497776463386</ele>
<time>2026-07-13T04:20:12.318Z</time>
</trkpt>
<trkpt lat="41.9928558" lon="2.8258161999999913">
<ele>69.97082885559304</ele>
<time>2026-07-13T04:20:14.356Z</time>
</trkpt>
<trkpt lat="41.9928818" lon="2.8258328999999947">
<ele>69.81051149010588</ele>
<time>2026-07-13T04:20:16.442Z</time>
</trkpt>
<trkpt lat="41.9929069" lon="2.8258473999999865">
<ele>69.67264560112226</ele>
<time>2026-07-13T04:20:18.480Z</time>
</trkpt>
<trkpt lat="41.992933" lon="2.8258611999999914">
<ele>69.54446404064859</ele>
<time>2026-07-13T04:20:20.518Z</time>
</trkpt>
<trkpt lat="41.9929611" lon="2.8258757000000116">
<ele>69.50200773457351</ele>
<time>2026-07-13T04:20:22.542Z</time>
</trkpt>
<trkpt lat="41.9929915" lon="2.8258836999999914">
<ele>69.44846023770481</ele>
<time>2026-07-13T04:20:24.583Z</time>
</trkpt>
<trkpt lat="41.99302" lon="2.8258901000000094">
<ele>69.36975256502276</ele>
<time>2026-07-13T04:20:26.637Z</time>
</trkpt>
<trkpt lat="41.9930465" lon="2.8258922999999925">
<ele>69.24957372054318</ele>
<time>2026-07-13T04:20:28.676Z</time>
</trkpt>
<trkpt lat="41.9930713" lon="2.8258954000000074">
<ele>69.31217765289185</ele>
<time>2026-07-13T04:20:30.762Z</time>
</trkpt>
<trkpt lat="41.9930973" lon="2.8258937999999887">
<ele>69.3279500214128</ele>
<time>2026-07-13T04:20:32.686Z</time>
</trkpt>
<trkpt lat="41.9931252" lon="2.8259047999999893">
<ele>69.46620165206997</ele>
<time>2026-07-13T04:20:34.774Z</time>
</trkpt>
<trkpt lat="41.9931558" lon="2.8258729000000073">
<ele>69.21137474191579</ele>
<time>2026-07-13T04:20:36.812Z</time>
</trkpt>
<trkpt lat="41.993182" lon="2.8258704000000137">
<ele>69.22939831013359</ele>
<time>2026-07-13T04:20:38.687Z</time>
</trkpt>
<trkpt lat="41.9932406" lon="2.8258836999999914">
<ele>69.42499248066824</ele>
<time>2026-07-13T04:20:42.742Z</time>
</trkpt>
<trkpt lat="41.9932686" lon="2.825889899999993">
<ele>69.50983808967226</ele>
<time>2026-07-13T04:20:44.755Z</time>
</trkpt>
<trkpt lat="41.9933015" lon="2.825897199999986">
<ele>69.60363158606835</ele>
<time>2026-07-13T04:20:47.040Z</time>
</trkpt>
<trkpt lat="41.9933332" lon="2.825907000000001">
<ele>69.66745600007103</ele>
<time>2026-07-13T04:20:49.121Z</time>
</trkpt>
<trkpt lat="41.9933642" lon="2.825915000000009">
<ele>69.6180042963986</ele>
<time>2026-07-13T04:20:51.439Z</time>
</trkpt>
<trkpt lat="41.9933964" lon="2.825895900000006">
<ele>69.40320850650818</ele>
<time>2026-07-13T04:20:53.711Z</time>
</trkpt>
<trkpt lat="41.9934042" lon="2.8258577000000002">
<ele>69.09341401578801</ele>
<time>2026-07-13T04:20:55.692Z</time>
</trkpt>
<trkpt lat="41.9934494" lon="2.825853599999988">
<ele>68.92010876650023</ele>
<time>2026-07-13T04:20:57.686Z</time>
</trkpt>
<trkpt lat="41.9934923" lon="2.8258540999999866">
<ele>68.80840798274915</ele>
<time>2026-07-13T04:20:59.687Z</time>
</trkpt>
<trkpt lat="41.9935154" lon="2.825852300000008">
<ele>68.72184411442858</ele>
<time>2026-07-13T04:21:01.687Z</time>
</trkpt>
<trkpt lat="41.9935439" lon="2.825844200000006">
<ele>68.5373045310522</ele>
<time>2026-07-13T04:21:03.686Z</time>
</trkpt>
<trkpt lat="41.9935701" lon="2.825835600000005">
<ele>68.34905657922218</ele>
<time>2026-07-13T04:21:05.693Z</time>
</trkpt>
<trkpt lat="41.9936006" lon="2.8258288000000107">
<ele>68.16876456601261</ele>
<time>2026-07-13T04:21:07.595Z</time>
</trkpt>
<trkpt lat="41.9936273" lon="2.825810600000011">
<ele>67.87843787704489</ele>
<time>2026-07-13T04:21:09.593Z</time>
</trkpt>
<trkpt lat="41.9936548" lon="2.8257917999999904">
<ele>67.58259105731325</ele>
<time>2026-07-13T04:21:11.737Z</time>
</trkpt>
<trkpt lat="41.993688" lon="2.8257810000000063">
<ele>67.38703255787571</ele>
<time>2026-07-13T04:21:13.686Z</time>
</trkpt>
<trkpt lat="41.9937026" lon="2.825750599999992">
<ele>66.95834856920256</ele>
<time>2026-07-13T04:21:15.805Z</time>
</trkpt>
<trkpt lat="41.9937323" lon="2.825747199999995">
<ele>66.869510895271</ele>
<time>2026-07-13T04:21:17.699Z</time>
</trkpt>
<trkpt lat="41.9937677" lon="2.8257474000000116">
<ele>66.82047590304312</ele>
<time>2026-07-13T04:21:19.713Z</time>
</trkpt>
<trkpt lat="41.9938002" lon="2.825743100000011">
<ele>66.71617967063281</ele>
<time>2026-07-13T04:21:21.815Z</time>
</trkpt>
<trkpt lat="41.993827" lon="2.8257355000000075">
<ele>66.57710769351532</ele>
<time>2026-07-13T04:21:23.741Z</time>
</trkpt>
<trkpt lat="41.9938633" lon="2.825740400000001">
<ele>66.58905240523984</ele>
<time>2026-07-13T04:21:25.720Z</time>
</trkpt>
<trkpt lat="41.9938923" lon="2.8257413999999983">
<ele>66.5957695430516</ele>
<time>2026-07-13T04:21:27.808Z</time>
</trkpt>
<trkpt lat="41.9939194" lon="2.82574009999999">
<ele>66.62175156289523</ele>
<time>2026-07-13T04:21:29.689Z</time>
</trkpt>
<trkpt lat="41.9939481" lon="2.8257375999999965">
<ele>66.63800614468262</ele>
<time>2026-07-13T04:21:31.719Z</time>
</trkpt>
<trkpt lat="41.9939728" lon="2.8257376999999906">
<ele>66.67936627600623</ele>
<time>2026-07-13T04:21:33.720Z</time>
</trkpt>
<trkpt lat="41.9940017" lon="2.8257271999999887">
<ele>66.6176415675538</ele>
<time>2026-07-13T04:21:35.649Z</time>
</trkpt>
<trkpt lat="41.9940296" lon="2.825710700000002">
<ele>66.50908235745077</ele>
<time>2026-07-13T04:21:37.516Z</time>
</trkpt>
<trkpt lat="41.9940538" lon="2.8257026999999937">
<ele>66.4896765458107</ele>
<time>2026-07-13T04:21:39.477Z</time>
</trkpt>
<trkpt lat="41.9940828" lon="2.8256921999999918">
<ele>66.47010002225322</ele>
<time>2026-07-13T04:21:41.519Z</time>
</trkpt>
<trkpt lat="41.9941116" lon="2.8256838000000073">
<ele>66.48020627202129</ele>
<time>2026-07-13T04:21:43.538Z</time>
</trkpt>
<trkpt lat="41.9941381" lon="2.825678900000014">
<ele>66.51974550099294</ele>
<time>2026-07-13T04:21:45.620Z</time>
</trkpt>
<trkpt lat="41.9941649" lon="2.825670500000001">
<ele>66.55196670067934</ele>
<time>2026-07-13T04:21:47.620Z</time>
</trkpt>
<trkpt lat="41.9941909" lon="2.8256648999999925">
<ele>66.63267714364203</ele>
<time>2026-07-13T04:21:49.635Z</time>
</trkpt>
<trkpt lat="41.9942143" lon="2.8256699000000083">
<ele>66.77539937113923</ele>
<time>2026-07-13T04:21:51.720Z</time>
</trkpt>
<trkpt lat="41.9942317" lon="2.825644600000004">
<ele>66.67376990090241</ele>
<time>2026-07-13T04:21:53.687Z</time>
</trkpt>
<trkpt lat="41.9942542" lon="2.825632100000007">
<ele>66.68347652169845</ele>
<time>2026-07-13T04:21:55.686Z</time>
</trkpt>
<trkpt lat="41.9942968" lon="2.8256435000000124">
<ele>66.95740303573284</ele>
<time>2026-07-13T04:21:57.698Z</time>
</trkpt>
<trkpt lat="41.9943232" lon="2.825646699999993">
<ele>67.10004092153412</ele>
<time>2026-07-13T04:21:59.719Z</time>
</trkpt>
<trkpt lat="41.994353" lon="2.8256438999999887">
<ele>67.21219198541321</ele>
<time>2026-07-13T04:22:01.687Z</time>
</trkpt>
<trkpt lat="41.9944147" lon="2.8256382000000144">
<ele>67.44261153213542</ele>
<time>2026-07-13T04:22:05.686Z</time>
</trkpt>
<trkpt lat="41.9944234" lon="2.8256609999999966">
<ele>67.66635248893297</ele>
<time>2026-07-13T04:22:07.579Z</time>
</trkpt>
<trkpt lat="41.9944467" lon="2.8256581999999923">
<ele>67.72596623320884</ele>
<time>2026-07-13T04:22:09.577Z</time>
</trkpt>
<trkpt lat="41.9944943" lon="2.8256357999999864">
<ele>67.66519083868084</ele>
<time>2026-07-13T04:22:11.561Z</time>
</trkpt>
<trkpt lat="41.9945189" lon="2.825614800000011">
<ele>67.58010847809902</ele>
<time>2026-07-13T04:22:13.518Z</time>
</trkpt>
<trkpt lat="41.9945441" lon="2.825604999999996">
<ele>67.5860336515832</ele>
<time>2026-07-13T04:22:15.541Z</time>
</trkpt>
<trkpt lat="41.9945715" lon="2.8255948999999987">
<ele>67.60407631310942</ele>
<time>2026-07-13T04:22:17.720Z</time>
</trkpt>
<trkpt lat="41.9945792" lon="2.8255690999999956">
<ele>67.24450361859431</ele>
<time>2026-07-13T04:22:19.619Z</time>
</trkpt>
<trkpt lat="41.994597" lon="2.8255460000000028">
<ele>66.92443251993456</ele>
<time>2026-07-13T04:22:22.035Z</time>
</trkpt>
<trkpt lat="41.9946389" lon="2.825549599999988">
<ele>67.11976060638544</ele>
<time>2026-07-13T04:22:24.080Z</time>
</trkpt>
<trkpt lat="41.9946734" lon="2.8255538999999885">
<ele>67.30156859774692</ele>
<time>2026-07-13T04:22:26.083Z</time>
</trkpt>
<trkpt lat="41.9947081" lon="2.8255618000000027">
<ele>67.54103694345473</ele>
<time>2026-07-13T04:22:28.122Z</time>
</trkpt>
<trkpt lat="41.9947375" lon="2.8255564000000106">
<ele>67.68206784483152</ele>
<time>2026-07-13T04:22:30.136Z</time>
</trkpt>
<trkpt lat="41.9947704" lon="2.8255446000000006">
<ele>67.78383117837247</ele>
<time>2026-07-13T04:22:32.174Z</time>
</trkpt>
<trkpt lat="41.994806" lon="2.825537499999996">
<ele>67.98026986893198</ele>
<time>2026-07-13T04:22:34.225Z</time>
</trkpt>
<trkpt lat="41.9948351" lon="2.82552849999999">
<ele>68.07998512240093</ele>
<time>2026-07-13T04:22:36.260Z</time>
</trkpt>
<trkpt lat="41.9948663" lon="2.825523099999998">
<ele>68.2557920474353</ele>
<time>2026-07-13T04:22:38.296Z</time>
</trkpt>
<trkpt lat="41.994899" lon="2.82551380000001">
<ele>68.36863014507365</ele>
<time>2026-07-13T04:22:40.336Z</time>
</trkpt>
<trkpt lat="41.9949229" lon="2.8255048000000045">
<ele>68.40511828535745</ele>
<time>2026-07-13T04:22:42.354Z</time>
</trkpt>
<trkpt lat="41.9949488" lon="2.825493300000005">
<ele>68.40533277581935</ele>
<time>2026-07-13T04:22:44.419Z</time>
</trkpt>
<trkpt lat="41.9949762" lon="2.8254824999999926">
<ele>68.42376443349787</ele>
<time>2026-07-13T04:22:46.440Z</time>
</trkpt>
<trkpt lat="41.9950011" lon="2.82546880000001">
<ele>68.3846992134374</ele>
<time>2026-07-13T04:22:48.464Z</time>
</trkpt>
<trkpt lat="41.9950255" lon="2.8254579000000035">
<ele>68.44536610276076</ele>
<time>2026-07-13T04:22:50.501Z</time>
</trkpt>
<trkpt lat="41.9950476" lon="2.8254488000000038">
<ele>68.51188907596782</ele>
<time>2026-07-13T04:22:52.322Z</time>
</trkpt>
<trkpt lat="41.9950759" lon="2.8254442999999867">
<ele>68.7369742046126</ele>
<time>2026-07-13T04:22:54.238Z</time>
</trkpt>
<trkpt lat="41.9950973" lon="2.8254321999999945">
<ele>68.72802382273653</ele>
<time>2026-07-13T04:22:56.240Z</time>
</trkpt>
<trkpt lat="41.9951214" lon="2.8254198999999858">
<ele>68.7400747797052</ele>
<time>2026-07-13T04:22:58.274Z</time>
</trkpt>
<trkpt lat="41.9951531" lon="2.8254076999999995">
<ele>68.83146857466744</ele>
<time>2026-07-13T04:23:00.298Z</time>
</trkpt>
<trkpt lat="41.9951771" lon="2.8253938999999946">
<ele>68.79997147787267</ele>
<time>2026-07-13T04:23:02.296Z</time>
</trkpt>
<trkpt lat="41.9952022" lon="2.825380899999999">
<ele>68.79157590604171</ele>
<time>2026-07-13T04:23:04.341Z</time>
</trkpt>
<trkpt lat="41.9952305" lon="2.825368499999996">
<ele>68.82415750677156</ele>
<time>2026-07-13T04:23:06.357Z</time>
</trkpt>
<trkpt lat="41.9952549" lon="2.8253521000000035">
<ele>68.72320262982781</ele>
<time>2026-07-13T04:23:08.395Z</time>
</trkpt>
<trkpt lat="41.9952805" lon="2.8253383999999926">
<ele>68.56788444783336</ele>
<time>2026-07-13T04:23:10.402Z</time>
</trkpt>
<trkpt lat="41.9953155" lon="2.8253330000000005">
<ele>68.36320934997327</ele>
<time>2026-07-13T04:23:12.455Z</time>
</trkpt>
<trkpt lat="41.9953412" lon="2.8253209000000084">
<ele>68.04949313128267</ele>
<time>2026-07-13T04:23:14.493Z</time>
</trkpt>
<trkpt lat="41.9953673" lon="2.825309400000009">
<ele>67.75555722542472</ele>
<time>2026-07-13T04:23:16.519Z</time>
</trkpt>
<trkpt lat="41.9953946" lon="2.825302300000004">
<ele>67.55089030859921</ele>
<time>2026-07-13T04:23:18.580Z</time>
</trkpt>
<trkpt lat="41.995422" lon="2.8252918999999963">
<ele>67.2812105154315</ele>
<time>2026-07-13T04:23:20.634Z</time>
</trkpt>
<trkpt lat="41.9954507" lon="2.825281799999999">
<ele>67.01953262716918</ele>
<time>2026-07-13T04:23:22.681Z</time>
</trkpt>
<trkpt lat="41.9954832" lon="2.8252708999999925">
<ele>66.73934560724261</ele>
<time>2026-07-13T04:23:24.807Z</time>
</trkpt>
<trkpt lat="41.9955086" lon="2.8252584999999897">
<ele>66.44699576132336</ele>
<time>2026-07-13T04:23:26.812Z</time>
</trkpt>
<trkpt lat="41.9955364" lon="2.8252516000000014">
<ele>66.26373677553032</ele>
<time>2026-07-13T04:23:28.820Z</time>
</trkpt>
<trkpt lat="41.9955675" lon="2.8252429000000063">
<ele>66.2417014355764</ele>
<time>2026-07-13T04:23:30.811Z</time>
</trkpt>
<trkpt lat="41.9955933" lon="2.8252237000000093">
<ele>66.1257003082936</ele>
<time>2026-07-13T04:23:32.920Z</time>
</trkpt>
<trkpt lat="41.9956205" lon="2.825206900000012">
<ele>66.08851243995376</ele>
<time>2026-07-13T04:23:34.960Z</time>
</trkpt>
<trkpt lat="41.9956501" lon="2.8251935000000117">
<ele>66.15529635530173</ele>
<time>2026-07-13T04:23:36.982Z</time>
</trkpt>
<trkpt lat="41.9956739" lon="2.8251768000000084">
<ele>66.12124139259281</ele>
<time>2026-07-13T04:23:38.823Z</time>
</trkpt>
<trkpt lat="41.9956986" lon="2.82514359999999">
<ele>65.84428953416689</ele>
<time>2026-07-13T04:23:41.057Z</time>
</trkpt>
<trkpt lat="41.9957277" lon="2.8251232000000073">
<ele>65.85768352924266</ele>
<time>2026-07-13T04:23:43.080Z</time>
</trkpt>
<trkpt lat="41.9957531" lon="2.8251035000000115">
<ele>65.86142698834776</ele>
<time>2026-07-13T04:23:45.479Z</time>
</trkpt>
<trkpt lat="41.9957776" lon="2.8250946">
<ele>66.03355281706034</ele>
<time>2026-07-13T04:23:47.518Z</time>
</trkpt>
<trkpt lat="41.9958134" lon="2.825092899999987">
<ele>66.45902148471208</ele>
<time>2026-07-13T04:23:49.817Z</time>
</trkpt>
<trkpt lat="41.9958384" lon="2.825087599999989">
<ele>66.64026807399215</ele>
<time>2026-07-13T04:23:51.719Z</time>
</trkpt>
<trkpt lat="41.995871" lon="2.8250751999999864">
<ele>66.6777697613825</ele>
<time>2026-07-13T04:23:53.635Z</time>
</trkpt>
<trkpt lat="41.9958934" lon="2.8250666000000138">
<ele>66.6846029936924</ele>
<time>2026-07-13T04:23:55.696Z</time>
</trkpt>
<trkpt lat="41.9959204" lon="2.8250505000000032">
<ele>66.57553581310155</ele>
<time>2026-07-13T04:23:57.719Z</time>
</trkpt>
<trkpt lat="41.9959413" lon="2.825033300000001">
<ele>66.3868928151499</ele>
<time>2026-07-13T04:23:59.592Z</time>
</trkpt>
<trkpt lat="41.9959648" lon="2.8250151000000017">
<ele>66.20653061868813</ele>
<time>2026-07-13T04:24:01.478Z</time>
</trkpt>
<trkpt lat="41.9959841" lon="2.8249937999999872">
<ele>65.94144519293319</ele>
<time>2026-07-13T04:24:03.518Z</time>
</trkpt>
<trkpt lat="41.9960049" lon="2.8249739000000034">
<ele>65.69126640231075</ele>
<time>2026-07-13T04:24:05.558Z</time>
</trkpt>
<trkpt lat="41.9960044" lon="2.8249600000000044">
<ele>65.45332940886807</ele>
<time>2026-07-13T04:24:07.569Z</time>
</trkpt>
<trkpt lat="41.9960118" lon="2.8249911000000054">
<ele>66.01226863712107</ele>
<time>2026-07-13T04:24:09.686Z</time>
</trkpt>
<trkpt lat="41.9960144" lon="2.8250017999999955">
<ele>66.2067038512564</ele>
<time>2026-07-13T04:24:11.517Z</time>
</trkpt>
<trkpt lat="41.9960483" lon="2.824983400000008">
<ele>66.02795581724834</ele>
<time>2026-07-13T04:24:19.719Z</time>
</trkpt>
<trkpt lat="41.9960519" lon="2.8249766000000136">
<ele>65.92129049071826</ele>
<time>2026-07-13T04:24:21.687Z</time>
</trkpt>
<trkpt lat="41.9960492" lon="2.824978399999992">
<ele>65.94270886302536</ele>
<time>2026-07-13T04:24:23.687Z</time>
</trkpt>
<trkpt lat="41.9960483" lon="2.824981600000001">
<ele>65.99598701213746</ele>
<time>2026-07-13T04:24:25.694Z</time>
</trkpt>
<trkpt lat="41.9960488" lon="2.8249805000000094">
<ele>65.978444378194</ele>
<time>2026-07-13T04:24:27.720Z</time>
</trkpt>
<trkpt lat="41.9960473" lon="2.8249831999999913">
<ele>66.02036792259103</ele>
<time>2026-07-13T04:24:29.686Z</time>
</trkpt>
<trkpt lat="41.9960474" lon="2.8249831999999913">
<ele>66.02077150311734</ele>
<time>2026-07-13T04:24:31.695Z</time>
</trkpt>
<trkpt lat="41.9960514" lon="2.8249666000000104">
<ele>65.741174757088</ele>
<time>2026-07-13T04:24:33.687Z</time>
</trkpt>
<trkpt lat="41.9960798" lon="2.8249390000000005">
<ele>65.34172189504805</ele>
<time>2026-07-13T04:24:35.686Z</time>
</trkpt>
<trkpt lat="41.9961043" lon="2.824926000000005">
<ele>65.17745979525021</ele>
<time>2026-07-13T04:24:37.686Z</time>
</trkpt>
<trkpt lat="41.9961262" lon="2.8249053000000117">
<ele>64.97007936330611</ele>
<time>2026-07-13T04:24:39.701Z</time>
</trkpt>
<trkpt lat="41.9961564" lon="2.824891100000002">
<ele>64.96320115038581</ele>
<time>2026-07-13T04:24:41.719Z</time>
</trkpt>
<trkpt lat="41.9961911" lon="2.824883099999994">
<ele>65.1108992130319</ele>
<time>2026-07-13T04:24:43.720Z</time>
</trkpt>
<trkpt lat="41.9962208" lon="2.824866600000007">
<ele>65.05336234657506</ele>
<time>2026-07-13T04:24:45.621Z</time>
</trkpt>
<trkpt lat="41.9962642" lon="2.824852099999987">
<ele>65.14940078693216</ele>
<time>2026-07-13T04:24:47.659Z</time>
</trkpt>
<trkpt lat="41.9962879" lon="2.8248465000000067">
<ele>65.24520233233939</ele>
<time>2026-07-13T04:24:49.658Z</time>
</trkpt>
<trkpt lat="41.9963189" lon="2.8248370999999963">
<ele>65.33009804493099</ele>
<time>2026-07-13T04:24:51.719Z</time>
</trkpt>
<trkpt lat="41.9963463" lon="2.8248259000000076">
<ele>65.34880801871152</ele>
<time>2026-07-13T04:24:53.720Z</time>
</trkpt>
<trkpt lat="41.9963769" lon="2.8248187000000087">
<ele>65.47062081236199</ele>
<time>2026-07-13T04:24:55.804Z</time>
</trkpt>
<trkpt lat="41.9964002" lon="2.8248048000000097">
<ele>65.45466172741622</ele>
<time>2026-07-13T04:24:57.720Z</time>
</trkpt>
<trkpt lat="41.9964265" lon="2.824787100000009">
<ele>65.40220399930563</ele>
<time>2026-07-13T04:24:59.719Z</time>
</trkpt>
<trkpt lat="41.9964509" lon="2.8247742000000073">
<ele>65.40426942535377</ele>
<time>2026-07-13T04:25:01.719Z</time>
</trkpt>
<trkpt lat="41.9964768" lon="2.824757699999992">
<ele>65.32522150275155</ele>
<time>2026-07-13T04:25:03.722Z</time>
</trkpt>
<trkpt lat="41.9965051" lon="2.8247398000000032">
<ele>65.3785266925663</ele>
<time>2026-07-13T04:25:05.719Z</time>
</trkpt>
<trkpt lat="41.996523" lon="2.824728300000004">
<ele>65.39720238210097</ele>
<time>2026-07-13T04:25:07.749Z</time>
</trkpt>
<trkpt lat="41.9965237" lon="2.8247135999999955">
<ele>65.20349193397189</ele>
<time>2026-07-13T04:25:09.687Z</time>
</trkpt>
<trkpt lat="41.9965447" lon="2.8246977999999956">
<ele>65.16060264408584</ele>
<time>2026-07-13T04:25:11.719Z</time>
</trkpt>
<trkpt lat="41.9965628" lon="2.824688199999997">
<ele>65.16432974279137</ele>
<time>2026-07-13T04:25:13.720Z</time>
</trkpt>
<trkpt lat="41.9965824" lon="2.8246818000000076">
<ele>65.21690844477872</ele>
<time>2026-07-13T04:25:15.720Z</time>
</trkpt>
<trkpt lat="41.9966044" lon="2.824679400000008">
<ele>65.34435468255269</ele>
<time>2026-07-13T04:25:17.719Z</time>
</trkpt>
<trkpt lat="41.9966252" lon="2.824681499999997">
<ele>65.53732660711627</ele>
<time>2026-07-13T04:25:19.722Z</time>
</trkpt>
<trkpt lat="41.9966516" lon="2.8246733000000006">
<ele>65.58694902207584</ele>
<time>2026-07-13T04:25:21.720Z</time>
</trkpt>
<trkpt lat="41.9966785" lon="2.8246627999999987">
<ele>65.69106514926762</ele>
<time>2026-07-13T04:25:23.750Z</time>
</trkpt>
<trkpt lat="41.9967005" lon="2.8246508000000006">
<ele>65.76321459584616</ele>
<time>2026-07-13T04:25:25.686Z</time>
</trkpt>
<trkpt lat="41.9967274" lon="2.82464250000001">
<ele>65.96899104825962</ele>
<time>2026-07-13T04:25:27.778Z</time>
</trkpt>
<trkpt lat="41.9967528" lon="2.8246321000000023">
<ele>66.11033541170626</ele>
<time>2026-07-13T04:25:29.720Z</time>
</trkpt>
<trkpt lat="41.9967783" lon="2.8246283000000005">
<ele>66.37886566949817</ele>
<time>2026-07-13T04:25:31.719Z</time>
</trkpt>
<trkpt lat="41.9968003" lon="2.824618600000008">
<ele>66.48205878448218</ele>
<time>2026-07-13T04:25:33.597Z</time>
</trkpt>
<trkpt lat="41.9968237" lon="2.8246032000000127">
<ele>66.48667250222138</ele>
<time>2026-07-13T04:25:35.578Z</time>
</trkpt>
<trkpt lat="41.9968395" lon="2.8245933999999977">
<ele>66.49879166423514</ele>
<time>2026-07-13T04:25:37.401Z</time>
</trkpt>
<trkpt lat="41.9968754" lon="2.8245834999999886">
<ele>66.76987705861427</ele>
<time>2026-07-13T04:25:39.702Z</time>
</trkpt>
<trkpt lat="41.9969019" lon="2.8245748999999876">
<ele>66.93999127655304</ele>
<time>2026-07-13T04:25:41.719Z</time>
</trkpt>
<trkpt lat="41.996932" lon="2.824565799999988">
<ele>67.14300683665887</ele>
<time>2026-07-13T04:25:43.796Z</time>
</trkpt>
<trkpt lat="41.996955" lon="2.8245583000000067">
<ele>67.26023242177885</ele>
<time>2026-07-13T04:25:45.720Z</time>
</trkpt>
<trkpt lat="41.9969816" lon="2.824549499999989">
<ele>67.37739709429563</ele>
<time>2026-07-13T04:25:47.719Z</time>
</trkpt>
<trkpt lat="41.9970091" lon="2.824552799999992">
<ele>67.75732664472368</ele>
<time>2026-07-13T04:25:49.596Z</time>
</trkpt>
<trkpt lat="41.997026" lon="2.8245541000000003">
<ele>67.97562503825328</ele>
<time>2026-07-13T04:25:51.579Z</time>
</trkpt>
<trkpt lat="41.9970412" lon="2.824510900000007">
<ele>67.24503748801213</ele>
<time>2026-07-13T04:25:53.686Z</time>
</trkpt>
<trkpt lat="41.9970749" lon="2.824505799999997">
<ele>67.51928262883135</ele>
<time>2026-07-13T04:25:55.686Z</time>
</trkpt>
<trkpt lat="41.9971069" lon="2.8245073999999875">
<ele>67.91431541661784</ele>
<time>2026-07-13T04:25:57.686Z</time>
</trkpt>
<trkpt lat="41.9971368" lon="2.8245033000000035">
<ele>68.1664345701155</ele>
<time>2026-07-13T04:25:59.686Z</time>
</trkpt>
<trkpt lat="41.9971692" lon="2.8245001999999886">
<ele>68.46766285943862</ele>
<time>2026-07-13T04:26:01.765Z</time>
</trkpt>
<trkpt lat="41.9971934" lon="2.824497100000002">
<ele>68.67620576928871</ele>
<time>2026-07-13T04:26:03.700Z</time>
</trkpt>
<trkpt lat="41.9972228" lon="2.8244909000000007">
<ele>68.83930908736266</ele>
<time>2026-07-13T04:26:05.716Z</time>
</trkpt>
<trkpt lat="41.9972505" lon="2.824471399999993">
<ele>68.47433943250964</ele>
<time>2026-07-13T04:26:07.686Z</time>
</trkpt>
<trkpt lat="41.9972772" lon="2.8244597000000056">
<ele>68.26618564342014</ele>
<time>2026-07-13T04:26:09.720Z</time>
</trkpt>
<trkpt lat="41.9973045" lon="2.8244525000000067">
<ele>68.18052594336827</ele>
<time>2026-07-13T04:26:11.758Z</time>
</trkpt>
<trkpt lat="41.9973325" lon="2.8244416">
<ele>68.02449083880795</ele>
<time>2026-07-13T04:26:13.719Z</time>
</trkpt>
<trkpt lat="41.9973588" lon="2.8244291000000032">
<ele>67.84327206047571</ele>
<time>2026-07-13T04:26:15.719Z</time>
</trkpt>
<trkpt lat="41.997387" lon="2.8244185000000073">
<ele>67.72691186565248</ele>
<time>2026-07-13T04:26:17.720Z</time>
</trkpt>
<trkpt lat="41.9974197" lon="2.82440059999999">
<ele>67.49851323652423</ele>
<time>2026-07-13T04:26:19.687Z</time>
</trkpt>
<trkpt lat="41.9974417" lon="2.8243955000000085">
<ele>67.49796628138783</ele>
<time>2026-07-13T04:26:21.595Z</time>
</trkpt>
<trkpt lat="41.9974686" lon="2.824387300000012">
<ele>67.46818962666393</ele>
<time>2026-07-13T04:26:23.541Z</time>
</trkpt>
<trkpt lat="41.9974961" lon="2.8243803999999955">
<ele>67.4765797738271</ele>
<time>2026-07-13T04:26:25.576Z</time>
</trkpt>
<trkpt lat="41.9975245" lon="2.824379499999992">
<ele>67.54173800534022</ele>
<time>2026-07-13T04:26:27.559Z</time>
</trkpt>
<trkpt lat="41.997554" lon="2.824377999999996">
<ele>67.59826892228689</ele>
<time>2026-07-13T04:26:29.557Z</time>
</trkpt>
<trkpt lat="41.9975852" lon="2.824379599999986">
<ele>67.71572005925296</ele>
<time>2026-07-13T04:26:31.618Z</time>
</trkpt>
<trkpt lat="41.9976126" lon="2.824380600000012">
<ele>67.8114858667925</ele>
<time>2026-07-13T04:26:33.638Z</time>
</trkpt>
<trkpt lat="41.9976419" lon="2.824383399999988">
<ele>67.94503505710058</ele>
<time>2026-07-13T04:26:35.661Z</time>
</trkpt>
<trkpt lat="41.9976735" lon="2.824387999999999">
<ele>68.11735444322902</ele>
<time>2026-07-13T04:26:37.700Z</time>
</trkpt>
<trkpt lat="41.9976992" lon="2.824389999999994">
<ele>68.22602282450646</ele>
<time>2026-07-13T04:26:39.720Z</time>
</trkpt>
<trkpt lat="41.9977276" lon="2.8243942999999945">
<ele>68.38352697042856</ele>
<time>2026-07-13T04:26:41.719Z</time>
</trkpt>
<trkpt lat="41.9977561" lon="2.824399199999988">
<ele>68.55186722108027</ele>
<time>2026-07-13T04:26:43.720Z</time>
</trkpt>
<trkpt lat="41.9977846" lon="2.824403600000011">
<ele>68.76080561028384</ele>
<time>2026-07-13T04:26:45.720Z</time>
</trkpt>
<trkpt lat="41.9978108" lon="2.82440729999999">
<ele>69.03144235737057</ele>
<time>2026-07-13T04:26:47.692Z</time>
</trkpt>
<trkpt lat="41.9978416" lon="2.8244113000000084">
<ele>69.34163426179921</ele>
<time>2026-07-13T04:26:49.719Z</time>
</trkpt>
<trkpt lat="41.9978671" lon="2.8244076999999947">
<ele>69.47805841105416</ele>
<time>2026-07-13T04:26:51.722Z</time>
</trkpt>
<trkpt lat="41.9978927" lon="2.8244076999999947">
<ele>69.67792937382858</ele>
<time>2026-07-13T04:26:53.737Z</time>
</trkpt>
<trkpt lat="41.9979208" lon="2.824411199999986">
<ele>69.95614758967942</ele>
<time>2026-07-13T04:26:55.800Z</time>
</trkpt>
<trkpt lat="41.9979441" lon="2.8244089000000088">
<ele>70.09919110917454</ele>
<time>2026-07-13T04:26:57.719Z</time>
</trkpt>
<trkpt lat="41.9979699" lon="2.8244074000000126">
<ele>70.27573421175427</ele>
<time>2026-07-13T04:26:59.720Z</time>
</trkpt>
<trkpt lat="41.9979815" lon="2.824393399999991">
<ele>70.1374405290114</ele>
<time>2026-07-13T04:27:01.687Z</time>
</trkpt>
<trkpt lat="41.9979992" lon="2.824397199999993">
<ele>70.33916467546761</ele>
<time>2026-07-13T04:27:03.579Z</time>
</trkpt>
<trkpt lat="41.9980374" lon="2.8244153999999924">
<ele>70.93030058564749</ele>
<time>2026-07-13T04:27:05.613Z</time>
</trkpt>
<trkpt lat="41.998069" lon="2.8244173999999873">
<ele>71.04412453498428</ele>
<time>2026-07-13T04:27:07.477Z</time>
</trkpt>
<trkpt lat="41.9981084" lon="2.8244225999999912">
<ele>71.02870355216082</ele>
<time>2026-07-13T04:27:09.679Z</time>
</trkpt>
<trkpt lat="41.9981328" lon="2.824429500000008">
<ele>71.06683560767317</ele>
<time>2026-07-13T04:27:11.679Z</time>
</trkpt>
<trkpt lat="41.9981618" lon="2.8244324000000063">
<ele>71.03128522702721</ele>
<time>2026-07-13T04:27:13.719Z</time>
</trkpt>
<trkpt lat="41.9981934" lon="2.824430299999989">
<ele>70.9208929030465</ele>
<time>2026-07-13T04:27:15.784Z</time>
</trkpt>
<trkpt lat="41.9982231" lon="2.824426399999993">
<ele>70.79611177995848</ele>
<time>2026-07-13T04:27:17.793Z</time>
</trkpt>
<trkpt lat="41.9982539" lon="2.8244200000000035">
<ele>70.64455152666162</ele>
<time>2026-07-13T04:27:19.721Z</time>
</trkpt>
<trkpt lat="41.9982868" lon="2.824415899999991">
<ele>70.52161960356193</ele>
<time>2026-07-13T04:27:21.719Z</time>
</trkpt>
<trkpt lat="41.9983235" lon="2.8244100999999944">
<ele>70.37875357797633</ele>
<time>2026-07-13T04:27:23.753Z</time>
</trkpt>
<trkpt lat="41.9983526" lon="2.824407100000002">
<ele>70.35028164757578</ele>
<time>2026-07-13T04:27:25.767Z</time>
</trkpt>
<trkpt lat="41.9983821" lon="2.8244029999999896">
<ele>70.3311144100546</ele>
<time>2026-07-13T04:27:27.719Z</time>
</trkpt>
<trkpt lat="41.9984159" lon="2.824396799999988">
<ele>70.28900151283057</ele>
<time>2026-07-13T04:27:29.720Z</time>
</trkpt>
<trkpt lat="41.9984482" lon="2.824391999999989">
<ele>70.25680584844278</ele>
<time>2026-07-13T04:27:31.719Z</time>
</trkpt>
<trkpt lat="41.9984772" lon="2.8243836000000044">
<ele>70.17662309189946</ele>
<time>2026-07-13T04:27:33.726Z</time>
</trkpt>
<trkpt lat="41.9985058" lon="2.8243758000000128">
<ele>70.09759094772498</ele>
<time>2026-07-13T04:27:35.719Z</time>
</trkpt>
<trkpt lat="41.9985361" lon="2.824362199999996">
<ele>69.94140639847808</ele>
<time>2026-07-13T04:27:37.737Z</time>
</trkpt>
<trkpt lat="41.9985636" lon="2.824344999999994">
<ele>69.72879063553613</ele>
<time>2026-07-13T04:27:39.796Z</time>
</trkpt>
<trkpt lat="41.9985899" lon="2.8243420000000015">
<ele>69.69115492776602</ele>
<time>2026-07-13T04:27:41.719Z</time>
</trkpt>
<trkpt lat="41.9986209" lon="2.824343199999987">
<ele>69.70853150142844</ele>
<time>2026-07-13T04:27:43.734Z</time>
</trkpt>
<trkpt lat="41.998651" lon="2.8243458999999973">
<ele>69.7472271948676</ele>
<time>2026-07-13T04:27:45.720Z</time>
</trkpt>
<trkpt lat="41.9986798" lon="2.8243468000000007">
<ele>69.76194891263866</ele>
<time>2026-07-13T04:27:47.717Z</time>
</trkpt>
<trkpt lat="41.9987141" lon="2.824348399999991">
<ele>69.78720820403292</ele>
<time>2026-07-13T04:27:49.741Z</time>
</trkpt>
<trkpt lat="41.9987394" lon="2.824349699999999">
<ele>69.8079096092261</ele>
<time>2026-07-13T04:27:51.740Z</time>
</trkpt>
<trkpt lat="41.9987672" lon="2.8243486000000075">
<ele>69.79511658577977</ele>
<time>2026-07-13T04:27:53.721Z</time>
</trkpt>
<trkpt lat="41.9987961" lon="2.8243487999999957">
<ele>69.80078003976554</ele>
<time>2026-07-13T04:27:55.696Z</time>
</trkpt>
<trkpt lat="41.9988248" lon="2.8243511000000012">
<ele>69.83700936387778</ele>
<time>2026-07-13T04:27:57.677Z</time>
</trkpt>
<trkpt lat="41.9988509" lon="2.824356300000005">
<ele>69.91620435089486</ele>
<time>2026-07-13T04:27:59.638Z</time>
</trkpt>
<trkpt lat="41.9988779" lon="2.8243584999999882">
<ele>69.95255862032586</ele>
<time>2026-07-13T04:28:01.641Z</time>
</trkpt>
<trkpt lat="41.9989054" lon="2.824358200000006">
<ele>69.97393318995825</ele>
<time>2026-07-13T04:28:03.599Z</time>
</trkpt>
<trkpt lat="41.9989299" lon="2.8243576000000132">
<ele>69.99774799643393</ele>
<time>2026-07-13T04:28:05.538Z</time>
</trkpt>
<trkpt lat="41.9989548" lon="2.824362100000002">
<ele>70.10274699605321</ele>
<time>2026-07-13T04:28:07.499Z</time>
</trkpt>
<trkpt lat="41.998993" lon="2.824366700000013">
<ele>70.23248272405169</ele>
<time>2026-07-13T04:28:09.497Z</time>
</trkpt>
<trkpt lat="41.9990145" lon="2.8243680999999867">
<ele>70.28786499941799</ele>
<time>2026-07-13T04:28:11.456Z</time>
</trkpt>
<trkpt lat="41.9990408" lon="2.8243665999999905">
<ele>70.30157214292818</ele>
<time>2026-07-13T04:28:13.481Z</time>
</trkpt>
<trkpt lat="41.9990689" lon="2.824366199999986">
<ele>70.33610208829029</ele>
<time>2026-07-13T04:28:15.479Z</time>
</trkpt>
<trkpt lat="41.9991057" lon="2.8243650999999943">
<ele>70.3703227997759</ele>
<time>2026-07-13T04:28:17.720Z</time>
</trkpt>
<trkpt lat="41.999132" lon="2.824365300000011">
<ele>70.41236263678437</ele>
<time>2026-07-13T04:28:19.740Z</time>
</trkpt>
<trkpt lat="41.9991589" lon="2.824368700000008">
<ele>70.51625230261021</ele>
<time>2026-07-13T04:28:21.738Z</time>
</trkpt>
<trkpt lat="41.9991946" lon="2.8243711000000076">
<ele>70.5630019502869</ele>
<time>2026-07-13T04:28:23.720Z</time>
</trkpt>
<trkpt lat="41.9992215" lon="2.824372799999992">
<ele>70.58414329009337</ele>
<time>2026-07-13T04:28:25.718Z</time>
</trkpt>
<trkpt lat="41.9992473" lon="2.8243750999999975">
<ele>70.61287862376045</ele>
<time>2026-07-13T04:28:27.719Z</time>
</trkpt>
<trkpt lat="41.9992813" lon="2.8243711000000076">
<ele>70.53591290498453</ele>
<time>2026-07-13T04:28:29.720Z</time>
</trkpt>
<trkpt lat="41.9993058" lon="2.8243704999999864">
<ele>70.51938740180346</ele>
<time>2026-07-13T04:28:31.720Z</time>
</trkpt>
<trkpt lat="41.9993325" lon="2.824370600000009">
<ele>70.51293460532557</ele>
<time>2026-07-13T04:28:33.734Z</time>
</trkpt>
<trkpt lat="41.9993606" lon="2.824373900000012">
<ele>70.5478072741698</ele>
<time>2026-07-13T04:28:35.743Z</time>
</trkpt>
<trkpt lat="41.9993876" lon="2.824374199999994">
<ele>70.54072301201339</ele>
<time>2026-07-13T04:28:37.719Z</time>
</trkpt>
<trkpt lat="41.9993963" lon="2.824358899999993">
<ele>70.35361066390182</ele>
<time>2026-07-13T04:28:39.686Z</time>
</trkpt>
<trkpt lat="41.9994194" lon="2.824367300000006">
<ele>70.44987611595876</ele>
<time>2026-07-13T04:28:41.720Z</time>
</trkpt>
<trkpt lat="41.9994834" lon="2.824391800000001">
<ele>70.73546560205641</ele>
<time>2026-07-13T04:28:45.600Z</time>
</trkpt>
<trkpt lat="41.9995111" lon="2.8243857999999875">
<ele>70.69580873266918</ele>
<time>2026-07-13T04:28:47.496Z</time>
</trkpt>
<trkpt lat="41.9995523" lon="2.8243778000000077">
<ele>70.64805916309287</ele>
<time>2026-07-13T04:28:49.687Z</time>
</trkpt>
<trkpt lat="41.999578" lon="2.8243736999999953">
<ele>70.62827883344448</ele>
<time>2026-07-13T04:28:51.719Z</time>
</trkpt>
<trkpt lat="41.9996068" lon="2.8243606999999997">
<ele>70.5222390100885</ele>
<time>2026-07-13T04:28:53.758Z</time>
</trkpt>
<trkpt lat="41.9996429" lon="2.8243501000000037">
<ele>70.44911787154466</ele>
<time>2026-07-13T04:28:55.719Z</time>
</trkpt>
<trkpt lat="41.9996932" lon="2.824347700000004">
<ele>70.47233641528996</ele>
<time>2026-07-13T04:28:59.559Z</time>
</trkpt>
<trkpt lat="41.9997251" lon="2.824347799999998">
<ele>70.48750032611662</ele>
<time>2026-07-13T04:29:01.557Z</time>
</trkpt>
<trkpt lat="41.9997607" lon="2.824348100000009">
<ele>70.35266527574653</ele>
<time>2026-07-13T04:29:03.520Z</time>
</trkpt>
<trkpt lat="41.9997923" lon="2.8243453999999986">
<ele>70.20307705894177</ele>
<time>2026-07-13T04:29:05.521Z</time>
</trkpt>
<trkpt lat="41.9998248" lon="2.8243426999999883">
<ele>70.04905233543361</ele>
<time>2026-07-13T04:29:07.538Z</time>
</trkpt>
<trkpt lat="41.9998602" lon="2.824344300000007">
<ele>69.9278002119247</ele>
<time>2026-07-13T04:29:09.758Z</time>
</trkpt>
<trkpt lat="41.9998873" lon="2.8243439999999964">
<ele>69.81918392690179</ele>
<time>2026-07-13T04:29:11.720Z</time>
</trkpt>
<trkpt lat="41.9999179" lon="2.824342300000012">
<ele>69.68173683061593</ele>
<time>2026-07-13T04:29:13.580Z</time>
</trkpt>
<trkpt lat="41.9999587" lon="2.824339600000002">
<ele>69.49281992744864</ele>
<time>2026-07-13T04:29:15.575Z</time>
</trkpt>
<trkpt lat="41.999987" lon="2.8243361000000107">
<ele>69.3428995877573</ele>
<time>2026-07-13T04:29:17.719Z</time>
</trkpt>
<trkpt lat="42.0000464" lon="2.8243333000000064">
<ele>69.78354934072344</ele>
<time>2026-07-13T04:29:21.582Z</time>
</trkpt>
<trkpt lat="42.0000853" lon="2.8243314999999996">
<ele>69.76305469751021</ele>
<time>2026-07-13T04:29:23.562Z</time>
</trkpt>
<trkpt lat="42.0001121" lon="2.8243294000000105">
<ele>69.739144280429</ele>
<time>2026-07-13T04:29:25.601Z</time>
</trkpt>
<trkpt lat="42.0001388" lon="2.824328600000001">
<ele>69.73003555011256</ele>
<time>2026-07-13T04:29:27.597Z</time>
</trkpt>
<trkpt lat="42.000173" lon="2.8243280000000084">
<ele>69.72320400237649</ele>
<time>2026-07-13T04:29:29.618Z</time>
</trkpt>
<trkpt lat="42.0001976" lon="2.824325799999997">
<ele>69.6981549940076</ele>
<time>2026-07-13T04:29:31.641Z</time>
</trkpt>
<trkpt lat="42.0002239" lon="2.8243229999999926">
<ele>69.66627443790266</ele>
<time>2026-07-13T04:29:33.614Z</time>
</trkpt>
<trkpt lat="42.0002566" lon="2.824320400000005">
<ele>69.636671064373</ele>
<time>2026-07-13T04:29:35.619Z</time>
</trkpt>
<trkpt lat="42.0002829" lon="2.824317900000011">
<ele>69.61915911878104</ele>
<time>2026-07-13T04:29:37.681Z</time>
</trkpt>
<trkpt lat="42.0003067" lon="2.8243160000000103">
<ele>69.65375095217296</ele>
<time>2026-07-13T04:29:39.641Z</time>
</trkpt>
<trkpt lat="42.0003342" lon="2.8243142000000034">
<ele>69.70019452341877</ele>
<time>2026-07-13T04:29:41.662Z</time>
</trkpt>
<trkpt lat="42.0003593" lon="2.8243157999999937">
<ele>69.77565611282978</ele>
<time>2026-07-13T04:29:43.676Z</time>
</trkpt>
<trkpt lat="42.0003806" lon="2.824318000000005">
<ele>69.84602847364513</ele>
<time>2026-07-13T04:29:45.657Z</time>
</trkpt>
<trkpt lat="42.0004089" lon="2.8243211999999858">
<ele>69.93873154590176</ele>
<time>2026-07-13T04:29:47.642Z</time>
</trkpt>
<trkpt lat="42.000426" lon="2.824327399999987">
<ele>70.02765939387777</ele>
<time>2026-07-13T04:29:49.622Z</time>
</trkpt>
<trkpt lat="42.0004511" lon="2.8243334999999945">
<ele>70.12696667661439</ele>
<time>2026-07-13T04:29:51.595Z</time>
</trkpt>
<trkpt lat="42.0004861" lon="2.8243358">
<ele>70.21177031776315</ele>
<time>2026-07-13T04:29:53.561Z</time>
</trkpt>
<trkpt lat="42.0005093" lon="2.8243399000000124">
<ele>70.28239471177467</ele>
<time>2026-07-13T04:29:55.559Z</time>
</trkpt>
<trkpt lat="42.0005376" lon="2.824343199999987">
<ele>70.35318074370234</ele>
<time>2026-07-13T04:29:57.660Z</time>
</trkpt>
<trkpt lat="42.0005648" lon="2.824342999999999">
<ele>70.35916567908713</ele>
<time>2026-07-13T04:29:59.697Z</time>
</trkpt>
<trkpt lat="42.0005988" lon="2.824341099999998">
<ele>70.24354077329987</ele>
<time>2026-07-13T04:30:01.719Z</time>
</trkpt>
<trkpt lat="42.0006235" lon="2.8243361000000107">
<ele>70.13453284696817</ele>
<time>2026-07-13T04:30:03.787Z</time>
</trkpt>
<trkpt lat="42.0006482" lon="2.824333899999999">
<ele>70.04060718444252</ele>
<time>2026-07-13T04:30:05.720Z</time>
</trkpt>
<trkpt lat="42.0006837" lon="2.8243387999999925">
<ele>69.96334592336049</ele>
<time>2026-07-13T04:30:07.809Z</time>
</trkpt>
<trkpt lat="42.0007057" lon="2.82433979999999">
<ele>69.90232973219179</ele>
<time>2026-07-13T04:30:09.679Z</time>
</trkpt>
<trkpt lat="42.0007304" lon="2.824337000000014">
<ele>69.8017736599566</ele>
<time>2026-07-13T04:30:11.699Z</time>
</trkpt>
<trkpt lat="42.0007596" lon="2.824334300000004">
<ele>69.68518019370637</ele>
<time>2026-07-13T04:30:13.702Z</time>
</trkpt>
<trkpt lat="42.0007883" lon="2.8243309000000067">
<ele>69.5608191012349</ele>
<time>2026-07-13T04:30:15.699Z</time>
</trkpt>
<trkpt lat="42.0008186" lon="2.8243276000000037">
<ele>69.42865758886317</ele>
<time>2026-07-13T04:30:17.697Z</time>
</trkpt>
<trkpt lat="42.0008581" lon="2.8243260000000134">
<ele>69.40325124871914</ele>
<time>2026-07-13T04:30:19.680Z</time>
</trkpt>
<trkpt lat="42.0008873" lon="2.824326500000012">
<ele>69.46244147199235</ele>
<time>2026-07-13T04:30:21.679Z</time>
</trkpt>
<trkpt lat="42.0009187" lon="2.8243287999999893">
<ele>69.54179760191259</ele>
<time>2026-07-13T04:30:23.661Z</time>
</trkpt>
<trkpt lat="42.000952" lon="2.824325799999997">
<ele>69.57647151132112</ele>
<time>2026-07-13T04:30:25.731Z</time>
</trkpt>
<trkpt lat="42.0009765" lon="2.8243233999999973">
<ele>69.60202869340863</ele>
<time>2026-07-13T04:30:27.605Z</time>
</trkpt>
<trkpt lat="42.0010024" lon="2.8243214999999964">
<ele>69.63585170255875</ele>
<time>2026-07-13T04:30:29.576Z</time>
</trkpt>
<trkpt lat="42.0010368" lon="2.824327299999993">
<ele>69.74611858747183</ele>
<time>2026-07-13T04:30:31.775Z</time>
</trkpt>
<trkpt lat="42.0010646" lon="2.8243299000000093">
<ele>69.81629345983264</ele>
<time>2026-07-13T04:30:33.719Z</time>
</trkpt>
<trkpt lat="42.0010918" lon="2.8243353000000013">
<ele>69.90281626296535</ele>
<time>2026-07-13T04:30:35.719Z</time>
</trkpt>
<trkpt lat="42.0011202" lon="2.8243381999999997">
<ele>69.97759457276348</ele>
<time>2026-07-13T04:30:37.801Z</time>
</trkpt>
<trkpt lat="42.0011449" lon="2.824341299999986">
<ele>70.06044236321299</ele>
<time>2026-07-13T04:30:39.719Z</time>
</trkpt>
<trkpt lat="42.0011699" lon="2.8243368999999916">
<ele>70.09631268106612</ele>
<time>2026-07-13T04:30:41.720Z</time>
</trkpt>
<trkpt lat="42.001194" lon="2.8243358">
<ele>70.15136291084298</ele>
<time>2026-07-13T04:30:43.620Z</time>
</trkpt>
<trkpt lat="42.0012262" lon="2.824339199999997">
<ele>70.25387316595186</ele>
<time>2026-07-13T04:30:45.637Z</time>
</trkpt>
<trkpt lat="42.0012552" lon="2.82433979999999">
<ele>70.33103673044728</ele>
<time>2026-07-13T04:30:47.620Z</time>
</trkpt>
<trkpt lat="42.0012824" lon="2.8243401000000006">
<ele>70.4017616968845</ele>
<time>2026-07-13T04:30:49.601Z</time>
</trkpt>
<trkpt lat="42.0013077" lon="2.82434090000001">
<ele>70.4701831075989</ele>
<time>2026-07-13T04:30:51.584Z</time>
</trkpt>
<trkpt lat="42.001333" lon="2.824340400000011">
<ele>70.53171604017649</ele>
<time>2026-07-13T04:30:53.558Z</time>
</trkpt>
<trkpt lat="42.0013596" lon="2.824341299999986">
<ele>70.60358054740139</ele>
<time>2026-07-13T04:30:55.538Z</time>
</trkpt>
<trkpt lat="42.001382" lon="2.824339000000009">
<ele>70.64934813906686</ele>
<time>2026-07-13T04:30:57.805Z</time>
</trkpt>
<trkpt lat="42.0014039" lon="2.824348200000003">
<ele>70.7084815719232</ele>
<time>2026-07-13T04:30:59.728Z</time>
</trkpt>
<trkpt lat="42.0014381" lon="2.8243552000000136">
<ele>70.7271254174508</ele>
<time>2026-07-13T04:31:01.720Z</time>
</trkpt>
<trkpt lat="42.0014643" lon="2.824354900000003">
<ele>70.71422504412791</ele>
<time>2026-07-13T04:31:03.720Z</time>
</trkpt>
<trkpt lat="42.001494" lon="2.824356300000005">
<ele>70.70895737841137</ele>
<time>2026-07-13T04:31:05.731Z</time>
</trkpt>
<trkpt lat="42.001521" lon="2.8243576000000132">
<ele>70.70487048086378</ele>
<time>2026-07-13T04:31:07.719Z</time>
</trkpt>
<trkpt lat="42.001547" lon="2.8243578000000014">
<ele>70.69527259227122</ele>
<time>2026-07-13T04:31:09.719Z</time>
</trkpt>
<trkpt lat="42.0015882" lon="2.824362100000002">
<ele>70.70481762805952</ele>
<time>2026-07-13T04:31:11.719Z</time>
</trkpt>
<trkpt lat="42.00163" lon="2.824366900000001">
<ele>70.72008755283318</ele>
<time>2026-07-13T04:31:13.720Z</time>
</trkpt>
<trkpt lat="42.0016879" lon="2.824376000000001">
<ele>70.76531459174886</ele>
<time>2026-07-13T04:31:15.813Z</time>
</trkpt>
<trkpt lat="42.0017231" lon="2.824380600000012">
<ele>70.79320760206147</ele>
<time>2026-07-13T04:31:17.734Z</time>
</trkpt>
<trkpt lat="42.0017545" lon="2.824376099999995">
<ele>70.75503717557427</ele>
<time>2026-07-13T04:31:19.719Z</time>
</trkpt>
<trkpt lat="42.0017869" lon="2.8243715000000122">
<ele>70.71301088819263</ele>
<time>2026-07-13T04:31:21.719Z</time>
</trkpt>
<trkpt lat="42.0018176" lon="2.8243697000000054">
<ele>70.6916157560511</ele>
<time>2026-07-13T04:31:23.720Z</time>
</trkpt>
<trkpt lat="42.0018583" lon="2.824368899999996">
<ele>70.67532743269803</ele>
<time>2026-07-13T04:31:25.728Z</time>
</trkpt>
<trkpt lat="42.0019015" lon="2.8243821000000082">
<ele>70.78559523906952</ele>
<time>2026-07-13T04:31:27.719Z</time>
</trkpt>
<trkpt lat="42.0019322" lon="2.8243950000000098">
<ele>70.90416644920961</ele>
<time>2026-07-13T04:31:29.720Z</time>
</trkpt>
<trkpt lat="42.001963" lon="2.824403799999999">
<ele>70.96083463124128</ele>
<time>2026-07-13T04:31:31.720Z</time>
</trkpt>
<trkpt lat="42.0019946" lon="2.824406900000014">
<ele>70.93273627709695</ele>
<time>2026-07-13T04:31:33.754Z</time>
</trkpt>
<trkpt lat="42.0020302" lon="2.8244015999999874">
<ele>70.82277401909792</ele>
<time>2026-07-13T04:31:35.769Z</time>
</trkpt>
<trkpt lat="42.0020665" lon="2.824401300000005">
<ele>70.75692277720194</ele>
<time>2026-07-13T04:31:37.785Z</time>
</trkpt>
<trkpt lat="42.0021042" lon="2.824399800000009">
<ele>70.6796802260431</ele>
<time>2026-07-13T04:31:39.719Z</time>
</trkpt>
<trkpt lat="42.0021398" lon="2.824397299999987">
<ele>70.60014353927973</ele>
<time>2026-07-13T04:31:41.720Z</time>
</trkpt>
<trkpt lat="42.0021667" lon="2.824396699999994">
<ele>70.55040410877089</ele>
<time>2026-07-13T04:31:43.720Z</time>
</trkpt>
<trkpt lat="42.0021808" lon="2.8243995999999925">
<ele>70.54619870699317</ele>
<time>2026-07-13T04:31:45.720Z</time>
</trkpt>
<trkpt lat="42.0021952" lon="2.824401300000005">
<ele>70.53257847541958</ele>
<time>2026-07-13T04:31:47.720Z</time>
</trkpt>
<trkpt lat="42.0021984" lon="2.824395199999998">
<ele>70.4871065147767</ele>
<time>2026-07-13T04:31:49.719Z</time>
</trkpt>
<trkpt lat="42.0022245" lon="2.8243966">
<ele>70.4522554609419</ele>
<time>2026-07-13T04:31:51.720Z</time>
</trkpt>
<trkpt lat="42.0022545" lon="2.824399999999997">
<ele>70.43383097414853</ele>
<time>2026-07-13T04:31:53.792Z</time>
</trkpt>
<trkpt lat="42.0022828" lon="2.824399199999988">
<ele>70.39142471552614</ele>
<time>2026-07-13T04:31:55.803Z</time>
</trkpt>
<trkpt lat="42.0023058" lon="2.824396400000012">
<ele>70.34173031125638</ele>
<time>2026-07-13T04:31:57.740Z</time>
</trkpt>
<trkpt lat="42.002333" lon="2.824393100000009">
<ele>70.28153430984455</ele>
<time>2026-07-13T04:31:59.714Z</time>
</trkpt>
<trkpt lat="42.0023614" lon="2.8243856999999934">
<ele>70.18749194617676</ele>
<time>2026-07-13T04:32:01.682Z</time>
</trkpt>
<trkpt lat="42.0023895" lon="2.824387300000012">
<ele>70.15941391953727</ele>
<time>2026-07-13T04:32:03.618Z</time>
</trkpt>
<trkpt lat="42.002415" lon="2.8243889999999965">
<ele>70.13660804782046</ele>
<time>2026-07-13T04:32:05.575Z</time>
</trkpt>
<trkpt lat="42.0024427" lon="2.824390099999988">
<ele>70.10661404763577</ele>
<time>2026-07-13T04:32:07.541Z</time>
</trkpt>
<trkpt lat="42.0024733" lon="2.8243850000000066">
<ele>70.02067553562632</ele>
<time>2026-07-13T04:32:09.498Z</time>
</trkpt>
<trkpt lat="42.0025039" lon="2.8243784000000005">
<ele>69.92019028831011</ele>
<time>2026-07-13T04:32:11.444Z</time>
</trkpt>
<trkpt lat="42.0025337" lon="2.8243717999999944">
<ele>69.91560582068406</ele>
<time>2026-07-13T04:32:13.416Z</time>
</trkpt>
<trkpt lat="42.0025646" lon="2.8243674">
<ele>69.9315280323567</ele>
<time>2026-07-13T04:32:15.398Z</time>
</trkpt>
<trkpt lat="42.0025942" lon="2.8243611999999985">
<ele>69.92833343482242</ele>
<time>2026-07-13T04:32:17.358Z</time>
</trkpt>
<trkpt lat="42.002623" lon="2.82436899999999">
<ele>70.04937818196426</ele>
<time>2026-07-13T04:32:19.301Z</time>
</trkpt>
<trkpt lat="42.0026525" lon="2.8243763000000115">
<ele>70.16826014641691</ele>
<time>2026-07-13T04:32:21.280Z</time>
</trkpt>
<trkpt lat="42.0026805" lon="2.82437920000001">
<ele>70.24509921830438</ele>
<time>2026-07-13T04:32:23.252Z</time>
</trkpt>
<trkpt lat="42.0027051" lon="2.8243769999999984">
<ele>70.2690386532662</ele>
<time>2026-07-13T04:32:25.221Z</time>
</trkpt>
<trkpt lat="42.0027288" lon="2.8243684999999914">
<ele>70.23245185694721</ele>
<time>2026-07-13T04:32:27.195Z</time>
</trkpt>
<trkpt lat="42.002751" lon="2.824348299999997">
<ele>70.08265214843497</ele>
<time>2026-07-13T04:32:29.179Z</time>
</trkpt>
<trkpt lat="42.0027701" lon="2.824339699999996">
<ele>70.03458957111826</ele>
<time>2026-07-13T04:32:31.499Z</time>
</trkpt>
<trkpt lat="42.0027936" lon="2.824334499999992">
<ele>70.03005639397318</ele>
<time>2026-07-13T04:32:33.608Z</time>
</trkpt>
<trkpt lat="42.0028211" lon="2.8243295000000046">
<ele>70.04618825319709</ele>
<time>2026-07-13T04:32:35.759Z</time>
</trkpt>
<trkpt lat="42.0028507" lon="2.8243161000000043">
<ele>70.01394368209482</ele>
<time>2026-07-13T04:32:37.773Z</time>
</trkpt>
<trkpt lat="42.0028794" lon="2.824304600000005">
<ele>70.0153107222509</ele>
<time>2026-07-13T04:32:39.720Z</time>
</trkpt>
<trkpt lat="42.0029086" lon="2.8242903999999953">
<ele>70.02325514357074</ele>
<time>2026-07-13T04:32:41.698Z</time>
</trkpt>
<trkpt lat="42.0029311" lon="2.8242698999999902">
<ele>69.99957868635228</ele>
<time>2026-07-13T04:32:43.558Z</time>
</trkpt>
<trkpt lat="42.0029514" lon="2.8242395000000045">
<ele>69.95106942165012</ele>
<time>2026-07-13T04:32:45.598Z</time>
</trkpt>
<trkpt lat="42.0029624" lon="2.8242051000000004">
<ele>69.86937221306535</ele>
<time>2026-07-13T04:32:47.686Z</time>
</trkpt>
<trkpt lat="42.0029604" lon="2.8241714000000115">
<ele>69.88304071873122</ele>
<time>2026-07-13T04:32:49.576Z</time>
</trkpt>
<trkpt lat="42.0029623" lon="2.824143399999997">
<ele>69.9389269024739</ele>
<time>2026-07-13T04:32:51.499Z</time>
</trkpt>
<trkpt lat="42.0029675" lon="2.8241304999999954">
<ele>69.99278398299137</ele>
<time>2026-07-13T04:32:52.114Z</time>
</trkpt>
<trkpt lat="42.0029537" lon="2.8241163000000142">
<ele>69.92534007954475</ele>
<time>2026-07-13T04:32:56.023Z</time>
</trkpt>
<trkpt lat="42.0029301" lon="2.8240035999999975">
<ele>69.93217152444537</ele>
<time>2026-07-13T04:32:58.007Z</time>
</trkpt>
<trkpt lat="42.0029146" lon="2.823964100000012">
<ele>69.87695747822423</ele>
<time>2026-07-13T04:32:59.990Z</time>
</trkpt>
</trkseg></trk></gpx>
