{"type":"FeatureCollection","features":[{"type":"Feature","id":"catalunya5","properties":{"name":"OSM Catalunya Muntanya i Camins","description":"Cartografia vectorial d'OpenStreetMap orientada a senderisme, compatible amb l'estil OSM Bright offline.","attribution":"<a href=\"https://www.openstreetmap.org/copyright\" target=\"_blank\">&copy; OpenStreetMap contributors</a>","version":"1.0","type":"baselayer","format":"pbf","bounds":"0.15638,40.21245,4.17479,42.92425","center":"2.16559,41.56835,7","minzoom":"0","maxzoom":"14","json":"{\"vector_layers\":[{\"id\":\"building\",\"fields\":{\"building\":\"String\",\"building:levels\":\"String\",\"height\":\"String\",\"name\":\"String\",\"roof:shape\":\"String\"},\"minzoom\":13,\"maxzoom\":14},{\"id\":\"landcover\",\"fields\":{\"class\":\"String\",\"subclass\":\"String\"},\"minzoom\":5,\"maxzoom\":14},{\"id\":\"landuse\",\"fields\":{\"class\":\"String\"},\"minzoom\":8,\"maxzoom\":14},{\"id\":\"mountain_peak\",\"fields\":{\"class\":\"String\",\"ele\":\"String\",\"name\":\"String\",\"name:latin\":\"String\"},\"minzoom\":10,\"maxzoom\":14},{\"id\":\"park\",\"fields\":{\"class\":\"String\"},\"minzoom\":8,\"maxzoom\":14},{\"id\":\"place\",\"fields\":{\"class\":\"String\",\"name\":\"String\",\"name:latin\":\"String\"},\"minzoom\":4,\"maxzoom\":14},{\"id\":\"poi\",\"fields\":{\"class\":\"String\",\"name\":\"String\",\"name:latin\":\"String\",\"subclass\":\"String\"},\"minzoom\":12,\"maxzoom\":14},{\"id\":\"transportation\",\"fields\":{\"access\":\"String\",\"bicycle\":\"String\",\"brunnel\":\"String\",\"class\":\"String\",\"foot\":\"String\",\"highway\":\"String\",\"horse\":\"String\",\"motor_vehicle\":\"String\",\"mtb:scale\":\"String\",\"mtb:scale:uphill\":\"String\",\"name\":\"String\",\"name:latin\":\"String\",\"oneway\":\"Number\",\"ramp\":\"Number\",\"ref\":\"String\",\"sac_scale\":\"String\",\"smoothness\":\"String\",\"subclass\":\"String\",\"surface\":\"String\",\"tracktype\":\"String\",\"trail_visibility\":\"String\"},\"minzoom\":5,\"maxzoom\":14},{\"id\":\"transportation_name\",\"fields\":{\"class\":\"String\",\"name\":\"String\",\"name:latin\":\"String\",\"ref\":\"String\"},\"minzoom\":10,\"maxzoom\":14},{\"id\":\"water\",\"fields\":{\"class\":\"String\",\"name\":\"String\",\"name:latin\":\"String\"},\"minzoom\":4,\"maxzoom\":14},{\"id\":\"water_points\",\"fields\":{\"access\":\"String\",\"amenity\":\"String\",\"drinking_water\":\"String\",\"name\":\"String\",\"natural\":\"String\"},\"minzoom\":13,\"maxzoom\":14},{\"id\":\"waterway\",\"fields\":{\"class\":\"String\",\"intermittent\":\"Number\",\"name\":\"String\",\"name:latin\":\"String\"},\"minzoom\":8,\"maxzoom\":14}]}","planetiler:buildtime":"2026-03-28T14:35:36.815Z","planetiler:githash":"0e5588c4a6e8c29a270a33afe8df62027d889604","planetiler:osm:osmosisreplicationseq":"1813","planetiler:osm:osmosisreplicationtime":"2026-09-19T20:22:34Z","planetiler:osm:osmosisreplicationurl":"https://download.geofabrik.de/europe/spain/cataluna-updates","planetiler:version":"0.10.2","compression":"gzip","filename":"catalunya5.mbtiles"},"geometry":{"type":"Polygon","coordinates":[[[0.15638,40.21245],[4.17479,40.21245],[4.17479,42.92425],[0.15638,42.92425],[0.15638,40.21245]]]}},{"type":"Feature","id":"corse","properties":{"name":"OSM Catalunya Muntanya i Camins","description":"Cartografia vectorial d'OpenStreetMap orientada a senderisme, compatible amb l'estil OSM Bright offline.","attribution":"<a href=\"https://www.openstreetmap.org/copyright\" target=\"_blank\">&copy; OpenStreetMap contributors</a>","version":"1.0","type":"baselayer","format":"pbf","bounds":"8.31788,41.31103,9.75124,43.16589","center":"9.03456,42.23846,8","minzoom":"0","maxzoom":"14","json":"{\"vector_layers\":[{\"id\":\"building\",\"fields\":{\"building\":\"String\",\"building:levels\":\"String\",\"height\":\"String\",\"name\":\"String\",\"roof:shape\":\"String\"},\"minzoom\":13,\"maxzoom\":14},{\"id\":\"landcover\",\"fields\":{\"class\":\"String\"},\"minzoom\":5,\"maxzoom\":14},{\"id\":\"landuse\",\"fields\":{\"class\":\"String\"},\"minzoom\":8,\"maxzoom\":14},{\"id\":\"mountain_peak\",\"fields\":{\"class\":\"String\",\"ele\":\"String\",\"name\":\"String\",\"name:latin\":\"String\"},\"minzoom\":10,\"maxzoom\":14},{\"id\":\"park\",\"fields\":{\"class\":\"String\"},\"minzoom\":8,\"maxzoom\":14},{\"id\":\"place\",\"fields\":{\"class\":\"String\",\"name\":\"String\",\"name:latin\":\"String\"},\"minzoom\":4,\"maxzoom\":14},{\"id\":\"poi\",\"fields\":{\"class\":\"String\",\"name\":\"String\",\"name:latin\":\"String\",\"subclass\":\"String\"},\"minzoom\":12,\"maxzoom\":14},{\"id\":\"transportation\",\"fields\":{\"access\":\"String\",\"bicycle\":\"String\",\"brunnel\":\"String\",\"class\":\"String\",\"foot\":\"String\",\"highway\":\"String\",\"horse\":\"String\",\"motor_vehicle\":\"String\",\"mtb:scale\":\"String\",\"mtb:scale:uphill\":\"String\",\"name\":\"String\",\"name:latin\":\"String\",\"oneway\":\"Number\",\"ramp\":\"Number\",\"ref\":\"String\",\"sac_scale\":\"String\",\"smoothness\":\"String\",\"subclass\":\"String\",\"surface\":\"String\",\"tracktype\":\"String\",\"trail_visibility\":\"String\"},\"minzoom\":6,\"maxzoom\":14},{\"id\":\"transportation_name\",\"fields\":{\"class\":\"String\",\"name\":\"String\",\"name:latin\":\"String\",\"ref\":\"String\"},\"minzoom\":10,\"maxzoom\":14},{\"id\":\"water\",\"fields\":{\"class\":\"String\",\"name\":\"String\",\"name:latin\":\"String\"},\"minzoom\":3,\"maxzoom\":14},{\"id\":\"water_points\",\"fields\":{\"access\":\"String\",\"amenity\":\"String\",\"drinking_water\":\"String\",\"name\":\"String\",\"natural\":\"String\"},\"minzoom\":13,\"maxzoom\":14},{\"id\":\"waterway\",\"fields\":{\"class\":\"String\",\"intermittent\":\"Number\",\"name\":\"String\",\"name:latin\":\"String\"},\"minzoom\":8,\"maxzoom\":14}]}","planetiler:buildtime":"2026-03-28T14:35:36.815Z","planetiler:githash":"0e5588c4a6e8c29a270a33afe8df62027d889604","planetiler:osm:osmosisreplicationseq":"4917","planetiler:osm:osmosisreplicationtime":"2026-09-25T20:24:36Z","planetiler:osm:osmosisreplicationurl":"https://download.geofabrik.de/europe/france/corse-updates","planetiler:version":"0.10.2","compression":"gzip","filename":"corse.mbtiles"},"geometry":{"type":"Polygon","coordinates":[[[8.31788,41.31103],[9.75124,41.31103],[9.75124,43.16589],[8.31788,43.16589],[8.31788,41.31103]]]}},{"type":"Feature","id":"la_rioja_89797","properties":{"name":"OSM Catalunya Muntanya i Camins","description":"Cartografia vectorial d'OpenStreetMap orientada a senderisme, compatible amb l'estil OSM Bright offline.","attribution":"<a href=\"https://www.openstreetmap.org/copyright\" target=\"_blank\">&copy; OpenStreetMap contributors</a>","version":"1.0","type":"baselayer","format":"pbf","bounds":"-3.1402,41.91403,-1.67301,42.64621","center":"-2.40661,42.28012,8","minzoom":"0","maxzoom":"14","json":"{\"vector_layers\":[{\"id\":\"building\",\"fields\":{\"building\":\"String\",\"building:levels\":\"String\",\"height\":\"String\",\"name\":\"String\",\"roof:shape\":\"String\"},\"minzoom\":13,\"maxzoom\":14},{\"id\":\"landcover\",\"fields\":{\"class\":\"String\"},\"minzoom\":5,\"maxzoom\":14},{\"id\":\"landuse\",\"fields\":{\"class\":\"String\"},\"minzoom\":8,\"maxzoom\":14},{\"id\":\"mountain_peak\",\"fields\":{\"class\":\"String\",\"ele\":\"String\",\"name\":\"String\",\"name:latin\":\"String\"},\"minzoom\":10,\"maxzoom\":14},{\"id\":\"park\",\"fields\":{\"class\":\"String\"},\"minzoom\":8,\"maxzoom\":14},{\"id\":\"place\",\"fields\":{\"class\":\"String\",\"name\":\"String\",\"name:latin\":\"String\"},\"minzoom\":4,\"maxzoom\":14},{\"id\":\"poi\",\"fields\":{\"class\":\"String\",\"name\":\"String\",\"name:latin\":\"String\",\"subclass\":\"String\"},\"minzoom\":12,\"maxzoom\":14},{\"id\":\"transportation\",\"fields\":{\"access\":\"String\",\"bicycle\":\"String\",\"brunnel\":\"String\",\"class\":\"String\",\"foot\":\"String\",\"highway\":\"String\",\"horse\":\"String\",\"motor_vehicle\":\"String\",\"mtb:scale\":\"String\",\"mtb:scale:uphill\":\"String\",\"name\":\"String\",\"name:latin\":\"String\",\"oneway\":\"Number\",\"ramp\":\"Number\",\"ref\":\"String\",\"sac_scale\":\"String\",\"smoothness\":\"String\",\"subclass\":\"String\",\"surface\":\"String\",\"tracktype\":\"String\",\"trail_visibility\":\"String\"},\"minzoom\":5,\"maxzoom\":14},{\"id\":\"transportation_name\",\"fields\":{\"class\":\"String\",\"name\":\"String\",\"name:latin\":\"String\",\"ref\":\"String\"},\"minzoom\":10,\"maxzoom\":14},{\"id\":\"water\",\"fields\":{\"class\":\"String\",\"name\":\"String\",\"name:latin\":\"String\"},\"minzoom\":7,\"maxzoom\":14},{\"id\":\"water_points\",\"fields\":{\"access\":\"String\",\"amenity\":\"String\",\"drinking_water\":\"String\",\"name\":\"String\",\"natural\":\"String\"},\"minzoom\":13,\"maxzoom\":14},{\"id\":\"waterway\",\"fields\":{\"class\":\"String\",\"intermittent\":\"Number\",\"name\":\"String\",\"name:latin\":\"String\"},\"minzoom\":8,\"maxzoom\":14}]}","planetiler:buildtime":"2026-03-28T14:35:36.815Z","planetiler:githash":"0e5588c4a6e8c29a270a33afe8df62027d889604","planetiler:osm:osmosisreplicationseq":"1818","planetiler:osm:osmosisreplicationtime":"2026-09-25T20:24:36Z","planetiler:osm:osmosisreplicationurl":"https://download.geofabrik.de/europe/spain/la-rioja-updates","planetiler:version":"0.10.2","compression":"gzip","filename":"la_rioja_89797.mbtiles"},"geometry":{"type":"Polygon","coordinates":[[[-3.1402,41.91403],[-1.67301,41.91403],[-1.67301,42.64621],[-3.1402,42.64621],[-3.1402,41.91403]]]}}]}